FID	Shape	Borough	Block	Lot	CD	CT2010	CB2010	SchoolDist	Council	ZipCode	FireComp	PolicePrct	HealthArea	SanitBoro	SanitDistr	SanitSub	Address	ZoneDist1	ZoneDist2	ZoneDist3	ZoneDist4	Overlay1	Overlay2	SPDist1	SPDist2	SPDist3	LtdHeight	SplitZone	BldgClass	LandUse	Easements	OwnerType	OwnerName	LotArea	BldgArea	ComArea	ResArea	OfficeArea	RetailArea	GarageArea	StrgeArea	FactryArea	OtherArea	AreaSource	NumBldgs	NumFloors	UnitsRes	UnitsTotal	LotFront	LotDepth	BldgFront	BldgDepth	Ext	ProxCode	IrrLotCode	LotType	BsmtCode	AssessLand	AssessTot	ExemptLand	ExemptTot	YearBuilt	YearAlter1	YearAlter2	HistDist	Landmark	BuiltFAR	ResidFAR	CommFAR	FacilFAR	BoroCode	BBL	CondoNo	Tract2010	XCoord	YCoord	ZoneMap	ZMCode	Sanborn	TaxMap	EDesigNum	APPBBL	APPDate	PLUTOMapID	Version	MAPPLUTO_F	SHAPE_Leng	SHAPE_Area
35459	<geoprocessing describe geometry object object at 0x0348EB80>	MN	2004	1	109	 219	1005	05	7	10027	E047	26	1100	1	09	2A	        MARGINAL STREET	M1-1	 	 	 	 	 	MMU	 	 	 	N	V1	11	0	C	NYC DSBS	96275	0	0	0	0	0	0	0	0	0	4	0	0.0	0	0	292.0	310.0	0.0	0.0	 	0	Y	2	5	96300.0	96300.0	96300.0	96300.0	0	0	0	 	 	0.0	0.0	1.0	2.4	1	1020040001.0	0	0219	994686	237495	5c	 	107N105	10707	 	0.0	 	1	16V2	0	601.520137569	2927.19871361
35462	<geoprocessing describe geometry object object at 0x0F02D380>	MN	2004	92	109	 219	1001	05	7	10027	E080	26	1100	1	09	2A	        MARGINAL STREET	M1-1	 	 	 	 	 	MMU	 	 	 	N	V9	11	0	C	NYC DSBS	158428	0	0	0	0	0	0	0	0	0	4	0	0.0	0	0	382.5	428.92	0.0	0.0	 	0	Y	9	5	676350.0	676350.0	676350.0	676350.0	0	0	0	 	 	0.0	0.0	1.0	2.4	1	1020040092.0	0	0219	995058	238135	5c	 	111S001	10707	 	0.0	 	1	16V2	0	716.230894768	1709.98800869
35465	<geoprocessing describe geometry object object at 0x0F02D3C0>	MN	2004	12	109	 219	1005	05	7	10027	E047	26	1100	1	09	2A	69 ST CLAIRE PLACE	M1-2	 	 	 	 	 	MMU	 	 	 	N	K2	05	0	 	MIDTOWN PROPERTIES,	12196	24392	24392	0	0	24392	0	0	0	0	2	1	2.0	0	2	160.0	82.58	160.0	82.58	 	0	Y	3	5	249300.0	3038400.0	0.0	0.0	1926	2008	0	 	 	2.0	0.0	2.0	4.8	1	1020040012.0	0	0219	995056	237296	5c	 	107N105	10707	 	0.0	 	1	16V2	0	496.339854509	12242.412972
35468	<geoprocessing describe geometry object object at 0x0F02D3C0>	MN	2004	8	109	 219	1005	05	7	10027	E047	26	1100	1	09	2A	71 ST CLAIRE PLACE	M1-2	 	 	 	 	 	MMU	 	 	 	N	K1	05	0	P	COLUMBIA WATERFRONT,	46510	6475	6475	0	0	4501	0	0	1974	0	2	1	1.0	0	2	102.58	200.5	87.0	53.0	 	3	Y	3	0	469800.0	1420200.0	0.0	0.0	1914	0	0	 	 	0.14	0.0	2.0	4.8	1	1020040008.0	0	0219	994989	237344	5c	 	17N 092	10707	 	0.0	 	1	16V2	0	592.736223636	19678.3736772
35469	<geoprocessing describe geometry object object at 0x0F02D060>	MN	2004	56	109	 219	1006	05	7	10027	E080	26	1100	1	09	2A	        MARGINAL STREET	M1-1	 	 	 	 	 	MMU	 	 	 	N	T2	07	0	C	NYC DSBS	143600	0	0	0	0	0	0	0	0	0	7	0	0.0	0	0	402.0	390.0	0.0	0.0	 	0	Y	2	5	2016000.0	2016000.0	2016000.0	2016000.0	0	0	0	 	 	0.0	0.0	1.0	2.4	1	1020040056.0	0	0219	994861	237796	5c	 	111S001	10707	 	0.0	 	1	16V2	0	821.218979805	3262.00056941
35470	<geoprocessing describe geometry object object at 0x0F02D060>	MN	2002	21	109	 223.01	4000	06	7	10031	E080	30	900	1	09	2A	617 WEST 135 STREET	R8	 	 	 	 	 	 	 	 	 	N	C1	02	0	P	609-619 WEST 135 STRE	3997	14260	0	14260	0	0	0	0	0	0	2	1	5.0	21	21	40.0	99.92	40.0	84.0	 	3	N	5	2	36000.0	432450.0	0.0	0.0	1905	1986	0	 	 	3.57	6.02	0.0	6.5	1	1020020021.0	0	022301	996432	238314	6a	 	111S020	10707	 	0.0	 	1	16V2	0	297.567861155	4336.40948407
35471	<geoprocessing describe geometry object object at 0x0F02D5E0>	MN	1982	49	109	 219	1015	05	7	10027	E037	26	1100	1	09	2B	13 OLD BROADWAY	R7A	 	 	 	C2-4	 	125	 	 	 	N	M1	08	0	X	CHEVRA TALMUND TORAH	2508	3759	3759	0	0	0	0	0	0	3759	2	1	2.0	0	1	25.08	100.0	25.08	100.0	 	0	N	5	2	53100.0	232650.0	53100.0	232650.0	1901	0	0	 	 	1.5	4.0	0.0	4.0	1	1019820049.0	0	0219	996132	236287	5c	 	107N093	10707	 	0.0	 	1	16V2	0	250.395206737	2457.92133077
35473	<geoprocessing describe geometry object object at 0x0F02D5E0>	MN	1970	51	109	 213.03	1001	05	9	10027	E080	26	1100	1	09	2B	100 CONVENT AVENUE	R7A	 	 	 	 	 	 	 	 	 	N	C1	02	0	P	CONVENT REALTY LLC	7488	24825	0	24825	0	0	0	0	0	0	2	1	5.0	34	34	72.0	107.25	69.0	91.0	 	3	Y	5	1	102150.0	506250.0	0.0	0.0	1910	1988	0	 	 	3.32	4.0	0.0	4.0	1	1019700051.0	0	021303	997262	236831	6a	 	111S004	10707	 	0.0	 	1	16V2	0	355.695912325	7454.59953434
35475	<geoprocessing describe geometry object object at 0x0F02D100>	MN	1999	33	109	 219	1000	05	7	10027	E080	26	1100	1	09	2A	3289 BROADWAY	C6-1	 	 	 	 	 	MMU	 	 	 	N	C4	02	0	C	HOUSING PRESERVATION	1875	5648	0	5648	0	0	0	0	0	0	2	1	4.0	8	8	25.0	75.0	25.0	61.0	 	3	N	5	2	20522.0	77227.0	20522.0	77227.0	1920	1989	0	 	 	3.01	3.44	6.0	6.5	1	1019990033.0	0	0219	996270	237543	5c	Y	111S002	10707	E-188	0.0	 	1	16V2	0	200.000052889	1875.00045371
35476	<geoprocessing describe geometry object object at 0x0F02DA60>	MN	1982	34	109	 219	1015	05	7	10027	E037	26	1100	1	09	2B	510 WEST 126 STREET	R7A	 	 	 	C2-4	 	125	 	 	 	N	I5	08	0	X	ST. MARY'S CENTER, IN	4550	11847	11847	0	0	0	0	0	0	11847	2	1	2.0	0	2	50.0	100.0	50.0	95.0	 	3	Y	5	2	105750.0	960750.0	105750.0	960750.0	1950	1996	1996	 	 	2.6	4.0	0.0	4.0	1	1019820034.0	0	0219	996349	235994	6a	 	107N093	10707	 	0.0	 	1	16V2	0	306.39887928	4721.5974791
35477	<geoprocessing describe geometry object object at 0x0F02DA60>	MN	2101	58	109	 223.01	3002	06	7	10031	E080	30	900	1	09	2A	701 WEST 135 STREET	M1-1	 	 	 	 	 	 	 	 	 	N	K2	05	0	 	CRP 701 WEST 135TH ST	11873	19186	19186	0	0	19186	0	0	0	0	2	1	3.0	0	4	0.0	0.0	0.0	0.0	 	0	N	0	5	69300.0	1953900.0	0.0	1839600.0	1926	0	0	 	 	1.62	0.0	1.0	2.4	1	1021010058.0	0	022301	995969	238719	5c	 	111S035	10710	 	0.0	 	1	16V2	0	809.237521046	12535.8607849
35478	<geoprocessing describe geometry object object at 0x0F02DDE0>	MN	1969	81	109	 213.03	2000	05	7	10027	E037	26	1100	1	09	2B	1413 AMSTERDAM AVENUE	R7A	 	 	 	C1-4	 	 	 	 	 	N	C7	04	0	P	1411 AMSTERDAM AVE ET	5009	14044	2700	11344	0	2700	0	0	0	0	2	2	4.0	14	16	25.17	100.0	25.17	75.0	 	0	N	5	5	31950.0	565650.0	0.0	443019.0	1901	1993	0	 	 	2.8	4.0	0.0	4.0	1	1019690081.0	0	021303	996867	236335	6a	 	107N096	10707	 	1019690081.0	01/05/1993	1	16V2	0	312.188951657	5403.98636405
35479	<geoprocessing describe geometry object object at 0x0F02D540>	MN	1953	58	109	 213.03	4002	05	9	10027	E037	26	1100	1	09	2B	370 WEST 127 STREET	R7A	 	 	 	 	 	 	 	 	 	N	C1	02	0	P	370-372 WEST 127 LLC	2477	9685	0	9685	0	0	0	0	0	0	2	1	5.0	10	10	25.0	99.08	25.0	86.0	 	0	N	5	5	167346.0	484464.0	0.0	317118.0	1901	1990	0	 	 	3.91	4.0	0.0	4.0	1	1019530058.0	0	021303	997345	235208	6a	 	107N097	10706	 	0.0	 	1	16V2	0	260.347736557	2796.35163414
35480	<geoprocessing describe geometry object object at 0x0F02D540>	MN	1987	53	109	 219	2000	05	7	10031	E080	30	1100	1	09	2B	524 WEST 134 STREET	R7A	 	 	 	 	 	 	 	 	 	N	C1	02	0	P	CUNDEL REALTY CO INC	4371	15370	0	15370	0	0	0	0	0	0	2	1	5.0	24	24	43.75	99.92	38.0	87.0	 	3	N	5	1	50850.0	397350.0	0.0	0.0	1905	0	0	 	 	3.52	4.0	0.0	4.0	1	1019870053.0	0	0219	996775	237604	6a	 	111S012	10707	E-188	0.0	 	1	16V2	0	295.927363598	4645.5076143
35483	<geoprocessing describe geometry object object at 0x0F02D080>	MN	1967	13	109	 213.03	2003	05	7	10027	E037	26	1100	1	09	2B	421 WEST 126 STREET	M1-5/R7-2	 	 	 	 	 	MX-15	 	 	 	N	O2	05	0	P	HERITAGE HEALTH & HOU	4044	8200	8200	0	8200	0	0	0	0	0	2	1	2.0	0	2	28.17	143.58	28.0	144.0	 	2	Y	4	2	49500.0	513000.0	49500.0	513000.0	1926	1989	0	 	 	2.03	4.0	5.0	6.5	1	1019670013.0	0	021303	996941	235409	6a	 	107N095	10707	 	0.0	 	1	16V2	0	329.513157902	3263.81490592
35485	<geoprocessing describe geometry object object at 0x0F02D080>	MN	1968	23	109	 213.03	2001	05	7	10027	E037	26	1100	1	09	2B	22 CONVENT AVENUE	R7A	 	 	 	 	 	 	 	 	 	N	C1	02	0	C	HOUSING PRESERVATION	2725	14310	0	14310	0	0	0	0	0	0	2	1	5.0	19	19	64.0	76.42	62.0	61.0	 	2	Y	3	2	20700.0	783000.0	20700.0	783000.0	1926	1984	0	 	 	5.25	4.0	0.0	4.0	1	1019680023.0	0	021303	997167	235750	6a	 	107N096	10707	 	0.0	 	1	16V2	0	234.510996737	3093.51837093
35488	<geoprocessing describe geometry object object at 0x0F02DAE0>	MN	1988	127	109	 223.01	2002	06	7	10031	E080	30	900	1	09	2B	528 WEST 136 STREET	R7A	 	 	 	 	 	 	 	 	 	N	D7	04	0	P	530 WEST 136TH REALTY	9992	41520	1200	40320	0	1200	0	0	0	0	2	1	6.0	37	39	100.0	99.92	100.0	84.0	 	3	N	5	2	77850.0	631800.0	0.0	0.0	1926	1985	0	 	 	4.16	4.0	0.0	4.0	1	1019880127.0	0	022301	997044	238095	6a	 	111S021	10707	 	0.0	 	1	16V2	0	405.406289001	10267.8510513
35489	<geoprocessing describe geometry object object at 0x0F02DAE0>	MN	1968	58	109	 213.03	3001	05	9	10027	E037	26	1100	1	09	2B	29 CONVENT AVENUE	R7A	 	 	 	 	 	 	 	 	 	N	C6	02	0	P	29-33 CONVENT AVENUE	4234	15430	0	15430	0	0	0	0	0	0	2	1	5.0	24	24	62.42	88.33	45.0	75.0	 	3	Y	5	2	50850.0	485100.0	50850.0	250212.0	1910	1994	1994	 	 	3.64	4.0	0.0	4.0	1	1019680058.0	0	021303	997303	235798	6a	 	107N096	10707	 	0.0	 	1	16V2	0	274.171699086	4464.76066376
35490	<geoprocessing describe geometry object object at 0x0F02DAE0>	MN	1986	1	109	 219	2002	05	7	10027	E080	26	1100	1	09	2A	3260 BROADWAY	C6-1	 	 	 	 	 	MMU	 	 	 	N	G4	07	0	P	THE TRUSTEES OF COLUM	9985	1950	1950	0	0	0	1950	0	0	0	2	1	1.0	0	1	100.0	99.83	30.0	65.0	 	0	Y	3	5	337050.0	918900.0	0.0	0.0	1966	0	0	 	 	0.2	3.44	6.0	6.5	1	1019860001.0	0	0219	996318	237147	6a	Y	111S003	10707	R-146	0.0	 	1	16V2	0	407.836321932	10395.4886801
35491	<geoprocessing describe geometry object object at 0x0F02D580>	MN	2086	44	109	 223.01	3000	06	7	10031	E080	30	900	1	09	2A	620 WEST 138 STREET	R6A	 	 	 	 	 	 	 	 	 	N	B1	01	0	 	ECONOMOPOULOS HELEN	2498	2562	0	2562	0	0	0	0	0	0	2	1	2.0	2	2	25.0	99.92	21.0	61.92	 	2	N	5	2	7543.0	23288.0	1550.0	1550.0	1901	0	0	 	 	1.03	3.0	0.0	3.0	1	1020860044.0	0	022301	996738	238858	6a	 	111S020	10710	 	0.0	 	1	16V2	0	254.947908955	2561.83159867
35492	<geoprocessing describe geometry object object at 0x0F02D580>	MN	2101	115	109	 223.01	3002	06	7	10031	E080	30	900	1	09	2A	        WEST 155 STREET	PARK	 	 	 	 	 	 	 	 	 	N	Q0	09	0	C	THE CITY OF NEW YORK/	8907	0	0	0	0	0	0	0	0	0	4	0	0.0	0	0	19.0	285.0	0.0	0.0	 	0	Y	5	5	326250.0	326250.0	326250.0	326250.0	0	0	0	 	 	0.0	0.0	0.0	0.0	1	1021010115.0	0	022301	995895	238744	5c	 	111S019	10710	 	0.0	 	1	16V2	0	644.94948438	10274.2516819
35493	<geoprocessing describe geometry object object at 0x0F02D7A0>	MN	1953	63	109	 213.03	4002	05	9	10027	E037	26	1100	1	09	2B	171 MORNINGSIDE AVENUE	R7A	 	 	 	 	 	 	 	 	 	N	C1	02	0	P	161-171 MORNINGSIDE L	1869	7400	0	7400	0	0	0	0	0	0	2	1	5.0	10	10	24.92	75.0	24.92	60.0	 	0	N	5	5	116817.0	370565.0	0.0	253748.0	1901	1990	0	 	 	3.96	4.0	0.0	4.0	1	1019530063.0	0	021303	997249	235246	6a	 	107N097	10706	 	0.0	 	1	16V2	0	203.978715336	1996.59504366
35494	<geoprocessing describe geometry object object at 0x0F02D7A0>	MN	2004	72	109	 219	1007	05	7	10027	E080	26	1100	1	09	2A	2308 JOE DIMAGGIO HIGHWAY	M1-2	 	 	 	 	 	MMU	 	 	 	N	K2	05	0	 	2290 12TH AVENUE	6677	13058	13058	0	0	500	0	12558	0	0	2	2	2.0	0	1	84.83	83.25	84.0	80.0	 	1	Y	3	2	99000.0	1507050.0	0.0	0.0	1940	1993	0	 	 	1.96	0.0	2.0	4.8	1	1020040072.0	0	0219	995397	237778	5c	 	107N105	10707	 	0.0	 	1	16V2	0	335.959654648	7032.40647981
35496	<geoprocessing describe geometry object object at 0x0F02D7A0>	MN	1987	50	109	 219	2000	05	7	10031	E080	30	1100	1	09	2B	520 WEST 134 STREET	R7A	 	 	 	 	 	 	 	 	 	N	C6	02	0	P	520 WEST 134 ST HDFC	4371	15370	0	15370	0	0	0	0	0	0	2	1	5.0	24	24	43.75	99.92	37.0	88.0	 	3	N	5	1	53550.0	412200.0	53550.0	179672.0	1910	1986	1993	 	 	3.52	4.0	0.0	4.0	1	1019870050.0	0	0219	996852	237561	6a	 	111S012	10707	 	0.0	 	1	16V2	0	293.056628537	4498.01333595
35497	<geoprocessing describe geometry object object at 0x0F02DDA0>	MN	1988	115	109	 223.01	2002	06	7	10031	E080	30	900	1	09	2B	510 WEST 136 STREET	R7A	 	 	 	 	 	 	 	 	 	N	C1	02	0	P	AW HOLDING L.P.	3747	15048	0	15048	0	0	0	0	0	0	2	1	6.0	18	18	37.5	99.92	37.0	84.0	 	3	N	5	2	51300.0	310500.0	0.0	0.0	1905	1988	2003	 	 	4.02	4.0	0.0	4.0	1	1019880115.0	0	022301	997323	237940	6a	 	111S021	10707	 	0.0	 	1	16V2	0	283.258756783	3951.74369471
35498	<geoprocessing describe geometry object object at 0x0F02DDA0>	MN	1988	46	109	 223.01	1000	05	7	10031	E080	30	900	1	09	2B	512 WEST 135 STREET	R7A	 	 	 	 	 	 	 	 	 	N	C1	02	0	P	WESTSIDE 135TH STREET	4246	19056	0	19056	0	0	0	0	0	0	2	1	6.0	25	25	45.83	99.92	46.0	85.0	 	3	N	5	2	64350.0	797400.0	64350.0	797400.0	1910	0	0	 	 	4.49	4.0	0.0	4.0	1	1019880046.0	0	022301	997072	237738	6a	 	111S021	10707	 	0.0	 	1	16V2	0	291.421931438	4608.59940705
35499	<geoprocessing describe geometry object object at 0x0F02DDA0>	MN	2086	48	109	 223.01	3000	06	7	10031	E080	30	900	1	09	2A	634 WEST 138 STREET	R6A	 	 	 	 	 	 	 	 	 	N	C2	02	0	P	REAL ESTATE INVESTORS	1499	2646	0	2646	0	0	0	0	0	0	2	1	3.0	6	6	15.0	99.92	15.0	60.0	E	3	N	5	5	9557.0	36757.0	0.0	0.0	1900	1988	0	 	 	1.77	3.0	0.0	3.0	1	1020860048.0	0	022301	996645	238909	6a	 	111S020	10710	 	0.0	 	1	16V2	0	236.318488062	1607.34566163
35501	<geoprocessing describe geometry object object at 0x0F02D3A0>	MN	1967	172	109	 213.03	2002	05	7	10027	E037	26	1100	1	09	2B	4 CONVENT AVENUE	R7A	 	 	 	 	 	 	 	 	 	N	B9	01	0	 	GIBBS, DONALD	960	2780	0	2780	0	0	0	0	0	0	2	1	3.0	2	2	20.08	47.75	20.08	40.0	 	3	Y	5	1	5041.0	29784.0	1550.0	1550.0	1899	2008	0	 	 	2.9	4.0	0.0	4.0	1	1019670172.0	0	021303	997168	235460	6a	 	107N095	10707	 	0.0	 	1	16V2	0	135.051144028	825.606508774
35503	<geoprocessing describe geometry object object at 0x0F02D3A0>	MN	1970	1	109	 213.03	1002	05	9	10027	E037	26	1100	1	09	2B	499 WEST 130 STREET	R7A	 	 	 	C1-4	 	 	 	 	 	N	C6	02	0	P	DEVELOPMENT FUND CORP	2492	11490	950	10540	0	950	0	0	0	0	2	1	5.0	17	19	24.92	100.0	25.0	94.0	 	2	N	3	2	18000.0	441900.0	18000.0	235750.0	1901	1987	0	 	 	4.61	4.0	0.0	4.0	1	1019700001.0	0	021303	996935	236464	6a	 	111S004	10707	 	0.0	 	1	16V2	0	269.447240695	2891.11290397
35505	<geoprocessing describe geometry object object at 0x0F02D3A0>	MN	1982	7	109	 219	1015	05	7	10027	E037	26	1100	1	09	2B	541 WEST 125 STREET	R7A	 	 	 	C2-4	 	125	 	 	 	N	M1	08	0	X	UNITED PENTECOSTAL CH	5000	9200	9200	0	0	0	0	9200	0	0	2	1	2.0	0	2	50.0	100.0	50.0	95.0	 	3	N	5	2	157500.0	853200.0	157500.0	853200.0	1950	1990	2000	 	 	1.84	4.0	0.0	4.0	1	1019820007.0	0	0219	996135	236122	5c	 	107N093	10707	 	0.0	 	1	16V2	0	308.416582333	5238.37352388
35506	<geoprocessing describe geometry object object at 0x0F02D500>	MN	2086	16	109	 223.01	3000	06	7	10031	E080	30	900	1	09	2A	609 WEST 137 STREET	R8	 	 	 	 	 	 	 	 	 	N	D1	03	0	P	WEST 137TH 609 LLC	9160	38750	0	38750	0	0	0	0	0	0	2	1	6.0	36	36	91.67	99.92	92.0	83.0	 	3	N	5	2	83700.0	1026000.0	0.0	0.0	1906	1986	0	 	 	4.23	6.02	0.0	6.5	1	1020860016.0	0	022301	996606	238812	6a	 	111S020	10710	 	0.0	 	1	16V2	0	398.607779368	9903.67960293
35507	<geoprocessing describe geometry object object at 0x0F02D500>	MN	1969	80	109	 213.03	2000	05	7	10027	E037	26	1100	1	09	2B	1415 AMSTERDAM AVENUE	R7A	 	 	 	C1-4	 	 	 	 	 	N	M1	08	0	P	MANHATTAN BAPTIST CHU	1875	1000	1000	0	0	0	0	0	0	1000	2	1	1.0	0	1	25.0	75.0	25.0	40.0	 	3	N	5	2	42300.0	103500.0	42300.0	103500.0	1920	1988	0	 	 	0.53	4.0	0.0	4.0	1	1019690080.0	0	021303	996873	236374	6a	 	107N096	10707	 	0.0	 	1	16V2	0	202.020594063	1810.65118447
35508	<geoprocessing describe geometry object object at 0x0F02D500>	MN	1953	53	109	 213.03	4002	05	9	10027	E037	26	1100	1	09	2B	360 WEST 127 STREET	R7A	 	 	 	 	 	 	 	 	 	N	C4	02	0	P	THE VINCENT JAMES MAN	2498	9865	0	9865	0	0	0	0	0	0	2	1	5.0	10	10	25.0	99.92	25.0	84.0	 	3	N	5	2	26000.0	36199.0	0.0	0.0	1910	0	0	 	 	3.95	4.0	0.0	4.0	1	1019530053.0	0	021303	997454	235147	6a	 	107N097	10706	 	0.0	 	1	16V2	0	258.647994647	2708.78056489
35509	<geoprocessing describe geometry object object at 0x0F02DF80>	MN	1970	62	109	 213.03	1001	05	9	10027	E080	26	1100	1	09	2B	1475 AMSTERDAM AVENUE	R7A	 	 	 	C1-4	 	 	 	 	 	N	C7	04	0	P	AMSTERDAM CONVENT REA	1875	7425	1000	6425	0	1000	0	0	0	0	2	1	5.0	8	10	25.0	75.0	25.0	55.0	 	3	N	5	2	17928.0	62747.0	0.0	0.0	1900	1960	2004	 	 	3.96	4.0	0.0	4.0	1	1019700062.0	0	021303	997251	237055	6a	 	111S004	10707	 	0.0	 	1	16V2	0	209.8241111	2061.26512049
35510	<geoprocessing describe geometry object object at 0x0F02DF80>	MN	1988	96	109	 223.01	2002	06	7	10031	E080	30	900	1	09	2B	511 WEST 135 STREET	R7A	 	 	 	 	 	 	 	 	 	N	C1	02	0	P	CITY COLLEGE DORMS	3997	13170	0	13170	0	0	0	0	0	0	2	1	5.0	21	21	40.0	99.92	40.0	86.0	 	3	N	5	2	40050.0	619650.0	0.0	0.0	1910	1988	0	 	 	3.29	4.0	0.0	4.0	1	1019880096.0	0	022301	997265	237854	6a	 	111S021	10707	 	0.0	 	1	16V2	0	286.312603768	4089.58829203
35511	<geoprocessing describe geometry object object at 0x0F02DF80>	MN	1988	98	109	 223.01	2002	06	7	10031	E080	30	900	1	09	2B	509 WEST 135 STREET	R7A	 	 	 	 	 	 	 	 	 	N	C1	02	0	P	AW HOLDING, LP.	3997	13170	0	13170	0	0	0	0	0	0	2	1	5.0	15	15	40.0	99.92	40.0	86.0	 	3	N	9	2	38700.0	188100.0	0.0	149400.0	1910	2002	0	 	 	3.29	4.0	0.0	4.0	1	1019880098.0	0	022301	997300	237835	6a	 	111S021	10707	 	0.0	 	1	16V2	0	286.286494484	4088.24043736
35514	<geoprocessing describe geometry object object at 0x0F02D900>	MN	2002	34	109	 223.01	4000	06	7	10031	E080	30	900	1	09	2A	3351 BROADWAY	R8	 	 	 	C1-4	 	 	 	 	 	N	D7	04	0	P	COB 3351 BROADWAY LLC	12490	60912	7500	53412	0	7500	0	0	0	0	2	1	6.0	44	51	99.92	125.0	100.0	113.0	 	2	N	3	2	283500.0	2171250.0	0.0	0.0	1926	1987	0	 	 	4.88	6.02	0.0	6.5	1	1020020034.0	0	022301	996663	238308	6a	 	111S020	10707	 	0.0	 	1	16V2	0	468.366883669	13631.804239
35517	<geoprocessing describe geometry object object at 0x0F02D900>	MN	2002	14	109	 223.01	4000	06	7	10031	E080	30	900	1	09	2A	625 WEST 135 STREET	R8	 	 	 	 	 	 	 	 	 	N	C1	02	0	P	AW HOLDING, LP.	5237	18905	0	18905	0	0	0	0	0	0	2	1	5.0	20	20	52.42	99.92	52.42	87.92	 	0	N	5	5	46800.0	230400.0	0.0	183600.0	1905	2000	0	 	 	3.61	6.02	0.0	6.5	1	1020020014.0	0	022301	996311	238382	6a	Y	111S020	10707	 	0.0	 	1	16V2	0	324.593282616	5809.17614934
35518	<geoprocessing describe geometry object object at 0x0F02D900>	MN	1970	63	109	 213.03	1001	05	9	10027	E080	26	1100	1	09	2B	1473 AMSTERDAM AVENUE	R7A	 	 	 	C1-4	 	 	 	 	 	N	S4	04	0	P	GREENE PACKAGE REALTY	1875	7425	1000	6425	0	1000	0	0	0	0	2	1	5.0	4	5	25.0	75.0	25.0	60.0	 	3	N	5	5	50762.0	136468.0	0.0	85706.0	1901	1960	1997	 	 	3.96	4.0	0.0	4.0	1	1019700063.0	0	021303	997238	237033	6a	 	111S004	10707	 	0.0	 	1	16V2	0	206.525765313	1931.42220441
35521	<geoprocessing describe geometry object object at 0x0F02D400>	MN	1967	30	109	 213.03	2003	05	7	10027	E037	26	1100	1	09	2B	410 WEST 127 STREET	M1-5/R7-2	 	 	 	 	 	MX-15	 	 	 	N	L9	06	0	P	WEST 127 STREET LLC	2941	7104	7104	0	2368	0	2368	2368	0	0	2	1	3.0	0	1	75.0	99.92	25.0	92.0	 	3	N	5	2	36000.0	348750.0	0.0	0.0	1926	1989	0	 	 	2.42	4.0	5.0	6.5	1	1019670030.0	0	021303	997016	235389	6a	 	107N095	10707	 	0.0	 	1	16V2	0	253.896242893	2548.57180699
35523	<geoprocessing describe geometry object object at 0x0F02D400>	MN	1982	1	109	 219	1015	05	7	10027	E037	26	1100	1	09	2B	1 OLD BROADWAY	R7A	 	 	 	C2-4	 	125	 	 	 	N	K1	05	0	P	THE TRUSTEES OF COLUM	6259	10800	10800	0	0	10800	0	0	0	0	2	1	1.0	0	3	101.08	61.92	101.0	20.0	 	0	N	3	5	188100.0	777600.0	0.0	0.0	1962	1992	0	 	 	1.73	4.0	0.0	4.0	1	1019820001.0	0	0219	996055	236266	5c	 	107N093	10707	 	0.0	 	1	16V2	0	415.338249005	7362.94934725
35525	<geoprocessing describe geometry object object at 0x0F02D400>	MN	1998	3	109	 219	1008	05	7	10027	E080	26	1100	1	09	2A	2307 JOE DIMAGGIO HIGHWAY	C6-1	 	 	 	 	 	MMU	 	 	 	N	V1	11	0	X	TRUSTEES OF COLUMBIA	6992	0	0	0	0	0	0	0	0	0	4	0	0.0	0	0	69.92	100.0	0.0	0.0	 	0	N	5	5	605880.0	605880.0	605880.0	605880.0	0	0	0	 	 	0.0	3.44	6.0	6.5	1	1019980003.0	0	0219	995513	237610	5c	 	111S002	10707	E-188	0.0	 	1	16V2	0	357.61803946	7616.67105288
35526	<geoprocessing describe geometry object object at 0x0F02D460>	MN	1987	48	109	 219	2000	05	7	10031	E080	30	1100	1	09	2B	518 WEST 134 STREET	R7A	 	 	 	 	 	 	 	 	 	N	C6	02	0	P	518 WEST 134 STREET H	4371	15370	0	15370	0	0	0	0	0	0	2	1	5.0	24	24	43.75	99.92	40.0	87.0	 	3	N	5	1	50850.0	386100.0	50850.0	153572.0	1905	1986	1993	 	 	3.52	4.0	0.0	4.0	1	1019870048.0	0	0219	996890	237539	6a	 	111S012	10707	 	0.0	 	1	16V2	0	292.270625028	4457.6392331
35527	<geoprocessing describe geometry object object at 0x0F02D460>	MN	2005	9	109	 223.02	1004	05	7	10027	E080	30	900	1	09	2A	2350 JOE DIMAGGIO HIGHWAY	M1-2	 	 	 	 	 	MMU	 	 	 	N	E1	06	1	P	SCHNEEWEISS FAMILY LI	17125	17960	17960	0	0	0	0	17960	0	0	2	1	3.0	0	1	123.0	201.08	120.0	50.0	 	0	Y	3	5	386100.0	1254600.0	0.0	0.0	1910	0	0	 	 	1.05	0.0	2.0	4.8	1	1020050009.0	0	022302	995610	238205	5c	 	111S001	10707	 	0.0	 	1	16V2	0	609.035075505	16559.7070189
35529	<geoprocessing describe geometry object object at 0x0F02D460>	MN	1988	34	109	 223.01	1000	05	7	10031	E080	30	900	1	09	2B	1512 AMSTERDAM AVENUE	R7A	 	 	 	C1-4	 	 	 	 	 	N	C7	04	0	 	1512 LLC	4000	16404	1800	14604	0	1800	0	0	0	0	2	1	6.0	22	24	40.0	100.0	40.0	86.0	 	3	N	5	2	78300.0	993600.0	0.0	0.0	1910	1988	0	 	 	4.1	4.0	0.0	4.0	1	1019880034.0	0	022301	997330	237581	6a	 	111S021	10707	 	0.0	 	1	16V2	0	279.597579263	4051.26010793
35531	<geoprocessing describe geometry object object at 0x0F02DA00>	MN	1982	33	109	 219	1015	05	7	10027	E037	26	1100	1	09	2B	508 WEST 126 STREET	R7A	 	 	 	C2-4	 	125	 	 	 	N	A1	01	0	P	ST.MARY'S CENTER INC.	2500	3750	0	3750	0	0	0	0	0	0	2	1	2.0	1	1	25.0	100.0	25.0	87.0	E	3	N	5	2	13435.0	54950.0	13435.0	54950.0	1920	0	0	 	 	1.5	4.0	0.0	4.0	1	1019820033.0	0	0219	996365	235960	6a	 	107N093	10707	 	0.0	 	1	16V2	0	255.821579932	2617.57702128
35532	<geoprocessing describe geometry object object at 0x0F02DA00>	MN	1967	15	109	 213.03	2003	05	7	10027	E037	26	1100	1	09	2B	417 WEST 126 STREET	M1-5/R7-2	 	 	 	 	 	MX-15	 	 	 	N	O5	05	0	P	MAROJUKA REALTY LLC	4075	12420	12420	0	10420	0	0	0	0	2000	2	2	3.0	0	2	28.17	169.58	28.0	170.0	 	3	Y	5	2	74250.0	1049850.0	0.0	895950.0	1926	1988	2005	 	 	3.05	4.0	5.0	6.5	1	1019670015.0	0	021303	996979	235373	6a	 	107N095	10707	 	0.0	 	1	16V2	0	387.878069507	4263.36182207
35533	<geoprocessing describe geometry object object at 0x0F02DA00>	MN	1998	49	109	 219	1008	05	7	10027	E080	26	1100	1	09	2A	624 WEST 132 STREET	C6-1	 	 	 	 	 	MMU	 	 	 	N	U2	07	0	 	CONSOLIDATED GAS CO	19984	0	0	0	0	0	0	0	0	0	7	6	0.0	0	0	200.0	99.92	0.0	0.0	 	0	N	5	5	0.0	0.0	0.0	0.0	0	0	0	 	 	0.0	3.44	6.0	6.5	1	1019980049.0	0	0219	995776	237561	5c	 	111S002	10707	 	0.0	 	1	16V2	0	599.770115171	20061.5830316
35536	<geoprocessing describe geometry object object at 0x0F02DA00>	MN	1971	1	109	 213.03	1000	05	9	10031	E080	26	1100	1	09	2B	499 WEST 133 STREET	R7A	 	 	 	C1-4	 	 	 	 	 	N	W1	08	0	C	DCAS/DEPARTMENT OF ED	40000	107745	107745	0	0	0	0	0	0	107745	2	1	4.0	0	1	200.08	200.0	162.0	187.0	 	1	Y	3	0	846000.0	7154100.0	846000.0	7154100.0	1962	1968	0	 	 	2.69	4.0	0.0	4.0	1	1019710001.0	0	021303	997403	237198	6a	 	111S013	10707	 	0.0	 	1	16V2	0	807.191699551	40705.7288325
35537	<geoprocessing describe geometry object object at 0x0F02D080>	MN	1988	74	109	 223.01	2002	06	7	10031	E080	30	900	1	09	2A	3340 BROADWAY	R8	R7A	 	 	C1-4	 	 	 	 	 	Y	D7	04	0	P	817 WEST END CO.	11990	56379	5500	50879	0	5500	0	0	0	0	2	1	6.0	36	42	99.92	120.0	90.92	110.0	 	0	N	3	2	485550.0	2039850.0	0.0	0.0	1909	0	0	 	 	4.7	6.02	0.0	6.5	1	1019880074.0	0	022301	996847	238085	6a	 	111S021	10707	 	0.0	 	1	16V2	0	449.713490489	12564.4896023
35540	<geoprocessing describe geometry object object at 0x0F02D080>	MN	1967	89	109	 213.03	2002	05	7	10027	E037	26	1100	1	09	2B	460 WEST 128 STREET	M1-5/R7-2	 	 	 	 	 	MX-15	 	 	 	N	E9	06	0	P	J128 LLC	24366	18000	18000	0	0	0	0	18000	0	0	2	1	2.0	0	4	200.33	99.0	135.0	66.0	 	2	Y	5	0	338850.0	397800.0	0.0	0.0	1920	2003	0	 	 	0.74	4.0	5.0	6.5	1	1019670089.0	0	021303	996850	235776	6a	 	107N095	10707	E-284	0.0	 	1	16V2	0	747.759121226	24312.0994306
35542	<geoprocessing describe geometry object object at 0x0F02D080>	MN	1996	14	109	 219	1010	05	7	10027	E037	26	1100	1	09	2A	637 WEST 125 STREET	C6-1	 	 	 	 	 	MMU	 	 	 	N	V1	11	0	 	THE TRUSTEES OF COLUM	23707	0	0	0	0	0	0	0	0	0	4	0	0.0	0	0	166.73	195.2	0.0	0.0	 	0	N	4	5	2734560.0	2734560.0	846029.0	846029.0	0	0	0	 	 	0.0	3.44	6.0	6.5	1	1019960014.0	0	0219	995516	237077	5c	 	107N092	10707	R-144	1019960014.0	07/15/2015	1	16V2	0	640.142867485	24246.2581603
35543	<geoprocessing describe geometry object object at 0x0F02DAE0>	MN	1970	65	109	 213.03	1001	05	9	10027	E080	26	1100	1	09	2B	1467 AMSTERDAM AVENUE	R7A	 	 	 	C1-4	 	 	 	 	 	N	C1	02	0	 	BX 1467 LLC	4925	19956	0	19956	0	0	0	0	0	0	2	1	6.0	28	30	49.25	100.0	49.0	84.0	 	3	Y	5	2	84150.0	404550.0	0.0	0.0	1910	0	0	 	 	4.05	4.0	0.0	4.0	1	1019700065.0	0	021303	997220	236971	6a	 	111S004	10707	 	0.0	 	1	16V2	0	314.319434543	5368.64863395
35544	<geoprocessing describe geometry object object at 0x0F02DAE0>	MN	1968	16	109	 213.03	2001	05	7	10027	E037	26	1100	1	09	2B	451 WEST 128 STREET	M1-5/R7-2	R7A	 	 	 	 	MX-15	 	 	 	Y	G9	07	0	 	CONVAM GARAGE COMPANY	24191	48400	48400	0	8400	0	40000	0	0	0	2	1	2.0	0	1	191.5	199.83	192.0	194.0	 	3	Y	4	2	594000.0	1672200.0	0.0	0.0	1924	2007	2010	 	 	2.0	4.0	5.0	6.5	1	1019680016.0	0	021303	997060	235879	6a	 	107N096	10707	E-284	0.0	 	1	16V2	0	712.631272326	26283.5958086
35545	<geoprocessing describe geometry object object at 0x0F02DAE0>	MN	1987	33	109	 219	2000	05	7	10031	E080	30	1100	1	09	2B	1488 AMSTERDAM AVENUE	R7A	 	 	 	C1-4	 	 	 	 	 	N	C1	02	0	P	EDWARD DOZIER SR HSGD	3983	14334	0	14334	0	0	0	0	0	0	2	1	6.0	18	18	39.83	100.0	39.83	87.0	 	0	N	9	5	78300.0	183600.0	0.0	97695.0	1905	1989	0	 	 	3.6	4.0	0.0	4.0	1	1019870033.0	0	0219	997185	237317	6a	 	111S012	10707	 	0.0	 	1	16V2	0	277.626374158	3943.04849899
35549	<geoprocessing describe geometry object object at 0x0F02DB20>	MN	1953	59	109	 213.03	4002	05	9	10027	E037	26	1100	1	09	2B	372 WEST 127 STREET	R7A	 	 	 	 	 	 	 	 	 	N	C1	02	0	P	370-372 WEST 127 LLC	3014	9685	0	9685	0	0	0	0	0	0	2	1	5.0	10	10	25.0	99.92	25.0	86.0	 	0	N	5	5	153591.0	458376.0	0.0	304785.0	1901	1990	0	 	 	3.21	4.0	0.0	4.0	1	1019530059.0	0	021303	997322	235221	6a	 	107N097	10706	 	0.0	 	1	16V2	0	256.066575919	2575.808813
35552	<geoprocessing describe geometry object object at 0x0F02DB20>	MN	1969	29	109	 213.03	3000	05	9	10027	E037	26	1100	1	09	2B	419 WEST 129 STREET	R7A	 	 	 	 	 	 	 	 	 	N	D1	03	0	P	129 STREET REALTY COR	14438	61602	0	61602	0	0	0	0	0	0	2	1	6.0	48	48	144.5	99.92	135.0	82.0	 	1	N	5	2	140850.0	902250.0	0.0	0.0	1920	1985	0	 	 	4.27	4.0	0.0	4.0	1	1019690029.0	0	021303	997420	235938	6a	 	107N096	10707	 	0.0	 	1	16V2	0	503.725747215	15456.1577418
35555	<geoprocessing describe geometry object object at 0x0F02DB20>	MN	1988	118	109	 223.01	2002	06	7	10031	E080	30	900	1	09	2B	514 WEST 136 STREET	R7A	 	 	 	 	 	 	 	 	 	N	C1	02	0	P	514 APARTMENTS LLC	3747	15048	0	15048	0	0	0	0	0	0	2	1	6.0	24	24	37.5	99.92	38.0	84.0	 	3	N	5	2	57600.0	465300.0	0.0	0.0	1905	1988	0	 	 	4.02	4.0	0.0	4.0	1	1019880118.0	0	022301	997257	237977	6a	 	111S021	10707	 	0.0	 	1	16V2	0	281.582894937	3865.10555661
35556	<geoprocessing describe geometry object object at 0x0F02D960>	MN	1988	7502	109	 223.01	2002	06	7	10031	E080	30	900	2	09	 	504 WEST 136 STREET	R7A	 	 	 	 	 	 	 	 	 	N	R4	03	1	 	 	7494	24178	0	24178	0	0	0	0	0	0	2	1	7.0	29	29	75.0	99.92	0.0	0.0	 	0	N	0	5	236248.0	1491298.0	221955.0	1477005.0	2006	0	0	 	 	3.23	4.0	0.0	4.0	1	1019887502.0	1565	022301	997406	237895	6a	 	111S021	10707	 	1019880111.0	07/06/2006	1	16V2	7	351.875143158	7499.82666897
35557	<geoprocessing describe geometry object object at 0x0F02D960>	MN	1988	83	109	 223.01	2002	06	7	10031	E080	30	900	1	09	2B	527 WEST 135 STREET	R7A	 	 	 	 	 	 	 	 	 	N	C1	02	0	P	525-527 W 135 LLC	3997	13800	0	13800	0	0	0	0	0	0	2	1	5.0	21	21	40.0	99.92	40.0	86.0	 	3	N	5	2	54900.0	652050.0	0.0	0.0	1910	1987	0	 	 	3.45	4.0	0.0	4.0	1	1019880083.0	0	022301	996985	238009	6a	 	111S021	10707	 	0.0	 	1	16V2	0	285.837876924	4064.96359328
35560	<geoprocessing describe geometry object object at 0x0F02D960>	MN	1988	16	109	 223.01	1000	05	7	10031	E080	30	900	1	09	2B	519 WEST 134 STREET	R7A	 	 	 	 	 	 	 	 	 	N	C1	02	0	P	519 W 134TH ST LLC	4796	16960	0	16960	0	0	0	0	0	0	2	1	5.0	25	25	48.0	99.92	48.0	87.0	 	2	N	5	2	76500.0	728100.0	0.0	0.0	1905	1986	1996	 	 	3.54	4.0	0.0	4.0	1	1019880016.0	0	022301	996981	237671	6a	 	111S021	10707	 	0.0	 	1	16V2	0	306.728554548	5051.82168019
35562	<geoprocessing describe geometry object object at 0x0F02DAC0>	MN	1969	65	109	 213.03	2000	05	7	10027	E037	26	1100	1	09	2B	48 CONVENT AVENUE	R7A	 	 	 	 	 	 	 	 	 	N	C1	02	0	C	HOUSING PRESERVATION	4914	13040	0	13040	0	0	0	0	0	0	2	1	5.0	20	20	40.67	132.67	41.0	118.0	 	2	Y	5	2	44100.0	434700.0	44100.0	434700.0	1910	0	0	 	 	2.65	4.0	0.0	4.0	1	1019690065.0	0	021303	997165	236163	6a	 	107N096	10707	 	0.0	 	1	16V2	0	323.299656645	4653.17653291
35564	<geoprocessing describe geometry object object at 0x0F02DAC0>	MN	2086	49	109	 223.01	3000	06	7	10031	E080	30	900	1	09	2A	636 WEST 138 STREET	R6A	 	 	 	 	 	 	 	 	 	N	C1	02	0	P	JM GREEN REALTY LLC	4996	17480	0	17480	0	0	0	0	0	0	2	1	5.0	23	23	50.0	99.92	50.0	85.0	 	3	N	5	2	34200.0	414900.0	0.0	0.0	1910	1989	0	 	 	3.5	3.0	0.0	3.0	1	1020860049.0	0	022301	996617	238925	6a	 	111S020	10710	 	0.0	 	1	16V2	0	305.472337784	5150.48013747
35566	<geoprocessing describe geometry object object at 0x0F02DAC0>	MN	1988	1	109	 223.01	1000	05	7	10031	E080	30	900	1	09	2A	3320 BROADWAY	R8A	 	 	 	C1-4	 	MMU	 	 	 	N	E7	06	0	P	TUCK-IT-AWAY 135 ST.,	17984	50452	50452	0	0	17984	0	32468	0	0	2	1	3.0	0	5	199.83	90.0	199.92	90.0	 	2	N	3	2	404550.0	2611350.0	0.0	0.0	1914	2009	1992	 	CLAREMONT THEATER BUILDING	2.81	6.0	0.0	6.0	1	1019880001.0	0	022301	996714	237876	6a	 	111S021	10707	 	0.0	 	1	16V2	0	592.666052079	18750.1116346
35568	<geoprocessing describe geometry object object at 0x0F02D180>	MN	1967	67	109	 213.03	2002	05	7	10027	E037	26	1100	1	09	2B	409 WEST 127 STREET	M1-5/R7-2	R7A	 	 	 	 	MX-15	 	 	 	Y	C1	02	0	P	VICTOR SANCHEZ HOUSIN	4996	19830	0	19830	0	0	0	0	0	0	2	1	6.0	36	36	50.0	99.92	50.0	86.92	 	0	N	5	2	58950.0	427950.0	58950.0	427950.0	1926	1990	0	 	 	3.97	4.0	5.0	6.5	1	1019670067.0	0	021303	997081	235534	6a	 	107N095	10707	 	0.0	 	1	16V2	0	304.721703321	5145.91429059
35569	<geoprocessing describe geometry object object at 0x0F02D180>	MN	1988	117	109	 223.01	2002	06	7	10031	E080	30	900	1	09	2B	512 WEST 136 STREET	R7A	 	 	 	 	 	 	 	 	 	N	C1	02	0	P	512-514 REALTY LLC	3747	15048	0	15048	0	0	0	0	0	0	2	1	6.0	24	24	37.5	99.92	38.0	84.0	 	3	N	5	2	57600.0	464850.0	0.0	0.0	1905	1988	0	 	 	4.02	4.0	0.0	4.0	1	1019880117.0	0	022301	997290	237959	6a	 	111S021	10707	 	0.0	 	1	16V2	0	282.278103844	3901.04942123
35570	<geoprocessing describe geometry object object at 0x0F02D180>	MN	2002	75	109	 223.01	3006	06	7	10031	E080	30	900	1	09	2A	623 WEST 136 STREET	R8	 	 	 	 	 	 	 	 	 	N	C1	02	0	P	HARTMAN, SHELLEY	5396	19270	0	19270	0	0	0	0	0	0	2	1	5.0	21	21	54.0	99.92	54.0	88.0	 	3	N	5	2	40950.0	432450.0	0.0	97785.0	1910	1986	0	 	 	3.57	6.02	0.0	6.5	1	1020020075.0	0	022301	996491	238580	6a	 	111S020	10707	 	0.0	 	1	16V2	0	315.697966049	5665.71490631
35571	<geoprocessing describe geometry object object at 0x0F02D5E0>	MN	1988	20	109	 223.01	1000	05	7	10031	E080	30	900	1	09	2B	515 WEST 134 STREET	R7A	 	 	 	 	 	 	 	 	 	N	C1	02	0	O	NYC HOUSING AUTHORITY	3921	13040	0	13040	0	0	0	0	0	0	2	1	5.0	15	15	39.25	99.92	39.0	87.0	 	3	N	5	2	51750.0	563850.0	51750.0	563850.0	1905	1985	0	 	 	3.33	4.0	0.0	4.0	1	1019880020.0	0	022301	997054	237631	6a	 	111S021	10707	 	0.0	 	1	16V2	0	292.713964966	4312.83166991
35572	<geoprocessing describe geometry object object at 0x0F02D5E0>	MN	1982	61	109	 219	1014	05	7	10027	E037	26	1100	1	09	2B	567 WEST 125 STREET	R7A	 	 	 	C2-4	 	125	 	 	 	N	C7	04	0	P	WEST 125 LLC	4992	21768	1800	19968	0	1800	0	0	0	0	2	1	6.0	22	23	50.0	99.83	50.0	84.0	 	3	Y	5	2	103500.0	1568250.0	0.0	0.0	1901	1989	0	 	 	4.36	4.0	0.0	4.0	1	1019820061.0	0	0219	995948	236403	5c	 	107N094	10707	 	0.0	 	1	16V2	0	306.538565867	5187.13034693
35573	<geoprocessing describe geometry object object at 0x0F02D5E0>	MN	1988	7501	109	 223.01	2002	06	7	10031	E080	30	900	2	09	 	519 WEST 135 STREET	R7A	 	 	 	 	 	 	 	 	 	N	R4	03	1	 	 	3997	19776	0	19776	0	0	0	0	0	0	2	1	7.0	13	13	40.0	99.92	40.0	68.0	 	0	N	0	5	90004.0	1235252.0	83604.0	1228852.0	2002	0	0	 	 	4.95	4.0	0.0	4.0	1	1019887501.0	1273	022301	997125	237932	6a	 	111S021	10707	 	1019880090.0	04/01/2003	1	16V2	7	287.968690236	4175.50804859
35574	<geoprocessing describe geometry object object at 0x0F02DA80>	MN	2002	57	109	 223.01	3006	06	7	10031	E080	30	900	1	09	2A	616 WEST 137 STREET	R8	 	 	 	 	 	 	 	 	 	N	D4	03	0	P	RESIDENCIA ESPERANZA	8493	37038	0	37038	0	0	0	0	0	0	2	1	6.0	25	25	85.0	99.92	85.0	89.0	 	3	N	5	2	132750.0	700200.0	132750.0	457885.0	1905	1993	0	 	 	4.36	6.02	0.0	6.5	1	1020020057.0	0	022301	996581	238649	6a	 	111S020	10707	 	0.0	 	1	16V2	0	380.189890779	8937.80445345
35575	<geoprocessing describe geometry object object at 0x0F02DA80>	MN	1983	3	109	 219	4002	05	7	10027	E037	26	1100	1	09	2B	530 WEST 129 STREET	R7-2	 	 	 	 	 	 	 	 	 	N	I5	08	0	C	DEPARTMENT OF HEALTH	10650	14770	14770	0	0	0	0	0	0	14770	2	1	2.0	0	1	100.0	83.25	97.0	36.0	 	0	Y	3	2	260100.0	1247400.0	260100.0	1247400.0	1949	1951	0	 	 	1.39	3.44	0.0	6.5	1	1019830003.0	0	0219	996282	236383	5c	Y	107N094	10707	 	0.0	 	1	16V2	0	429.316398363	11095.86479
35576	<geoprocessing describe geometry object object at 0x0F02DA80>	MN	1967	85	109	 213.03	2002	05	7	10027	E037	26	1100	1	09	2B	454 WEST 128 STREET	M1-5/R7-2	R7A	 	 	 	 	MX-15	 	 	 	Y	K4	04	0	 	454-458 W. 128TH STRE	14913	13400	13400	0	0	0	0	0	0	13400	2	1	2.0	0	2	142.0	99.92	63.0	100.0	 	2	Y	5	0	158850.0	738900.0	0.0	0.0	1920	2004	0	 	 	0.9	4.0	5.0	6.5	1	1019670085.0	0	021303	997026	235680	6a	 	107N095	10707	E-284	0.0	 	1	16V2	0	511.487527638	15576.67271
35578	<geoprocessing describe geometry object object at 0x0F02D900>	MN	1987	7	109	 219	2001	05	7	10027	E080	30	1100	1	09	2B	553 WEST 133 STREET	C6-1	R7A	 	 	 	 	MMU	 	 	 	Y	G1	10	0	 	THE TRUSTEES OF COLUM	20183	28656	28656	0	0	0	14328	0	0	14328	2	1	2.0	0	4	85.0	199.83	85.0	200.0	 	3	Y	4	2	337500.0	1180350.0	0.0	0.0	1926	0	0	 	 	1.42	3.44	6.0	6.5	1	1019870007.0	0	0219	996680	237629	6a	 	111S012	10707	R-148	0.0	 	1	16V2	0	642.395690909	20465.5985482
35579	<geoprocessing describe geometry object object at 0x0F02D900>	MN	1983	20	109	 219	4002	05	7	10027	E037	26	1100	1	09	2B	503 WEST 126 STREET	R7-2	 	 	 	 	 	 	 	 	 	N	M9	08	0	 	BIBLE TEMPLE	2258	6075	6075	0	0	0	0	0	0	6075	2	1	3.0	0	1	25.0	99.92	25.0	100.0	 	2	Y	5	2	42300.0	180900.0	0.0	0.0	1915	0	0	 	 	2.69	3.44	0.0	6.5	1	1019830020.0	0	0219	996508	236033	6a	 	107N094	10707	 	0.0	 	1	16V2	0	246.957253262	2407.41033267
35580	<geoprocessing describe geometry object object at 0x0F02D900>	MN	2004	68	109	 219	1007	05	7	10027	E080	26	1100	1	09	2A	2298 JOE DIMAGGIO HIGHWAY	M1-2	 	 	 	 	 	MMU	 	 	 	N	G7	10	0	 	2290 12TH AVENUE    ,	3666	0	0	0	0	0	0	0	0	0	7	0	0.0	0	0	39.25	95.08	0.0	0.0	 	0	Y	3	5	141300.0	141300.0	0.0	0.0	0	0	0	 	 	0.0	0.0	2.0	4.8	1	1020040068.0	0	0219	995325	237661	5c	 	111S001	10707	 	0.0	 	1	16V2	0	276.47643624	3924.65254501
35581	<geoprocessing describe geometry object object at 0x0F02D900>	MN	1967	12	109	 213.03	2003	05	7	10027	E037	26	1100	1	09	2B	423 WEST 126 STREET	M1-5/R7-2	 	 	 	 	 	MX-15	 	 	 	N	G6	10	0	P	126 COLUMBIA TOWER 2	5881	0	0	0	0	0	0	0	0	0	7	0	0.0	0	0	56.33	130.58	0.0	0.0	 	0	Y	4	5	202050.0	202050.0	0.0	0.0	0	0	0	 	 	0.0	4.0	5.0	6.5	1	1019670012.0	0	021303	996913	235435	6a	 	107N095	10707	E-284	0.0	 	1	16V2	0	349.479031669	6132.93295297
35582	<geoprocessing describe geometry object object at 0x0F02D900>	MN	1954	3	109	 213.03	4001	05	9	10027	E037	26	1100	1	09	2B	379 WEST 127 STREET	R7A	 	 	 	 	 	 	 	 	 	N	C1	02	0	P	TERRACE APARTMENTS,IN	4396	15520	0	15520	0	0	0	0	0	0	2	1	5.0	21	21	44.0	99.92	44.0	83.0	 	3	N	5	1	49500.0	292950.0	0.0	0.0	1901	1988	0	 	 	3.53	4.0	0.0	4.0	1	1019540003.0	0	021303	997334	235397	6a	 	107N097	10706	 	0.0	 	1	16V2	0	301.042892268	4741.70997315
35583	<geoprocessing describe geometry object object at 0x0F02D540>	MN	2004	102	109	 219	1001	05	7	10027	E080	26	1100	1	09	2A	2328 JOE DIMAGGIO HIGHWAY	M1-2	 	 	 	 	 	MMU	 	 	 	N	K2	05	0	 	2328 ON TWELFTH,	34537	41347	41347	0	0	8427	0	0	0	32920	2	3	3.0	0	1	200.56	181.37	100.0	85.0	 	2	Y	3	2	270000.0	3032550.0	0.0	0.0	1938	0	0	 	 	1.2	0.0	2.0	4.8	1	1020040102.0	0	0219	995453	237976	5c	 	107N105	10707	 	1020040102.0	10/03/2008	1	16V2	0	749.553585849	34741.5889054
35585	<geoprocessing describe geometry object object at 0x0F02D540>	MN	1987	29	109	 219	2000	05	7	10031	E080	30	1100	1	09	2B	1480 AMSTERDAM AVENUE	R7A	 	 	 	C1-4	 	 	 	 	 	N	C7	04	0	 	COLLEGE REALTY	4000	19398	3276	16122	0	3276	0	0	0	0	2	1	6.0	25	33	40.0	100.0	38.0	90.0	E	2	N	3	2	82800.0	1090350.0	0.0	0.0	1905	1987	0	 	 	4.85	4.0	0.0	4.0	1	1019870029.0	0	0219	997145	237246	6a	 	111S012	10707	 	0.0	 	1	16V2	0	284.881687475	4328.60904936
35586	<geoprocessing describe geometry object object at 0x0F02D540>	MN	1987	34	109	 219	2000	05	7	10031	E080	30	1100	1	09	2B	1492 AMSTERDAM AVENUE	R7A	 	 	 	C1-4	 	 	 	 	 	N	C1	02	0	P	EDWARD DOZIER SR HSGD	4000	15924	0	15924	0	0	0	0	0	0	2	1	6.0	18	18	40.0	100.0	40.0	87.0	 	0	N	5	5	78300.0	363150.0	0.0	249025.0	1905	1989	0	 	 	3.98	4.0	0.0	4.0	1	1019870034.0	0	0219	997204	237352	6a	 	111S012	10707	 	0.0	 	1	16V2	0	277.307516901	3913.40646345
35587	<geoprocessing describe geometry object object at 0x0F02DA00>	MN	2001	120	109	 223.02	1000	05	7	10027	E080	30	900	1	09	2A	2341 12 AVENUE	C6-2	 	 	 	 	 	MMU	 	 	 	N	E7	06	0	 	EDISON MINISTORAGE II	12490	86625	86625	0	0	0	0	86625	0	0	2	1	7.0	0	1	99.92	125.0	99.92	125.0	 	0	N	3	5	562050.0	3826800.0	0.0	0.0	1925	0	0	 	 	6.94	6.02	6.0	6.5	1	1020010120.0	0	022302	995819	238131	5c	 	111S011	10707	 	0.0	 	1	16V2	0	455.428218799	12784.0116505
35590	<geoprocessing describe geometry object object at 0x0F02DA00>	MN	1983	21	109	 219	4002	05	7	10027	E037	26	1100	1	09	2B	        WEST 126 STREET	PARK	 	 	 	 	 	 	 	 	 	N	Q1	09	0	C	PARKS AND RECREATION	1008	0	0	0	0	0	0	0	0	0	7	0	0.0	0	0	71.42	32.0	0.0	0.0	 	0	Y	3	5	25650.0	25650.0	25650.0	25650.0	0	0	0	 	 	0.0	0.0	0.0	0.0	1	1019830021.0	0	0219	996503	235999	6a	 	107N094	10707	 	0.0	 	1	16V2	0	177.628981477	1164.69032997
35595	<geoprocessing describe geometry object object at 0x0F02DB40>	MN	1988	105	109	 223.01	2002	06	7	10031	E080	30	900	1	09	2B	1524 AMSTERDAM AVENUE	R7A	 	 	 	C1-4	 	 	 	 	 	N	C7	04	0	P	WHGA GARVEY HOUSING D	4000	15530	1500	14030	0	1500	0	0	0	0	2	1	6.0	16	17	40.0	100.0	40.0	87.0	 	0	N	5	5	41400.0	415800.0	33120.0	332640.0	1905	1989	0	 	 	3.88	4.0	0.0	4.0	1	1019880105.0	0	022301	997436	237773	6a	 	111S021	10707	 	0.0	 	1	16V2	0	279.185936951	3991.95342938
35597	<geoprocessing describe geometry object object at 0x0F02DB40>	MN	1999	31	109	 219	1000	05	7	10027	E080	26	1100	1	09	2A	3285 BROADWAY	C6-1	 	 	 	 	 	MMU	 	 	 	N	C4	02	0	P	WHGA RENNAISSANCE APA	2500	10750	0	10750	0	0	0	0	0	0	2	1	4.0	8	8	25.0	100.0	25.0	85.0	 	3	N	5	2	12403.0	197354.0	12403.0	197354.0	1901	1988	0	 	 	4.3	3.44	6.0	6.5	1	1019990031.0	0	0219	996234	237505	5c	Y	111S002	10707	E-188	0.0	 	1	16V2	0	250.078973749	2503.94308034
35598	<geoprocessing describe geometry object object at 0x0F02DB40>	MN	1953	104	109	 213.03	4002	05	9	10027	E037	26	1100	1	09	2B	373 WEST 126 STREET	R7A	 	 	 	 	 	 	 	 	 	N	C1	02	0	P	373 WEST 126 LLC	1873	7490	0	7490	0	0	0	0	0	0	2	1	5.0	10	10	25.0	74.92	25.0	60.0	 	0	N	5	5	129441.0	374764.0	0.0	245323.0	1901	1990	0	 	 	4.0	4.0	0.0	4.0	1	1019530104.0	0	021303	997243	235133	6a	 	107N097	10706	 	0.0	 	1	16V2	0	204.780889238	1978.56191629
35599	<geoprocessing describe geometry object object at 0x0F02D580>	MN	1988	36	109	 223.01	1000	05	7	10031	E080	30	900	1	09	2B	1516 AMSTERDAM AVENUE	R7A	 	 	 	C1-4	 	 	 	 	 	N	C7	04	0	P	FARIBA ENTERPRISES IN	4000	19294	2000	17294	0	2000	0	0	0	0	2	1	6.0	20	24	40.0	100.0	40.0	89.0	 	2	N	3	2	54900.0	434250.0	0.0	0.0	1905	1988	0	 	 	4.82	4.0	0.0	4.0	1	1019880036.0	0	022301	997350	237617	6a	 	111S021	10707	 	0.0	 	1	16V2	0	281.608143208	4150.57461382
35600	<geoprocessing describe geometry object object at 0x0F02D580>	MN	1970	48	109	 213.03	1001	05	9	10027	E080	26	1100	1	09	2B	90 CONVENT AVENUE	R7A	 	 	 	 	 	 	 	 	 	N	C1	02	0	P	CONVENT REALTY LLC	7020	24095	0	24095	0	0	0	0	0	0	2	1	5.0	40	40	63.33	127.42	63.0	108.0	 	2	Y	5	2	110250.0	746100.0	0.0	0.0	1901	1987	0	 	 	3.43	4.0	0.0	4.0	1	1019700048.0	0	021303	997236	236769	6a	 	111S004	10707	 	0.0	 	1	16V2	0	365.50641907	7236.04059412
35602	<geoprocessing describe geometry object object at 0x0F02D580>	MN	1988	27	109	 223.01	1000	05	7	10031	E080	30	900	1	09	2B	505 WEST 134 STREET	R7A	 	 	 	 	 	 	 	 	 	N	C1	02	0	C	HOUSING PRESERVATION	3930	13040	0	13040	0	0	0	0	0	0	2	1	5.0	19	19	39.33	99.92	39.0	87.0	 	1	N	5	2	31050.0	447750.0	31050.0	447750.0	1905	0	0	 	 	3.32	4.0	0.0	4.0	1	1019880027.0	0	022301	997226	237536	6a	 	111S021	10707	 	0.0	 	1	16V2	0	290.585096536	4200.58818862
35604	<geoprocessing describe geometry object object at 0x0F02D7A0>	MN	2005	8	109	 223.02	1004	05	7	10027	E080	30	900	1	09	2A	        WEST 133 STREET	PARK	 	 	 	 	 	 	 	 	 	N	Q0	09	0	C	PARKS AND RECREATION	9246	0	0	0	0	0	0	0	0	0	4	0	0.0	0	0	41.5	200.5	0.0	0.0	 	0	Y	3	5	1132200.0	1132200.0	1132200.0	1132200.0	0	0	0	 	 	0.0	0.0	0.0	0.0	1	1020050008.0	0	022302	995547	238228	5c	 	111S001	10707	 	0.0	 	1	16V2	0	482.077407519	8006.79940129
35605	<geoprocessing describe geometry object object at 0x0F02D7A0>	MN	1988	150	109	 223.01	2000	06	7	10031	E080	30	900	1	09	2B	7 HAMILTON PLACE	R8	 	 	 	C1-4	 	 	 	 	 	N	K2	05	0	P	BROADWAY SPANISH BAPT	7875	15700	15700	0	0	7850	0	0	0	7850	2	1	2.0	0	6	135.67	81.0	131.0	81.0	 	3	Y	5	2	158850.0	486900.0	76248.0	233712.0	1950	0	0	 	 	1.99	6.02	0.0	6.5	1	1019880150.0	0	022301	997040	238372	6a	 	111S021	10707	 	0.0	 	1	16V2	0	386.339680617	7992.58458377
35606	<geoprocessing describe geometry object object at 0x0F02D7A0>	MN	1982	59	109	 219	1014	05	7	10027	E037	26	1100	1	09	2A	3200 BROADWAY	R7A	 	 	 	C2-4	 	125	 	 	 	N	C7	04	0	P	571 WEST 125 ST PARTN	7300	34068	7150	26918	0	7150	0	0	0	0	2	1	6.0	30	34	112.58	85.0	101.33	87.0	 	0	Y	3	5	142650.0	1766250.0	0.0	1275058.0	1901	1992	0	 	 	4.67	4.0	0.0	4.0	1	1019820059.0	0	0219	995917	236461	5c	 	107N094	10707	 	0.0	 	1	16V2	0	370.163021337	7755.60564062
35608	<geoprocessing describe geometry object object at 0x0F02DDA0>	MN	1970	42	109	 213.03	1001	05	9	10027	E080	26	1100	1	09	2B	80 CONVENT AVENUE	R7A	 	 	 	 	 	 	 	 	 	N	M9	08	0	X	RC CHUR OF ANNUNCIATI	20983	40200	40200	0	0	0	0	0	0	40200	2	2	5.0	0	5	146.08	184.0	127.0	156.0	 	2	Y	3	2	513000.0	3613050.0	513000.0	3613050.0	1953	0	0	 	 	1.92	4.0	0.0	4.0	1	1019700042.0	0	021303	997204	236670	6a	 	111S004	10707	 	0.0	 	1	16V2	0	604.548354311	21851.512361
35609	<geoprocessing describe geometry object object at 0x0F02DDA0>	MN	1988	114	109	 223.01	2002	06	7	10031	E080	30	900	1	09	2B	508 WEST 136 STREET	R7A	 	 	 	 	 	 	 	 	 	N	C1	02	0	P	508 WEST 136 LLC	3747	15048	0	15048	0	0	0	0	0	0	2	1	6.0	25	25	37.5	99.92	38.0	84.0	 	3	N	5	2	50850.0	1282950.0	0.0	0.0	1905	0	0	 	 	4.02	4.0	0.0	4.0	1	1019880114.0	0	022301	997357	237922	6a	 	111S021	10707	 	0.0	 	1	16V2	0	284.136568814	3997.13715181
35611	<geoprocessing describe geometry object object at 0x0F02DDA0>	MN	2002	26	109	 223.01	4000	06	7	10031	E080	30	900	1	09	2A	609 WEST 135 STREET	R8	 	 	 	 	 	 	 	 	 	N	C1	02	0	P	609-619 WEST 135 STRE	3997	14260	0	14260	0	0	0	0	0	0	2	1	5.0	21	21	40.0	99.92	40.0	86.0	 	2	N	5	2	36000.0	491850.0	0.0	0.0	1905	1986	0	 	 	3.57	6.02	0.0	6.5	1	1020020026.0	0	022301	996537	238254	6a	 	111S020	10707	 	0.0	 	1	16V2	0	304.629971995	4721.51239135
35614	<geoprocessing describe geometry object object at 0x0F02D3A0>	MN	1968	52	109	 213.03	3001	05	9	10027	E037	26	1100	1	09	2B	416 WEST 129 STREET	R7A	 	 	 	 	 	 	 	 	 	N	C1	02	0	P	416 WEST 129TH STREET	6108	21775	0	21775	0	0	0	0	0	0	2	1	5.0	29	29	61.0	100.83	61.0	86.0	 	3	Y	5	1	84600.0	736200.0	84600.0	454737.0	1920	2000	0	 	 	3.56	4.0	0.0	4.0	1	1019680052.0	0	021303	997425	235758	6a	 	107N096	10707	 	0.0	 	1	16V2	0	331.232744604	6347.07530687
35615	<geoprocessing describe geometry object object at 0x0F02D3A0>	MN	1998	61	109	 219	1008	05	7	10027	E080	26	1100	1	09	2A	2311 12 AVENUE	C6-1	 	 	 	 	 	MMU	 	 	 	N	G9	07	0	 	THE TRUSTEES OF COLUM	9992	19984	19984	0	0	0	19984	0	0	0	2	1	2.0	0	2	99.92	100.0	99.0	100.0	 	2	N	3	0	225000.0	876150.0	0.0	0.0	1912	0	0	 	 	2.0	3.44	6.0	6.5	1	1019980061.0	0	0219	995554	237685	5c	 	111S002	10707	R-145	0.0	 	1	16V2	0	419.090024435	10960.9901647
35616	<geoprocessing describe geometry object object at 0x0F02D3A0>	MN	1986	65	109	 219	2002	05	7	10027	E080	26	1100	1	09	2A	3280 BROADWAY	C6-1	 	 	 	 	 	MMU	 	 	 	N	O6	05	0	P	TRUSTEES OF COLUMBIA	30675	184044	184044	0	134612	35332	14100	0	0	0	2	1	8.0	0	11	199.83	185.0	199.0	185.0	 	0	Y	3	5	549000.0	11024550.0	148230.0	2976629.0	1927	1990	1995	 	 	6.0	3.44	6.0	6.5	1	1019860065.0	0	0219	996489	237399	6a	 	111S003	10707	R-146	0.0	 	1	16V2	0	717.930859156	30811.6771185
35619	<geoprocessing describe geometry object object at 0x0F02D500>	MN	2002	11	109	 223.01	4000	06	7	10031	E080	30	900	1	09	2A	629 WEST 135 STREET	R8	 	 	 	 	 	 	 	 	 	N	D1	03	0	P	629-33 WEST 135TH ST	7494	34074	0	34074	0	0	0	0	0	0	2	1	6.0	30	30	75.0	99.92	72.0	86.0	 	2	N	5	2	145800.0	579150.0	0.0	0.0	1930	1988	0	 	 	4.55	6.02	0.0	6.5	1	1020020011.0	0	022301	996255	238413	5c	Y	111S020	10707	 	0.0	 	1	16V2	0	366.501589071	8092.96184974
35623	<geoprocessing describe geometry object object at 0x0F02D500>	MN	2086	139	109	 223.01	3000	06	7	10031	E080	30	900	1	09	2A	608 WEST 138 STREET	R6A	 	 	 	 	 	 	 	 	 	N	C0	02	0	P	BERGERMANN, UWE	1823	3518	0	3518	0	0	0	0	0	0	2	1	4.0	3	3	18.25	99.92	18.0	67.0	E	3	N	5	2	27807.0	76014.0	1550.0	25653.0	1900	1988	0	 	 	1.93	3.0	0.0	3.0	1	1020860139.0	0	022301	996828	238807	6a	 	111S020	10710	 	0.0	 	1	16V2	0	240.533055561	1823.29203214
35625	<geoprocessing describe geometry object object at 0x0F02D500>	MN	1987	43	109	 219	2000	05	7	10031	E080	30	1100	1	09	2B	510 WEST 134 STREET	R7A	 	 	 	 	 	 	 	 	 	N	C1	02	0	P	510-512 YELLOW APPLE,	7993	27530	0	27530	0	0	0	0	0	0	2	2	5.0	32	32	80.0	99.92	40.0	84.0	 	3	N	5	2	120150.0	1391400.0	0.0	0.0	1900	0	0	 	 	3.44	4.0	0.0	4.0	1	1019870043.0	0	0219	997017	237469	6a	 	111S012	10707	 	0.0	 	1	16V2	0	366.027917106	8247.0401862
35626	<geoprocessing describe geometry object object at 0x0F02DA60>	MN	2002	77	109	 223.01	3006	06	7	10031	E080	30	900	1	09	2A	619 WEST 136 STREET	R8	 	 	 	 	 	 	 	 	 	N	C1	02	0	P	PERZ, SONIA M.	5396	19270	0	19270	0	0	0	0	0	0	2	1	5.0	21	21	54.0	99.92	54.0	88.0	 	3	N	5	2	72000.0	221400.0	0.0	0.0	1908	1965	0	 	 	3.57	6.02	0.0	6.5	1	1020020077.0	0	022301	996538	238554	6a	 	111S020	10707	 	0.0	 	1	16V2	0	310.660136534	5407.06252117
35628	<geoprocessing describe geometry object object at 0x0F02DA60>	MN	1988	99	109	 223.01	2002	06	7	10031	E080	30	900	1	09	2B	507 WEST 135 STREET	R7A	 	 	 	 	 	 	 	 	 	N	C1	02	0	P	AW HOLDING LP	3997	13170	0	13170	0	0	0	0	0	0	2	1	5.0	15	15	40.0	99.92	40.0	86.0	 	3	N	5	2	38700.0	445500.0	0.0	406800.0	1910	1986	2002	 	 	3.29	4.0	0.0	4.0	1	1019880099.0	0	022301	997335	237816	6a	 	111S021	10707	 	0.0	 	1	16V2	0	288.935587912	4225.64440275
35629	<geoprocessing describe geometry object object at 0x0F02DA60>	MN	1998	38	109	 219	1008	05	7	10027	E080	26	1100	1	09	2A	602 WEST 132 STREET	C6-1	 	 	 	 	 	MMU	 	 	 	N	C1	02	0	C	HOUSING PRESERVATION	4996	21786	0	21786	0	0	0	0	0	0	2	1	6.0	31	31	50.0	99.92	50.0	75.0	 	2	N	5	2	70650.0	891000.0	70650.0	891000.0	1905	1986	0	 	 	4.36	3.44	6.0	6.5	1	1019980038.0	0	0219	996082	237391	5c	 	111S002	10707	E-188	0.0	 	1	16V2	0	303.5157815	5139.6073865
35630	<geoprocessing describe geometry object object at 0x0F02D5E0>	MN	2086	46	109	 223.01	3000	06	7	10031	E080	30	900	1	09	2A	626 WEST 138 STREET	R6A	 	 	 	 	 	 	 	 	 	N	B3	01	0	P	BRIAN REID	1399	1992	0	1992	0	0	0	0	0	0	2	1	3.0	2	2	14.0	99.92	14.0	46.0	E	2	N	5	2	11023.0	39960.0	0.0	2893.0	1945	0	0	 	 	1.42	3.0	0.0	3.0	1	1020860046.0	0	022301	996696	238881	6a	 	111S020	10710	 	0.0	 	1	16V2	0	235.60886998	1570.99384729
35632	<geoprocessing describe geometry object object at 0x0F02D5E0>	MN	1998	29	109	 219	1008	05	7	10027	E080	26	1100	1	09	2A	3259 BROADWAY	C6-1	 	 	 	 	 	MMU	 	 	 	N	E7	06	0	P	THE TRUSTEES OF COLUM	19983	79708	79708	0	0	0	0	79708	0	0	2	1	4.0	0	1	199.83	100.0	200.0	100.0	 	3	N	3	2	898650.0	3523500.0	898650.0	3523500.0	1920	0	0	 	 	3.99	3.44	6.0	6.5	1	1019980029.0	0	0219	996125	237311	5c	 	111S002	10707	E-188	0.0	 	1	16V2	0	604.935769071	20453.8799034
35633	<geoprocessing describe geometry object object at 0x0F02D5E0>	MN	1967	173	109	 213.03	2002	05	7	10027	E037	26	1100	1	09	2B	8 CONVENT AVENUE	R7A	 	 	 	 	 	 	 	 	 	N	C2	02	0	 	ETAN, LLC	799	1850	0	1850	0	0	0	0	0	0	2	1	3.0	6	6	20.08	47.17	20.0	38.0	 	3	Y	5	5	6548.0	36741.0	0.0	0.0	1926	1986	1987	 	 	2.32	4.0	0.0	4.0	1	1019670173.0	0	021303	997170	235499	6a	 	107N095	10707	 	0.0	 	1	16V2	0	132.572026436	815.635195745
35634	<geoprocessing describe geometry object object at 0x0F02D920>	MN	2086	51	109	 223.01	3000	06	7	10031	E080	30	900	1	09	2A	642 WEST 138 STREET	R6A	 	 	 	 	 	 	 	 	 	N	A9	01	0	 	W 138 LLC	1499	1980	0	1980	0	0	0	0	0	0	2	1	2.0	1	1	15.0	99.92	15.0	44.0	 	2	N	5	1	6139.0	18247.0	0.0	0.0	1901	0	0	 	 	1.32	3.0	0.0	3.0	1	1020860051.0	0	022301	996573	238949	6a	 	111S020	10710	 	0.0	 	1	16V2	0	237.747794538	1680.57258993
35635	<geoprocessing describe geometry object object at 0x0F02D920>	MN	2002	93	109	 223.01	4000	06	7	10031	E080	30	900	1	09	2A	622 WEST 136 STREET	R8	 	 	 	 	 	 	 	 	 	N	C1	02	0	P	622 WEST 136TH STREET	4371	15630	0	15630	0	0	0	0	0	0	2	1	5.0	17	17	43.75	99.92	44.0	90.0	 	3	N	5	2	38700.0	310500.0	0.0	0.0	1905	0	0	 	 	3.58	6.02	0.0	6.5	1	1020020093.0	0	022301	996446	238429	6a	 	111S020	10707	 	0.0	 	1	16V2	0	301.487090742	4759.15366795
35636	<geoprocessing describe geometry object object at 0x0F02D920>	MN	1953	4	109	 213.03	4002	05	9	10027	E037	26	1100	1	09	2B	167 MORNINGSIDE AVENUE	R7A	 	 	 	 	 	 	 	 	 	N	C1	02	0	P	161-171 MORNINGSIDE L	2500	7900	0	7900	0	0	0	0	0	0	2	1	5.0	9	9	25.0	100.0	25.0	65.0	 	0	N	5	5	116392.0	395234.0	0.0	278842.0	1901	1990	0	 	 	3.16	4.0	0.0	4.0	1	1019530004.0	0	021303	997235	235196	6a	 	107N097	10706	 	0.0	 	1	16V2	0	252.657885365	2541.87674377
35637	<geoprocessing describe geometry object object at 0x0F02D460>	MN	1970	72	109	 213.03	1001	05	9	10027	E080	26	1100	1	09	2B	1455 AMSTERDAM AVENUE	R7A	 	 	 	C1-4	 	 	 	 	 	N	C7	04	0	P	WHGA GARVEY HOUSING D	2450	9500	1000	8500	0	1000	0	0	0	0	2	1	5.0	9	10	24.5	100.0	25.0	86.0	 	3	N	5	2	66234.0	174785.0	52325.0	138080.0	1901	1989	0	 	 	3.88	4.0	0.0	4.0	1	1019700072.0	0	021303	997140	236830	6a	 	111S004	10707	 	0.0	 	1	16V2	0	262.665050954	2679.42239728
35638	<geoprocessing describe geometry object object at 0x0F02D460>	MN	1968	1	109	 213.03	2001	05	7	10027	E037	26	1100	1	09	2B	1381 AMSTERDAM AVENUE	M1-5/R7-2	 	 	 	 	 	MX-15	 	 	 	N	T9	07	0	C	NEW YORK CITY TRANSIT	73225	89794	89794	0	0	0	89794	0	0	0	2	1	2.0	0	1	199.83	366.42	199.83	366.42	 	0	Y	3	2	1548000.0	5039100.0	1548000.0	5039100.0	1968	0	0	 	 	1.23	4.0	5.0	6.5	1	1019680001.0	0	021303	996845	236020	6a	 	107N096	10707	 	0.0	 	1	16V2	0	1152.98666126	76262.5157086
35639	<geoprocessing describe geometry object object at 0x0F02D460>	MN	2002	52	109	 223.01	3006	06	7	10031	E080	30	900	1	09	2A	606 WEST 137 STREET	R8	 	 	 	 	 	 	 	 	 	N	D1	03	0	P	LIGHTHOUSE HADDONFIEL	6495	27810	0	27810	0	0	0	0	0	0	2	1	6.0	26	26	65.0	99.92	65.0	86.0	 	2	N	5	2	87750.0	320850.0	0.0	0.0	1905	1993	0	 	 	4.28	6.02	0.0	6.5	1	1020020052.0	0	022301	996705	238580	6a	 	111S020	10707	 	0.0	 	1	16V2	0	343.567065636	7001.17548584
35640	<geoprocessing describe geometry object object at 0x0F02D040>	MN	2002	69	109	 223.01	3006	06	7	10031	E080	30	900	1	09	2A	590 RIVERSIDE DRIVE	R8	 	 	 	 	 	 	 	 	 	N	D1	03	0	P	593 RIVERSIDE ASSOCS,	13400	61812	0	61812	0	0	0	0	0	0	2	1	6.0	39	39	102.42	145.58	100.0	132.0	 	2	Y	3	2	189450.0	1131750.0	0.0	0.0	1905	1987	0	 	 	4.61	6.02	0.0	6.5	1	1020020069.0	0	022301	996358	238653	6a	Y	111S020	10707	 	0.0	 	1	16V2	0	487.334807993	14346.4796966
35642	<geoprocessing describe geometry object object at 0x0F02D040>	MN	2002	39	109	 223.01	4000	06	7	10031	E080	30	900	1	09	2A	610 WEST 136 STREET	R8	 	 	 	 	 	 	 	 	 	N	C1	02	0	P	610 WEST 136TH STREET	5445	19600	0	19600	0	0	0	0	0	0	2	1	5.0	20	20	54.5	99.92	53.0	87.0	 	2	N	5	2	72000.0	591750.0	72000.0	396010.0	1905	1982	0	 	 	3.6	6.02	0.0	6.5	1	1020020039.0	0	022301	996584	238352	6a	 	111S020	10707	 	0.0	 	1	16V2	0	326.311212792	5990.89009255
35643	<geoprocessing describe geometry object object at 0x0F02D040>	MN	2101	120	109	 	 	06	7	10031	 	30	0	 	 	 	        WEST 135 STREET	M1-1	 	 	 	 	 	 	 	 	 	N	Y6	07	0	C	SANITATION	217950	50000	50000	0	50000	0	0	0	0	0	2	1	2.0	0	1	419.33	533.17	154.0	178.0	 	1	Y	2	0	1620450.0	6161850.0	1620450.0	6161850.0	1970	1986	0	 	 	0.23	0.0	1.0	2.4	1	1021010120.0	0	0000	0	0	5c	 	111S019	10710	 	0.0	 	1	16V2	0	1516.58710817	45859.2439599
35644	<geoprocessing describe geometry object object at 0x0F02DB40>	MN	1967	74	109	 213.03	2002	05	7	10027	E037	26	1100	1	09	2B	10 CONVENT AVENUE	R7A	 	 	 	 	 	 	 	 	 	N	C5	02	0	 	SOMAR RENNIE	799	1850	0	1850	0	0	0	0	0	0	2	1	3.0	4	4	20.08	50.0	20.0	38.0	 	3	Y	5	5	12272.0	33930.0	0.0	0.0	1926	1988	0	 	 	2.32	4.0	0.0	4.0	1	1019670074.0	0	021303	997170	235519	6a	 	107N095	10707	 	0.0	 	1	16V2	0	133.186291237	826.129509025
35645	<geoprocessing describe geometry object object at 0x0F02DB40>	MN	1988	29	109	 223.01	1000	05	7	10031	E080	30	900	1	09	2B	1500 AMSTERDAM AVENUE	R7A	 	 	 	C1-4	 	 	 	 	 	N	C7	04	0	 	AMSTERDAM PARTNERS LL	4000	19294	2500	16794	0	2500	0	0	0	0	2	1	6.0	24	27	40.0	100.0	40.0	89.0	 	3	N	3	2	63000.0	755100.0	0.0	225614.0	1905	1985	0	 	 	4.82	4.0	0.0	4.0	1	1019880029.0	0	022301	997271	237475	6a	 	111S021	10707	 	0.0	 	1	16V2	0	281.363688801	4138.48930158
35646	<geoprocessing describe geometry object object at 0x0F02DB40>	MN	1982	104	109	 219	1015	05	7	10027	E037	26	1100	1	09	2B	551 WEST 125 STREET	R7A	 	 	 	C2-4	 	125	 	 	 	N	N2	08	0	P	OLD B'WAY HOUSE	3050	9960	9960	0	0	0	0	0	0	9960	2	1	5.0	8	10	37.92	75.08	38.0	61.0	 	2	Y	5	2	76500.0	1649700.0	76500.0	1649700.0	1901	1989	2005	 	 	3.27	4.0	0.0	4.0	1	1019820104.0	0	0219	996062	236210	5c	 	107N093	10707	 	0.0	 	1	16V2	0	239.845437067	3249.11903722
35647	<geoprocessing describe geometry object object at 0x0F02D080>	MN	1987	17	109	 219	2001	05	7	10027	E080	30	1100	1	09	2B	535 WEST 133 STREET	R7A	 	 	 	 	 	 	 	 	 	N	D2	03	0	O	NYC HOUSING AUTHORITY	13988	54489	0	54489	0	0	0	0	0	0	2	4	6.0	51	51	100.0	99.92	100.0	84.67	 	0	Y	5	5	204750.0	2439900.0	204750.0	2439900.0	1926	1981	0	 	 	3.9	4.0	0.0	4.0	1	1019870017.0	0	0219	996917	237408	6a	 	111S012	10707	 	0.0	 	1	16V2	0	614.799068504	14633.7122279
35648	<geoprocessing describe geometry object object at 0x0F02D080>	MN	1967	72	109	 213.03	2002	05	7	10027	E037	26	1100	1	09	2B	2 CONVENT AVENUE	R7A	 	 	 	 	 	 	 	 	 	N	B1	01	0	P	WILSON, ALBERT D	882	2871	0	2871	0	0	0	0	0	0	2	1	3.0	2	2	20.08	48.92	20.0	40.0	 	2	Y	3	1	9675.0	68688.0	0.0	0.0	1926	2008	0	 	 	3.26	4.0	0.0	4.0	1	1019670072.0	0	021303	997167	235440	6a	 	107N095	10707	 	0.0	 	1	16V2	0	141.449124581	952.588694411
35649	<geoprocessing describe geometry object object at 0x0F02D080>	MN	1970	58	109	 213.03	1001	05	9	10027	E080	26	1100	1	09	2B	106 CONVENT AVENUE	R7A	 	 	 	 	 	 	 	 	 	N	C1	02	0	 	106-108 CONVENT BCR,	7200	24105	0	24105	0	0	0	0	0	0	2	1	5.0	34	34	72.0	100.0	72.0	85.0	 	3	N	5	1	77400.0	1295550.0	0.0	0.0	1901	0	0	 	 	3.35	4.0	0.0	4.0	1	1019700058.0	0	021303	997331	236955	6a	 	111S004	10707	 	0.0	 	1	16V2	0	350.035975929	7405.26591788
35650	<geoprocessing describe geometry object object at 0x0F02D580>	MN	1970	61	109	 213.03	1001	05	9	10027	E080	26	1100	1	09	2B	1477 AMSTERDAM AVENUE	R7A	 	 	 	C1-4	 	 	 	 	 	N	C6	02	0	P	498 WEST 133RD STREET	1925	8835	0	8835	0	0	0	0	0	0	2	1	5.0	9	10	25.67	75.0	26.0	88.0	 	3	N	3	2	15413.0	77227.0	0.0	0.0	1900	1987	0	 	 	4.59	4.0	0.0	4.0	1	1019700061.0	0	021303	997264	237079	6a	 	111S004	10707	 	0.0	 	1	16V2	0	212.938533153	2183.85875577
35656	<geoprocessing describe geometry object object at 0x0F02D580>	MN	1970	73	109	 213.03	1001	05	9	10027	E080	26	1100	1	09	2B	1453 AMSTERDAM AVENUE	R7A	 	 	 	C1-4	 	 	 	 	 	N	C7	04	0	P	AW HOLDING L.P.	2500	9720	900	8820	0	900	0	0	0	0	2	1	5.0	9	10	25.0	100.0	25.0	86.0	 	2	N	5	2	68572.0	210924.0	0.0	69918.0	1901	2002	0	 	 	3.89	4.0	0.0	4.0	1	1019700073.0	0	021303	997128	236808	6a	 	111S004	10707	 	0.0	 	1	16V2	0	259.870455256	2531.20461449
35657	<geoprocessing describe geometry object object at 0x0F02D580>	MN	1996	23	109	 219	1010	05	7	10027	E037	26	1100	1	09	2A	603 WEST 129 STREET	C6-1	 	 	 	 	 	MMU	 	 	 	N	W5	08	0	P	TRUSTEES OF COLUMBIA	79621	557149	557149	0	0	17065	0	0	0	285668	7	0	0.0	0	2	400.0	199.1	0.0	0.0	 	1	N	3	2	21871215.0	21871215.0	21871215.0	21871215.0	0	0	0	 	 	7.0	3.44	6.0	6.5	1	1019960023.0	0	0219	995744	236930	5c	 	107N092	10707	R-144	1019960023.0	07/15/2015	1	16V2	0	1197.05876536	80369.3880266
35658	<geoprocessing describe geometry object object at 0x0F02D7A0>	MN	2002	42	109	 223.01	3006	06	7	10031	E080	30	900	1	09	2A	601 WEST 136 STREET	R8	 	 	 	C1-4	 	 	 	 	 	N	D4	03	0	P	601 WEST 136 ST HDFC	9992	46841	3267	43574	0	3267	0	0	0	0	2	1	6.0	38	43	99.92	100.0	88.0	100.0	 	2	N	3	2	158400.0	982800.0	158400.0	465834.0	1926	1990	0	 	 	4.69	6.02	0.0	6.5	1	1020020042.0	0	022301	996749	238437	6a	 	111S020	10707	 	0.0	 	1	16V2	0	403.939980702	10194.9823494
35659	<geoprocessing describe geometry object object at 0x0F02D7A0>	MN	1953	5	109	 213.03	4002	05	9	10027	E037	26	1100	1	09	2B	371 WEST 126 STREET	R7A	 	 	 	 	 	 	 	 	 	N	C1	02	0	P	371 W 126ST, LLC	2498	10789	0	10789	0	0	0	0	0	0	2	1	6.0	12	12	25.0	99.92	25.0	80.0	 	0	N	5	5	153900.0	616500.0	148140.0	610740.0	2008	0	0	 	 	4.32	4.0	0.0	4.0	1	1019530005.0	0	021303	997272	235132	6a	 	107N097	10706	 	0.0	 	1	16V2	0	253.306183103	2541.30027645
35660	<geoprocessing describe geometry object object at 0x0F02D7A0>	MN	1967	8	109	 213.03	2003	05	7	10027	E037	26	1100	1	09	2B	431 WEST 126 STREET	M1-5/R7-2	 	 	 	 	 	MX-15	 	 	 	N	Z9	 	0	P	OLGA LALONDRI	256	0	0	0	0	0	0	0	0	0	7	1	0.0	0	0	12.17	21.0	0.0	0.0	 	0	Y	5	5	900.0	900.0	0.0	0.0	0	0	0	 	 	0.0	4.0	5.0	6.5	1	1019670008.0	0	021303	996839	235462	6a	 	107N095	10707	 	0.0	 	1	16V2	0	56.7558340223	134.521256467
35661	<geoprocessing describe geometry object object at 0x0F02D7A0>	MN	1982	16	109	 219	1015	05	7	10027	E037	26	1100	1	09	2B	521 WEST 125 STREET	R7A	 	 	 	C2-4	 	125	 	 	 	N	S5	04	0	P	KETER LOUTIE LLC, A D	2950	7032	1700	5332	0	1700	0	0	0	0	2	1	4.0	6	7	25.0	118.33	25.0	116.0	E	3	N	5	2	16290.0	104257.0	0.0	0.0	1901	0	0	 	 	2.38	4.0	0.0	4.0	1	1019820016.0	0	0219	996260	235949	5c	Y	107N093	10707	 	0.0	 	1	16V2	0	299.312258452	3236.06508119
35662	<geoprocessing describe geometry object object at 0x0F02DAC0>	MN	1988	93	109	 223.01	2002	06	7	10031	E080	30	900	1	09	2B	515 WEST 135 STREET	R7A	 	 	 	 	 	 	 	 	 	N	C6	02	0	P	513-517 W 135TH ST HO	3997	13170	0	13170	0	0	0	0	0	0	2	1	5.0	21	21	40.0	99.92	40.0	86.0	 	3	N	5	2	53550.0	452700.0	0.0	384150.0	1910	1987	0	 	 	3.29	4.0	0.0	4.0	1	1019880093.0	0	022301	997195	237893	6a	 	111S021	10707	 	0.0	 	1	16V2	0	284.533357488	3997.29896079
35667	<geoprocessing describe geometry object object at 0x0F02DAC0>	MN	1968	33	109	 213.03	3001	05	9	10027	E037	26	1100	1	09	2B	419 WEST 128 STREET	R7A	 	 	 	 	 	 	 	 	 	N	C1	02	0	P	KLUCSO, MATILD ZSAN	6045	21535	0	21535	0	0	0	0	0	0	2	1	5.0	29	29	60.5	99.92	61.0	86.0	 	2	N	5	1	90000.0	425250.0	0.0	0.0	1920	0	0	 	 	3.56	4.0	0.0	4.0	1	1019680033.0	0	021303	997382	235665	6a	 	107N096	10707	 	0.0	 	1	16V2	0	325.460916109	6178.58867268
35668	<geoprocessing describe geometry object object at 0x0F02DAC0>	MN	1998	24	109	 219	1008	05	7	10027	E080	26	1100	1	09	2A	609 WEST 131 STREET	C6-1	 	 	 	 	 	MMU	 	 	 	N	V1	11	0	X	THE TRUSTEES OF COLUM	9992	0	0	0	0	0	0	0	0	0	4	0	0.0	0	0	50.0	199.83	0.0	0.0	 	0	N	4	5	2173500.0	2173500.0	2173500.0	2173500.0	0	0	0	 	 	0.0	3.44	6.0	6.5	1	1019980024.0	0	0219	996014	237373	5c	 	111S002	10707	E-188	0.0	 	1	16V2	0	501.956208542	10143.4057328
35670	<geoprocessing describe geometry object object at 0x0F02D180>	MN	2002	19	109	 223.01	4000	06	7	10031	E080	30	900	1	09	2A	619 WEST 135 STREET	R8	 	 	 	 	 	 	 	 	 	N	C1	02	0	 	609-619 WEST 135 STRE	3997	14260	0	14260	0	0	0	0	0	0	2	1	5.0	22	22	40.0	99.92	40.0	84.0	 	3	N	5	2	36000.0	463050.0	0.0	0.0	1905	1986	0	 	 	3.57	6.02	0.0	6.5	1	1020020019.0	0	022301	996397	238333	6a	 	111S020	10707	 	0.0	 	1	16V2	0	298.598730846	4392.58610361
35672	<geoprocessing describe geometry object object at 0x0F02D180>	MN	1982	30	109	 219	1015	05	7	10027	E037	26	1100	1	09	2B	502 WEST 126 STREET	R7A	 	 	 	C2-4	 	125	 	 	 	N	S2	04	0	 	XC REALTY MGT CORP	2500	3468	2100	1368	0	0	0	0	0	0	2	1	3.0	2	3	25.0	100.0	21.0	87.0	 	2	N	5	5	20301.0	81153.0	0.0	0.0	1901	1990	0	 	 	1.39	4.0	0.0	4.0	1	1019820030.0	0	0219	996407	235899	6a	 	107N093	10707	 	0.0	 	1	16V2	0	255.955169544	2640.5544604
35673	<geoprocessing describe geometry object object at 0x0F02D180>	MN	2086	150	109	 223.01	3000	06	7	10031	E080	30	900	1	09	2A	640 WEST 138 STREET	R6A	 	 	 	 	 	 	 	 	 	N	A9	01	0	 	HAMILTONHEIGHTSW138,	1499	1980	0	1980	0	0	0	0	0	0	2	1	2.0	1	1	15.0	99.92	15.0	44.0	 	2	N	5	1	6139.0	18247.0	1550.0	1550.0	1901	0	0	 	 	1.32	3.0	0.0	3.0	1	1020860150.0	0	022301	996587	238941	6a	 	111S020	10710	 	0.0	 	1	16V2	0	237.747171807	1680.54502367
35675	<geoprocessing describe geometry object object at 0x0F02DF80>	MN	1987	36	109	 219	2000	05	7	10031	E080	30	1100	1	09	2B	1496 AMSTERDAM AVENUE	R7A	 	 	 	C1-4	 	 	 	 	 	N	C1	02	0	P	EDWARD DOZIER SR HSGD	4000	17749	0	17749	0	0	0	0	0	0	2	1	6.0	25	25	40.0	100.0	40.0	90.0	E	0	N	3	5	78750.0	435600.0	0.0	340696.0	1905	1989	0	 	 	4.44	4.0	0.0	4.0	1	1019870036.0	0	0219	997224	237388	6a	 	111S012	10707	 	0.0	 	1	16V2	0	284.27245188	4245.23627658
35676	<geoprocessing describe geometry object object at 0x0F02DF80>	MN	1987	9	109	 219	2001	05	7	10027	E080	30	1100	1	09	2B	547 WEST 133 STREET	R7A	C6-1	 	 	 	 	MMU	 	 	 	Y	G1	10	0	 	TRUSTEES OF COLUMBIA	7494	14238	14238	0	0	0	14238	0	0	0	2	1	2.0	0	2	75.0	99.92	75.0	100.0	 	3	N	5	2	121500.0	623250.0	0.0	0.0	1970	0	0	 	 	1.9	4.0	0.0	4.0	1	1019870009.0	0	0219	996711	237521	6a	 	111S012	10707	R-148	0.0	 	1	16V2	0	357.674313475	7804.17220919
35677	<geoprocessing describe geometry object object at 0x0F02DF80>	MN	1987	15	109	 219	2001	05	7	10027	E080	30	1100	1	09	2B	537 WEST 133 STREET	R7A	 	 	 	 	 	 	 	 	 	N	C1	02	0	P	537-39 WEST 133RD ST	4996	19872	0	19872	0	0	0	0	0	0	2	1	6.0	36	36	50.0	99.92	50.0	85.0	 	3	N	5	2	66600.0	499050.0	66600.0	146718.0	1905	1993	0	 	 	3.98	4.0	0.0	4.0	1	1019870015.0	0	0219	996831	237455	6a	 	111S012	10707	 	0.0	 	1	16V2	0	305.414539472	5106.07834266
35678	<geoprocessing describe geometry object object at 0x0F02DA80>	MN	1982	15	109	 219	1015	05	7	10027	E037	26	1100	1	09	2B	523 WEST 125 STREET	R7A	 	 	 	C2-4	 	125	 	 	 	N	E9	06	0	P	GARRETT REALTY CORP.	2542	7220	4480	2740	0	0	0	0	4480	0	2	1	3.0	2	3	25.42	100.0	23.0	99.0	E	2	N	5	2	58500.0	89100.0	0.0	0.0	1930	1988	0	 	 	2.84	4.0	0.0	4.0	1	1019820015.0	0	0219	996238	235965	5c	Y	107N093	10707	 	0.0	 	1	16V2	0	258.856119508	2630.272258
35680	<geoprocessing describe geometry object object at 0x0F02DA80>	MN	1970	68	109	 213.03	1001	05	9	10027	E080	26	1100	1	09	2B	1463 AMSTERDAM AVENUE	R7A	 	 	 	C1-4	 	 	 	 	 	N	C6	02	0	P	1463 AMSTREDAM AVENUE	2500	9720	1100	8620	0	1100	0	0	0	0	2	1	5.0	12	13	25.0	100.0	25.0	86.0	 	3	N	5	2	25650.0	417600.0	25650.0	266748.0	1910	0	0	 	 	3.89	4.0	0.0	4.0	1	1019700068.0	0	021303	997189	236917	6a	 	111S004	10707	 	0.0	 	1	16V2	0	265.277318051	2817.95188731
35681	<geoprocessing describe geometry object object at 0x0F02DA80>	MN	2001	1	109	 223.02	1000	05	7	10031	E080	30	900	1	09	2Q	2351 JOE DIMAGGIO HIGHWAY	C6-2	R8	 	 	 	 	MMU	 	 	 	Y	E7	06	0	P	2351 12TH AVENUE PROP	6490	80742	80742	0	0	0	0	80742	0	0	2	1	14.0	0	1	49.92	130.0	50.0	123.0	 	1	N	3	0	292050.0	3937050.0	0.0	0.0	1928	0	0	 	 	12.44	6.02	6.0	6.5	1	1020010001.0	0	022302	995887	238247	5c	 	111S011	10707	 	0.0	 	1	16V2	0	360.023167843	6311.53159008
35685	<geoprocessing describe geometry object object at 0x0F02D400>	MN	1969	6	109	 213.03	2000	05	7	10027	E037	26	1100	1	09	2B	487 WEST 129 STREET	R7A	 	 	 	 	 	 	 	 	 	N	V1	11	0	 	 	19412	0	0	0	0	0	0	0	0	0	4	0	0.0	0	0	97.5	199.1	0.0	0.0	 	0	Y	4	5	349200.0	349200.0	0.0	0.0	0	0	0	 	 	0.0	4.0	0.0	4.0	1	1019690006.0	0	021303	996986	236237	6a	 	17N 096	10707	R-158	1019690005.0	11/29/2005	1	16V2	0	618.950639922	20958.5689084
35686	<geoprocessing describe geometry object object at 0x0F02D400>	MN	1970	2	109	 213.03	1002	05	9	10027	E037	26	1100	1	09	2B	1423 AMSTERDAM AVENUE	R7A	 	 	 	C1-4	 	 	 	 	 	N	D1	03	0	X	LOGAN PLAZA LLC	34978	120570	0	120570	0	0	0	0	0	0	2	1	9.0	130	130	174.92	200.0	174.92	175.0	 	0	Y	3	5	616500.0	5359500.0	616500.0	5359500.0	1988	0	0	 	 	3.45	4.0	0.0	4.0	1	1019700002.0	0	021303	997022	236520	6a	 	111S004	10707	 	0.0	 	1	16V2	0	819.229700474	36621.1765457
35687	<geoprocessing describe geometry object object at 0x0F02D400>	MN	1988	21	109	 223.01	1000	05	7	10031	E080	30	900	1	09	2B	513 WEST 134 STREET	R7A	 	 	 	 	 	 	 	 	 	N	C1	02	0	P	513 YELLOW APPLE, LLC	3922	13040	0	13040	0	0	0	0	0	0	2	1	5.0	20	20	39.25	99.92	39.0	87.0	 	3	N	5	2	31950.0	348750.0	0.0	0.0	1905	1988	0	 	 	3.32	4.0	0.0	4.0	1	1019880021.0	0	022301	997088	237612	6a	 	111S021	10707	 	0.0	 	1	16V2	0	286.960020225	4009.41319682
35688	<geoprocessing describe geometry object object at 0x0F02D900>	MN	1982	67	109	 219	1014	05	7	10027	E037	26	1100	1	09	2B	16 OLD BROADWAY	R7A	 	 	 	C2-4	 	125	 	 	 	N	C7	04	0	P	WHGA RENNAISSANCE APA	4144	17340	1600	15740	0	1600	0	0	0	0	2	1	6.0	16	18	37.5	113.08	38.0	96.0	 	3	Y	5	2	94050.0	464400.0	88407.0	436536.0	1905	0	0	 	 	4.18	4.0	0.0	4.0	1	1019820067.0	0	0219	996055	236437	5c	 	107N094	10707	 	0.0	 	1	16V2	0	310.403213414	4595.89117802
35689	<geoprocessing describe geometry object object at 0x0F02D900>	MN	1988	85	109	 223.01	2002	06	7	10031	E080	30	900	1	09	2B	525 WEST 135 STREET	R7A	 	 	 	 	 	 	 	 	 	N	C1	02	0	P	525-527 W 135 LLC	3997	13170	0	13170	0	0	0	0	0	0	2	1	5.0	25	25	40.0	99.92	40.0	86.0	 	3	N	5	2	54900.0	663750.0	0.0	0.0	1910	1987	0	 	 	3.29	4.0	0.0	4.0	1	1019880085.0	0	022301	997019	237990	6a	 	111S021	10707	 	0.0	 	1	16V2	0	287.339528956	4142.86212215
35690	<geoprocessing describe geometry object object at 0x0F02D900>	MN	1967	14	109	 213.03	2003	05	7	10027	E037	26	1100	1	09	2B	419 WEST 126 STREET	M1-5/R7-2	 	 	 	 	 	MX-15	 	 	 	N	I9	08	0	 	CENTRAL HARLEM SOBERI	3750	11295	11295	0	0	0	0	0	0	11295	2	1	3.0	0	1	28.17	156.58	25.0	157.0	 	3	Y	4	2	76950.0	1062000.0	0.0	0.0	1926	1991	0	 	 	3.01	4.0	5.0	6.5	1	1019670014.0	0	021303	996960	235391	6a	 	107N095	10707	 	0.0	 	1	16V2	0	361.291402579	3988.18331705
35691	<geoprocessing describe geometry object object at 0x0F02D540>	MN	1988	88	109	 223.01	2002	06	7	10031	E080	30	900	1	09	2B	521 WEST 135 STREET	R7A	 	 	 	 	 	 	 	 	 	N	C1	02	0	P	521 WEST 135TH STREET	3997	13170	0	13170	0	0	0	0	0	0	2	1	5.0	20	20	40.0	99.92	40.0	86.0	 	3	N	5	2	32850.0	355950.0	32850.0	160210.0	1915	1989	0	 	 	3.29	4.0	0.0	4.0	1	1019880088.0	0	022301	997090	237951	6a	 	111S021	10707	 	0.0	 	1	16V2	0	287.257086124	4138.57438278
35692	<geoprocessing describe geometry object object at 0x0F02D540>	MN	1995	31	109	 219	1013	05	7	10027	E037	26	1100	1	09	2A	3207 BROADWAY	C6-1	 	 	 	 	 	MMU	 	 	 	N	V1	11	0	X	THE TRUSTEES OF COLUM	12623	0	0	0	0	0	0	0	0	0	4	0	0.0	0	0	132.75	138.58	0.0	0.0	 	0	Y	3	5	1213380.0	1213380.0	1213380.0	1213380.0	0	0	0	 	 	0.0	3.44	6.0	6.5	1	1019950031.0	0	0219	995765	236672	5c	 	107N092	10707	R-147	0.0	 	1	16V2	0	471.265037349	12934.252091
35695	<geoprocessing describe geometry object object at 0x0F02D540>	MN	2086	40	109	 223.01	3000	06	7	10031	E080	30	900	1	09	2A	610 WEST 138 STREET	R6A	 	 	 	 	 	 	 	 	 	N	C4	02	0	P	ZANDER,LLC	1774	5548	0	5548	0	0	0	0	0	0	2	1	4.0	4	4	17.75	99.92	18.0	76.0	E	3	N	5	5	107100.0	160268.0	0.0	31326.0	1906	2004	0	 	 	3.13	3.0	0.0	3.0	1	1020860040.0	0	022301	996812	238816	6a	 	111S020	10710	 	0.0	 	1	16V2	0	243.828706384	1992.12803316
35697	<geoprocessing describe geometry object object at 0x0F02DA00>	MN	2002	33	109	 223.01	4000	06	7	10031	E080	30	900	1	09	2A	3341 BROADWAY	R8	 	 	 	C1-4	 	 	 	 	 	N	D7	04	0	 	601 WEST 135TH STREET	12490	60450	7500	52950	0	7500	0	0	0	0	2	1	6.0	44	55	125.0	100.0	110.0	98.0	 	2	N	3	2	326250.0	1807200.0	0.0	0.0	1906	0	0	 	 	4.84	6.02	0.0	6.5	1	1020020033.0	0	022301	996611	238213	6a	 	111S020	10707	 	0.0	 	1	16V2	0	469.877500337	13726.4305474
35698	<geoprocessing describe geometry object object at 0x0F02DA00>	MN	2002	67	109	 223.01	3006	06	7	10031	E080	30	900	1	09	2A	594 RIVERSIDE DRIVE	R8	 	 	 	 	 	 	 	 	 	N	D1	03	0	P	596 RIVERSIDE DRIVE I	11131	53832	0	53832	0	0	0	0	0	0	2	1	6.0	36	36	102.42	122.75	102.0	108.0	 	2	Y	3	1	215550.0	3444300.0	215550.0	3444300.0	1920	1987	0	 	 	4.84	6.02	0.0	6.5	1	1020020067.0	0	022301	996417	238738	6a	 	111S020	10707	 	0.0	 	1	16V2	0	443.486491579	12114.3985016
35699	<geoprocessing describe geometry object object at 0x0F02DA00>	MN	2002	73	109	 223.01	3006	06	7	10031	E080	30	900	1	09	2A	627 WEST 136 STREET	R8	 	 	 	 	 	 	 	 	 	N	C1	02	0	P	HARTMAN, JULIA	5445	19480	0	19480	0	0	0	0	0	0	2	1	5.0	21	21	54.5	99.92	54.0	88.0	 	2	N	5	2	62550.0	581400.0	0.0	422582.0	1905	1987	2002	 	 	3.58	6.02	0.0	6.5	1	1020020073.0	0	022301	996443	238607	6a	 	111S020	10707	 	0.0	 	1	16V2	0	313.614557302	5558.84009039
35701	<geoprocessing describe geometry object object at 0x0F02DB20>	MN	2086	42	109	 223.01	3000	06	7	10031	E080	30	900	1	09	2A	616 WEST 138 STREET	R6A	 	 	 	 	 	 	 	 	 	N	C2	02	0	P	IYAGEH VICTOR O	1599	4176	0	4176	0	0	0	0	0	0	2	1	4.0	6	6	16.0	99.92	16.0	67.0	E	3	N	5	5	8805.0	33879.0	0.0	0.0	1926	0	0	 	 	2.61	3.0	0.0	3.0	1	1020860042.0	0	022301	996769	238840	6a	 	111S020	10710	 	0.0	 	1	16V2	0	237.268095302	1656.00665645
35702	<geoprocessing describe geometry object object at 0x0F02DB20>	MN	1969	25	109	 213.03	3000	05	9	10027	E037	26	1100	1	09	2B	41 CONVENT AVENUE	R7A	 	 	 	 	 	 	 	 	 	N	D4	03	0	P	ST AGNES APARTMENTS H	22100	104187	1200	102987	0	1200	0	0	0	0	2	1	7.0	79	80	216.83	68.5	208.0	141.0	 	1	Y	3	2	291600.0	2363400.0	291600.0	1550039.0	1926	1988	2002	 	 	4.71	4.0	0.0	4.0	1	1019690025.0	0	021303	997336	236060	6a	 	107N096	10707	 	0.0	 	1	16V2	0	669.59969584	24288.838115
35703	<geoprocessing describe geometry object object at 0x0F02DB20>	MN	1953	57	109	 213.03	4002	05	9	10027	E037	26	1100	1	09	2B	368 WEST 127 STREET	R7A	 	 	 	 	 	 	 	 	 	N	C4	02	0	 	368 WEST 127TH STREET	2498	9685	0	9685	0	0	0	0	0	0	2	1	5.0	20	20	25.0	99.92	25.0	84.0	 	3	N	5	2	56250.0	739800.0	0.0	0.0	1920	0	0	 	 	3.88	4.0	0.0	4.0	1	1019530057.0	0	021303	997367	235196	6a	 	107N097	10706	 	0.0	 	1	16V2	0	255.153568152	2528.76483812
35706	<geoprocessing describe geometry object object at 0x0F02D080>	MN	1998	17	109	 219	1008	05	7	10027	E080	26	1100	1	09	2A	615 WEST 131 STREET	C6-1	 	 	 	 	 	MMU	 	 	 	N	O5	05	0	P	THE TRUSTEES OF COLUM	34970	210000	210000	0	176400	33600	0	0	0	0	2	1	6.0	0	6	175.0	199.83	175.0	200.0	 	3	N	5	2	945000.0	18681750.0	945000.0	18681750.0	1924	1997	2006	 	 	6.01	3.44	6.0	6.5	1	1019980017.0	0	0219	995915	237427	5c	 	111S002	10707	 	0.0	 	1	16V2	0	749.052207805	34904.0304399
35707	<geoprocessing describe geometry object object at 0x0F02D080>	MN	1970	35	109	 213.03	1001	05	9	10027	E080	26	1100	1	09	2B	1439 AMSTERDAM AVENUE	R7A	 	 	 	C1-4	 	 	 	 	 	N	C7	04	0	P	AMSTERDAM CONVENT REA	2700	10775	2000	8775	0	2000	0	0	0	0	2	1	5.0	9	10	27.0	100.0	27.0	82.0	 	2	N	5	2	61573.0	242550.0	0.0	138582.0	1910	2004	0	 	 	3.99	4.0	0.0	4.0	1	1019700035.0	0	021303	997077	236716	6a	 	111S004	10707	 	0.0	 	1	16V2	0	265.831808034	2847.39170703
35708	<geoprocessing describe geometry object object at 0x0F02D080>	MN	1988	80	109	 223.01	2002	06	7	10031	E080	30	900	1	09	2B	531 WEST 135 STREET	R7A	 	 	 	 	 	 	 	 	 	N	C1	02	0	P	4150 CORPORATION	3747	12395	0	12395	0	0	0	0	0	0	2	1	5.0	21	21	37.5	99.92	37.0	86.0	 	2	N	9	2	48600.0	351450.0	0.0	0.0	1910	0	0	 	 	3.31	4.0	0.0	4.0	1	1019880080.0	0	022301	996917	238046	6a	 	111S021	10707	 	0.0	 	1	16V2	0	284.740242009	4008.04153841
35709	<geoprocessing describe geometry object object at 0x0F02D960>	MN	1998	26	109	 219	1008	05	7	10027	E080	26	1100	1	09	2A	605 WEST 131 STREET	C6-1	 	 	 	 	 	MMU	 	 	 	N	V1	11	0	X	THE TRUSTEES OF COLUM	4996	0	0	0	0	0	0	0	0	0	4	0	0.0	0	0	50.0	99.92	0.0	0.0	 	0	N	5	5	1138320.0	1138320.0	1138320.0	1138320.0	0	0	0	 	 	0.0	3.44	6.0	6.5	1	1019980026.0	0	0219	996034	237304	5c	 	111S002	10707	E-188	0.0	 	1	16V2	0	300.661844183	5066.80630944
35710	<geoprocessing describe geometry object object at 0x0F02D960>	MN	1988	53	109	 223.01	1000	05	7	10031	E080	30	900	1	09	2B	520 WEST 135 STREET	R7A	R8A	 	 	 	 	MMU	 	 	 	Y	O2	05	0	P	DUPONT ASSOCIATES INC	15987	43000	43000	0	43000	0	0	0	0	0	2	1	3.0	0	1	160.0	99.92	150.0	99.0	 	1	N	5	2	313200.0	3250350.0	0.0	1522710.0	1915	1997	0	 	 	2.69	4.0	0.0	4.0	1	1019880053.0	0	022301	996873	237848	6a	 	111S021	10707	E-188	0.0	 	1	16V2	0	513.640353213	15641.7777784
35711	<geoprocessing describe geometry object object at 0x0F02D960>	MN	1996	61	109	 219	1010	05	7	10027	E037	26	1100	1	09	2A	663 WEST 125 STREET	C6-1	 	 	 	 	 	MMU	 	 	 	N	V1	11	0	P	THE TRUSTEES OF COLUM	5025	0	0	0	0	0	0	0	0	0	4	0	0.0	0	0	139.42	71.25	0.0	0.0	 	0	Y	3	5	1145340.0	1145340.0	1145340.0	1145340.0	0	0	0	 	 	0.0	3.44	6.0	6.5	1	1019960061.0	0	0219	995343	237237	5c	 	107N092	10707	E-188	0.0	 	1	16V2	0	340.434360774	4962.25119751
35713	<geoprocessing describe geometry object object at 0x0F02D7A0>	MN	1982	69	109	 219	1014	05	7	10027	E037	26	1100	1	09	2B	556 WEST 126 STREET	R7A	 	 	 	C2-4	 	125	 	 	 	N	C1	02	0	P	THOR 560 WEST 126TH S	3980	16266	0	16266	0	0	0	0	0	0	2	1	6.0	18	18	40.0	99.5	40.0	86.0	 	3	N	5	2	40950.0	639000.0	0.0	0.0	1910	1984	0	 	 	4.09	4.0	0.0	4.0	1	1019820069.0	0	0219	996009	236499	5c	 	107N094	10707	 	0.0	 	1	16V2	0	288.098662868	4164.9364191
35715	<geoprocessing describe geometry object object at 0x0F02D7A0>	MN	1970	71	109	 213.03	1001	05	9	10027	E080	26	1100	1	09	2B	1457 AMSTERDAM AVENUE	R7A	 	 	 	C1-4	 	 	 	 	 	N	C7	04	0	P	WHGA GARVEY HOUSING D	2450	9940	1000	8940	0	1000	0	0	0	0	2	1	5.0	9	10	25.5	100.0	25.0	86.0	 	3	N	5	2	34179.0	182658.0	27343.0	146126.0	1901	1989	0	 	 	4.06	4.0	0.0	4.0	1	1019700071.0	0	021303	997153	236852	6a	 	111S004	10707	 	0.0	 	1	16V2	0	262.555994643	2673.6392028
35716	<geoprocessing describe geometry object object at 0x0F02D7A0>	MN	1954	60	109	 213.03	4001	05	9	10027	E037	26	1100	1	09	2B	17 CONVENT AVENUE	R7A	 	 	 	 	 	 	 	 	 	N	V1	11	0	P	17 CONVENT LLC	5912	0	0	0	0	0	0	0	0	0	4	0	0.0	0	0	112.5	85.0	0.0	0.0	 	0	Y	3	5	622800.0	622800.0	0.0	0.0	0	0	0	 	 	0.0	4.0	0.0	4.0	1	1019540060.0	0	021303	997291	235545	6a	 	107N097	10706	 	0.0	 	1	16V2	0	332.713873515	6065.07782198
35718	<geoprocessing describe geometry object object at 0x0F02D7A0>	MN	1984	50	109	 219	4001	05	7	10027	E037	26	1100	1	09	2B	        WEST 126 STREET	R7-2	 	 	 	C2-4	 	 	 	 	 	N	V1	11	0	C	DCAS	3306	0	0	0	0	0	0	0	0	0	4	0	0.0	0	0	57.33	117.42	0.0	0.0	 	0	Y	5	5	323550.0	323550.0	323550.0	323550.0	0	0	0	 	 	0.0	3.44	0.0	6.5	1	1019840050.0	0	0219	996180	236512	5c	 	111S003	10707	 	0.0	 	1	16V2	0	296.822021784	3297.45924527
35719	<geoprocessing describe geometry object object at 0x0F02D500>	MN	2002	79	109	 223.01	3006	06	7	10031	E080	30	900	1	09	2A	615 WEST 136 STREET	R8	 	 	 	 	 	 	 	 	 	N	C1	02	0	P	LAP PARTNERS LLC	5396	19270	0	19270	0	0	0	0	0	0	2	1	5.0	21	21	54.0	99.92	54.0	88.0	 	3	N	5	2	74700.0	817650.0	0.0	0.0	1908	1965	0	 	 	3.57	6.02	0.0	6.5	1	1020020079.0	0	022301	996585	238528	6a	 	111S020	10707	 	0.0	 	1	16V2	0	314.022457535	5579.58824575
35720	<geoprocessing describe geometry object object at 0x0F02D500>	MN	1988	48	109	 223.01	1000	05	7	10031	E080	30	900	1	09	2B	514 WEST 135 STREET	R7A	 	 	 	 	 	 	 	 	 	N	C1	02	0	P	COLUMBIA HEIGHTS NEIG	4246	16614	0	16614	0	0	0	0	0	0	2	1	6.0	25	25	42.5	99.92	43.0	85.0	 	3	N	5	2	58950.0	709650.0	0.0	0.0	1910	1989	0	 	 	3.91	4.0	0.0	4.0	1	1019880048.0	0	022301	997033	237760	6a	 	111S021	10707	 	0.0	 	1	16V2	0	282.484728144	4164.83920391
35721	<geoprocessing describe geometry object object at 0x0F02D500>	MN	1967	60	109	 213.03	2002	05	7	10027	E037	26	1100	1	09	2B	423 WEST 127 STREET	M1-5/R7-2	 	 	 	 	 	MX-15	 	 	 	N	O2	05	0	 	NEIGHBORHOOD EIGHTH A	16020	41800	41800	0	22300	0	0	0	0	0	2	3	5.0	0	10	160.33	99.92	60.0	75.0	 	3	N	5	2	1095750.0	4044150.0	0.0	2141100.0	1936	1985	2009	 	 	2.61	4.0	5.0	6.5	1	1019670060.0	0	021303	996897	235637	6a	 	107N095	10707	E-284	0.0	 	1	16V2	0	527.400196357	16481.5745194
35722	<geoprocessing describe geometry object object at 0x0F02D180>	MN	2005	12	109	 223.02	1004	05	7	10027	E080	30	900	1	09	2A	703 WEST 133 STREET	M1-2	 	 	 	 	 	MMU	 	 	 	N	K2	05	0	P	2331 12TH AVE CORP	4312	2787	2787	0	0	2787	0	0	0	0	2	1	2.0	0	1	59.75	76.75	30.0	60.0	 	0	Y	3	5	45000.0	226800.0	0.0	0.0	1910	2005	0	 	 	0.65	0.0	2.0	4.8	1	1020050012.0	0	022302	995601	238127	5c	 	111S001	10707	 	0.0	 	1	16V2	0	283.284416617	4879.96244007
35723	<geoprocessing describe geometry object object at 0x0F02D180>	MN	2001	110	109	 223.02	1000	05	7	10027	E080	30	900	1	09	2A	2337 JOE DIMAGGIO HIGHWAY	C6-2	 	 	 	 	 	MMU	 	 	 	N	E1	06	0	 	12TH AVENUE,LLC	7603	22500	22500	0	0	0	0	22500	0	0	2	1	3.0	0	4	60.83	125.0	60.83	125.0	 	0	N	5	5	239400.0	1036800.0	0.0	0.0	1953	0	0	 	 	2.96	6.02	6.0	6.5	1	1020010110.0	0	022302	995780	238061	5c	 	111S011	10707	 	0.0	 	1	16V2	0	374.583204732	7640.19331745
35724	<geoprocessing describe geometry object object at 0x0F02D180>	MN	2002	91	109	 223.01	4000	06	7	10031	E080	30	900	1	09	2A	618 WEST 136 STREET	R8	 	 	 	 	 	 	 	 	 	N	C1	02	0	 	618 WEST 136TH STREET	5396	19390	0	19390	0	0	0	0	0	0	2	1	5.0	28	28	54.0	99.92	54.0	91.0	 	3	N	5	2	74700.0	681750.0	0.0	0.0	1905	1988	0	 	 	3.59	6.02	0.0	6.5	1	1020020091.0	0	022301	996489	238405	6a	 	111S020	10707	 	0.0	 	1	16V2	0	319.756594994	5699.22719383
35725	<geoprocessing describe geometry object object at 0x0F02D5E0>	MN	1988	121	109	 223.01	2002	06	7	10031	E080	30	900	1	09	2B	518 WEST 136 STREET	R7A	 	 	 	 	 	 	 	 	 	N	C1	02	0	P	CIMBA KING LLC	3747	15048	0	15048	0	0	0	0	0	0	2	1	6.0	24	24	37.5	99.92	38.0	83.0	 	3	N	5	2	57600.0	554850.0	0.0	0.0	1905	0	0	 	 	4.02	4.0	0.0	4.0	1	1019880121.0	0	022301	997191	238013	6a	 	111S021	10707	 	0.0	 	1	16V2	0	280.23439656	3795.36863598
35729	<geoprocessing describe geometry object object at 0x0F02D5E0>	MN	1983	6	109	 219	4002	05	7	10027	E037	26	1100	1	09	2B	500 WEST 129 STREET	PARK	 	 	 	 	 	 	 	 	 	N	Q3	09	0	C	PARKS AND RECREATION	61300	5632	5632	0	0	0	0	0	0	5632	2	2	1.0	0	1	332.42	272.0	151.0	35.0	 	1	Y	3	0	1507500.0	2128050.0	1507500.0	2128050.0	1970	1970	0	 	 	0.09	0.0	0.0	0.0	1	1019830006.0	0	0219	996557	236186	6a	Y	107N094	10707	 	0.0	 	1	16V2	0	1364.42055524	62352.5230417
35731	<geoprocessing describe geometry object object at 0x0F02D5E0>	MN	1982	9	109	 219	1015	05	7	10027	E037	26	1100	1	09	2B	537 WEST 125 STREET	R7A	 	 	 	C2-4	 	125	 	 	 	N	L8	06	0	 	EDLEN RLTY CO INC	2500	6950	6950	0	4633	2317	0	0	0	0	2	1	3.0	0	2	25.0	100.0	25.0	97.0	 	3	N	5	2	45000.0	235350.0	0.0	0.0	1930	0	0	 	 	2.78	4.0	0.0	4.0	1	1019820009.0	0	0219	996156	236090	5c	 	107N093	10707	 	0.0	 	1	16V2	0	259.201751136	2679.45469222
35732	<geoprocessing describe geometry object object at 0x0F02D920>	MN	1986	6	109	 219	2002	05	7	10027	E080	26	1100	1	09	2B	573 WEST 131 STREET	C6-1	 	 	 	 	 	MMU	 	 	 	N	E7	06	0	P	TRUSTEES OF COLUMBIA	6811	28000	28000	0	0	0	0	28000	0	0	2	1	4.0	0	1	68.17	99.92	68.0	99.0	 	1	N	5	2	306450.0	1203300.0	0.0	0.0	1917	2008	0	 	 	4.11	3.44	6.0	6.5	1	1019860006.0	0	0219	996392	237106	6a	 	111S003	10707	R-146	0.0	 	1	16V2	0	338.863384411	6908.67971248
35734	<geoprocessing describe geometry object object at 0x0F02D920>	MN	1953	52	109	 213.03	4002	05	9	10027	E037	26	1100	1	09	2B	358 WEST 127 STREET	R7A	R8	 	 	 	 	 	 	 	 	Y	C4	02	0	P	THE VINCENT JAMES MAN	2498	9865	0	9865	0	0	0	0	0	0	2	1	5.0	10	10	25.0	99.92	25.0	84.0	 	3	N	5	2	3423.0	48874.0	0.0	0.0	1910	2009	0	 	 	3.95	4.0	0.0	4.0	1	1019530052.0	0	021303	997476	235135	6a	 	107N097	10706	 	0.0	 	1	16V2	0	254.774455958	2509.23065758
35735	<geoprocessing describe geometry object object at 0x0F02D920>	MN	2004	46	109	 219	1006	05	7	10027	E080	26	1100	1	09	2A	2290 JOE DIMAGGIO HIGHWAY	M1-2	 	 	 	 	 	MMU	 	 	 	N	G7	10	0	 	2290 12TH AVENUE	23657	0	0	0	0	0	0	0	0	0	7	1	0.0	0	0	101.25	208.58	0.0	0.0	 	0	Y	3	5	916200.0	916200.0	0.0	0.0	0	0	0	 	 	0.0	0.0	2.0	4.8	1	1020040046.0	0	0219	995206	237575	5c	 	111S001	10707	 	0.0	 	1	16V2	0	692.616580298	24480.863553
35736	<geoprocessing describe geometry object object at 0x0F02D920>	MN	1999	36	109	 219	1000	05	7	10027	E080	26	1100	1	09	2A	3291 BROADWAY	C6-1	 	 	 	 	 	MMU	 	 	 	N	D7	04	0	P	GRADY, INC.	10625	53340	3650	49690	0	3650	0	0	0	0	2	1	6.0	50	55	74.92	125.0	73.0	112.0	 	2	Y	3	2	206100.0	1758600.0	0.0	0.0	1905	1998	0	 	 	5.02	3.44	6.0	6.5	1	1019990036.0	0	0219	996266	237596	5c	Y	111S002	10707	E-188	0.0	 	1	16V2	0	453.659179509	10853.7546738
35737	<geoprocessing describe geometry object object at 0x0F02D900>	MN	1988	18	109	 223.01	1000	05	7	10031	E080	30	900	1	09	2B	517 WEST 134 STREET	R7A	 	 	 	 	 	 	 	 	 	N	D6	04	0	P	198818 INC.	3938	20700	3795	16905	2962	0	833	0	0	0	7	0	0.0	23	25	39.42	99.92	0.0	0.0	 	0	N	5	2	504900.0	504900.0	0.0	0.0	0	0	0	 	 	5.26	4.0	0.0	4.0	1	1019880018.0	0	022301	997019	237651	6a	 	111S021	10707	E-284	0.0	 	1	16V2	0	288.47596645	4089.35203366
35738	<geoprocessing describe geometry object object at 0x0F02D900>	MN	1988	123	109	 223.01	2002	06	7	10031	E080	30	900	1	09	2B	520 WEST 136 STREET	R7A	 	 	 	 	 	 	 	 	 	N	D7	04	0	 	CAMPUS REALTY LLC	9992	41358	4200	37158	0	4200	0	0	0	0	2	1	6.0	36	38	100.0	99.92	100.0	84.0	 	3	N	5	1	404550.0	1216800.0	0.0	0.0	1926	0	0	 	 	4.14	4.0	0.0	4.0	1	1019880123.0	0	022301	997131	238047	6a	 	111S021	10707	 	0.0	 	1	16V2	0	408.376798983	10421.4582399
35739	<geoprocessing describe geometry object object at 0x0F02D900>	MN	1967	1	109	 213.03	2003	05	7	10027	E037	26	1100	1	09	2B	439 WEST 126 STREET	M1-5/R7-2	 	 	 	 	 	MX-15	 	 	 	N	C4	02	0	P	ECDO CITYWIDE PRESERV	2070	10932	0	10932	0	0	0	0	0	0	2	1	6.0	14	14	89.42	46.0	89.42	100.75	 	0	Y	3	2	16650.0	242100.0	16650.0	242100.0	1901	1996	0	 	 	5.28	4.0	5.0	6.5	1	1019670001.0	0	021303	996787	235557	6a	 	107N095	10707	 	0.0	 	1	16V2	0	251.518268368	2321.41550877
35740	<geoprocessing describe geometry object object at 0x0F02D540>	MN	1969	66	109	 213.03	2000	05	7	10027	E037	26	1100	1	09	2B	50 CONVENT AVENUE	R7A	 	 	 	 	 	 	 	 	 	N	C1	02	0	C	HOUSING PRESERVATION	4400	13040	0	13040	0	0	0	0	0	0	2	1	5.0	20	20	41.0	101.42	41.0	103.0	 	2	Y	5	2	38700.0	434700.0	38700.0	434700.0	1910	0	0	 	 	2.96	4.0	0.0	4.0	1	1019690066.0	0	021303	997177	236201	6a	 	107N096	10707	 	0.0	 	1	16V2	0	292.837294792	4148.09035804
35741	<geoprocessing describe geometry object object at 0x0F02D540>	MN	1988	31	109	 223.01	1000	05	7	10031	E080	30	900	1	09	2B	1504 AMSTERDAM AVENUE	R7A	 	 	 	C1-4	 	 	 	 	 	N	D7	04	0	O	N.Y.C. HOUSING AUTHOR	4000	16404	1600	14804	0	1600	0	0	0	0	2	1	6.0	16	18	40.0	100.0	40.0	85.0	 	3	N	5	2	60750.0	655200.0	60750.0	655200.0	1905	1988	0	 	 	4.1	4.0	0.0	4.0	1	1019880031.0	0	022301	997291	237510	6a	 	111S021	10707	 	0.0	 	1	16V2	0	277.578547204	3951.53524583
35742	<geoprocessing describe geometry object object at 0x0F02D540>	MN	2002	50	109	 223.01	3006	06	7	10031	E080	30	900	1	09	2A	602 WEST 137 STREET	R8	 	 	 	C1-4	 	 	 	 	 	N	D7	04	0	P	137 BROADWAY ASSOCIAT	12490	59316	7000	52316	0	7000	0	0	0	0	2	1	6.0	40	48	99.92	125.0	99.92	115.0	 	0	N	3	2	180000.0	2299050.0	0.0	0.0	1926	1993	0	 	 	4.75	6.02	0.0	6.5	1	1020020050.0	0	022301	996788	238534	6a	 	111S020	10707	 	0.0	 	1	16V2	0	459.763902093	13123.7146154
35743	<geoprocessing describe geometry object object at 0x0F02DA00>	MN	2002	22	109	 223.01	4000	06	7	10031	E080	30	900	1	09	2A	615 WEST 135 STREET	R8	 	 	 	 	 	 	 	 	 	N	C1	02	0	P	609-619 WEST 135 STRE	3997	14260	0	14260	0	0	0	0	0	0	2	1	5.0	21	21	40.0	99.92	40.0	84.0	 	3	N	5	2	36000.0	465300.0	0.0	0.0	1905	1986	0	 	 	3.57	6.02	0.0	6.5	1	1020020022.0	0	022301	996467	238294	6a	 	111S020	10707	 	0.0	 	1	16V2	0	298.087821461	4364.77168646
35747	<geoprocessing describe geometry object object at 0x0F02DA00>	MN	1987	12	109	 219	2001	05	7	10027	E080	30	1100	1	09	2B	545 WEST 133 STREET	R7A	 	 	 	 	 	 	 	 	 	N	C4	02	0	P	GREENE PACKAGE REALTY	2498	9510	0	9510	0	0	0	0	0	0	2	1	5.0	10	10	25.0	99.92	25.0	84.0	 	0	N	5	5	46245.0	174785.0	0.0	128540.0	1901	1996	0	 	 	3.81	4.0	0.0	4.0	1	1019870012.0	0	0219	996755	237497	6a	 	111S012	10707	 	0.0	 	1	16V2	0	255.215055018	2514.34741281
35748	<geoprocessing describe geometry object object at 0x0F02DA00>	MN	2004	50	109	 219	1007	05	7	10027	E080	26	1100	1	09	2A	        WEST 131 STREET	M1-2	 	 	 	 	 	MMU	 	 	 	N	G7	10	0	 	2290 12TH AVENUE	12362	0	0	0	0	0	0	0	0	0	7	0	0.0	0	0	60.0	203.42	0.0	0.0	 	0	Y	5	5	478800.0	478800.0	0.0	0.0	0	0	0	 	 	0.0	0.0	2.0	4.8	1	1020040050.0	0	0219	995252	237643	5c	 	111S001	10707	 	0.0	 	1	16V2	0	538.966409444	12758.6405623
35749	<geoprocessing describe geometry object object at 0x0F02DA00>	MN	1967	9	109	 213.03	2003	05	7	10027	E037	26	1100	1	09	2B	429 WEST 126 STREET	M1-5/R7-2	 	 	 	 	 	MX-15	 	 	 	N	V1	11	0	 	126 COLUMBIA TOWER 2	1200	0	0	0	0	0	0	0	0	0	4	0	0.0	0	0	28.17	75.0	0.0	0.0	 	0	Y	5	5	131220.0	131220.0	0.0	0.0	0	0	0	 	 	0.0	4.0	5.0	6.5	1	1019670009.0	0	021303	996859	235462	6a	 	107N095	10707	E-284	0.0	 	1	16V2	0	172.259609393	1210.80445843
35750	<geoprocessing describe geometry object object at 0x0F02DA00>	MN	1982	24	109	 219	1015	05	7	10027	E037	26	1100	1	09	2B	501 WEST 125 STREET	R7A	 	 	 	C2-4	 	125	 	 	 	N	K2	05	0	 	BAHAR REALTY ASSOCIAT	4725	9440	9440	0	4720	4720	0	0	0	0	2	1	2.0	0	9	72.67	112.67	70.0	98.0	 	3	Y	3	2	112500.0	418950.0	0.0	0.0	1926	0	0	 	 	2.0	4.0	0.0	4.0	1	1019820024.0	0	0219	996359	235768	6a	 	107N093	10707	 	0.0	 	1	16V2	0	324.844606941	5339.71755118
35751	<geoprocessing describe geometry object object at 0x0F02D580>	MN	1970	36	109	 213.03	1001	05	9	10027	E080	26	1100	1	09	2B	1445 AMSTERDAM AVENUE	R7A	 	 	 	C1-4	 	 	 	 	 	N	M9	08	0	X	RC CHUR ANNUNCIATION	7977	13440	13440	0	0	0	0	0	0	13440	2	1	6.0	0	2	79.67	100.0	80.0	58.0	 	3	N	5	2	168300.0	1271700.0	168300.0	1271700.0	1963	1988	0	 	 	1.68	4.0	0.0	4.0	1	1019700036.0	0	021303	997103	236763	6a	 	111S004	10707	 	0.0	 	1	16V2	0	372.273954871	8492.62399839
35752	<geoprocessing describe geometry object object at 0x0F02D580>	MN	2002	89	109	 223.01	4000	06	7	10031	E080	30	900	1	09	2A	614 WEST 136 STREET	R8	 	 	 	 	 	 	 	 	 	N	C6	02	0	P	614 WEST 136 ST HDFC	5396	19390	0	19390	0	0	0	0	0	0	2	1	5.0	20	20	54.0	99.92	54.0	91.0	 	3	N	5	2	41400.0	691200.0	41400.0	495460.0	1905	1987	0	 	 	3.59	6.02	0.0	6.5	1	1020020089.0	0	022301	996536	238379	6a	 	111S020	10707	 	0.0	 	1	16V2	0	320.376422874	5703.90891721
35753	<geoprocessing describe geometry object object at 0x0F02D580>	MN	2086	29	109	 223.01	3000	06	7	10031	E080	30	900	1	09	2A	3381 BROADWAY	R8	 	 	 	C1-4	 	 	 	 	 	N	D7	04	0	 	WEST 137TH 601 LLC	12490	57415	7560	49855	0	7560	0	0	0	0	2	1	6.0	37	44	99.92	125.0	95.0	109.0	 	2	N	3	1	250650.0	2391300.0	0.0	0.0	1907	1986	0	 	 	4.6	6.02	0.0	6.5	1	1020860029.0	0	022301	996864	238669	6a	 	111S020	10710	 	0.0	 	1	16V2	0	467.279444337	13502.3774996
35754	<geoprocessing describe geometry object object at 0x0F02D960>	MN	2001	50	109	 223.02	1000	05	7	10031	E080	30	900	1	09	2A	622 WEST 135 STREET	R8	 	 	 	 	 	 	 	 	 	N	C1	02	0	P	RIVERVIEW ASSOCIATES	11580	48620	0	48620	0	0	0	0	0	0	2	3	5.0	60	60	115.92	99.92	114.0	84.0	 	3	N	5	2	250650.0	1758600.0	0.0	0.0	1926	1982	0	 	 	4.2	6.02	0.0	6.5	1	1020010050.0	0	022302	996162	238242	5c	 	111S011	10707	 	0.0	 	1	16V2	0	440.872311714	12128.0899543
35756	<geoprocessing describe geometry object object at 0x0F02D960>	MN	1969	78	109	 213.03	2000	05	7	10027	E037	26	1100	1	09	2B	498 WEST 130 STREET	R7A	 	 	 	C1-4	 	 	 	 	 	N	V1	11	0	P	130 LENOX, INC.	1246	0	0	0	0	0	0	0	0	0	4	0	0.0	0	0	25.0	49.83	0.0	0.0	 	0	N	5	5	122400.0	122400.0	0.0	0.0	0	0	0	 	 	0.0	4.0	0.0	4.0	1	1019690078.0	0	021303	996925	236361	6a	 	107N096	10707	 	0.0	 	1	16V2	0	151.992902306	1306.91854445
35758	<geoprocessing describe geometry object object at 0x0F02D3A0>	MN	1984	1	109	 219	3003	05	7	10027	E037	26	1100	1	09	2A	1470 AMSTERDAM AVENUE	R7-2	 	 	 	C1-4	C2-4	 	 	 	 	Y	D3	03	0	O	NYC HOUSING AUTHORITY	534775	1291359	0	1291359	0	0	0	0	0	0	2	6	20.0	1272	1272	754.5	419.67	0.0	0.0	 	0	Y	3	5	5804550.0	34573950.0	5804550.0	34573950.0	1959	1960	0	 	 	2.41	3.44	0.0	6.5	1	1019840001.0	0	0219	996291	236763	6a	Y	111S003	10707	 	0.0	 	1	16V2	0	4030.14918145	530334.884732
35759	<geoprocessing describe geometry object object at 0x0F02D3A0>	MN	2086	47	109	 223.01	3000	06	7	10031	E080	30	900	1	09	2A	630 WEST 138 STREET	R6A	 	 	 	 	 	 	 	 	 	N	C0	02	0	P	GWINN LOVELYNN C	1399	1932	0	1932	0	0	0	0	0	0	2	1	3.0	3	3	14.0	99.92	14.0	46.0	E	3	N	5	2	9743.0	34588.0	0.0	2484.0	1900	1999	0	 	 	1.38	3.0	0.0	3.0	1	1020860047.0	0	022301	996671	238895	6a	 	111S020	10710	 	0.0	 	1	16V2	0	232.051707745	1388.74982331
35761	<geoprocessing describe geometry object object at 0x0F02D3A0>	MN	1988	103	109	 223.01	2002	06	7	10031	E080	30	900	1	09	2B	1520 AMSTERDAM AVENUE	R7A	 	 	 	C1-4	 	 	 	 	 	N	C7	04	0	 	YASMEH REALTY LLC C/O	3992	19329	3100	16229	0	3100	0	0	0	0	2	1	6.0	22	27	39.92	100.0	40.0	98.0	E	3	N	3	1	90000.0	1002150.0	0.0	0.0	1905	1986	0	 	 	4.84	4.0	0.0	4.0	1	1019880103.0	0	022301	997416	237736	6a	 	111S021	10707	 	0.0	 	1	16V2	0	285.418642411	4301.89304724
35762	<geoprocessing describe geometry object object at 0x0F02D7A0>	MN	1953	56	109	 213.03	4002	05	9	10027	E037	26	1100	1	09	2B	366 WEST 127 STREET	R7A	 	 	 	 	 	 	 	 	 	N	C1	02	0	P	ECDO HOUSES ASSOCIATE	2498	9735	0	9735	0	0	0	0	0	0	2	1	5.0	8	8	25.0	99.92	25.0	84.0	 	3	N	5	2	350735.0	487088.0	350735.0	487088.0	1920	2000	0	 	 	3.9	4.0	0.0	4.0	1	1019530056.0	0	021303	997389	235184	6a	 	107N097	10706	 	0.0	 	1	16V2	0	256.278161896	2586.71018895
35763	<geoprocessing describe geometry object object at 0x0F02D7A0>	MN	1984	28	109	 219	3001	05	7	10027	E037	26	1100	1	09	2B	1440 AMSTERDAM AVENUE	R7-2	 	 	 	C1-4	 	 	 	 	 	N	V1	11	0	 	LEFKAS REALTY	12490	0	0	0	0	0	0	0	0	0	4	0	0.0	0	0	99.92	125.0	0.0	0.0	 	0	N	5	5	1293750.0	1293750.0	0.0	0.0	0	0	0	 	 	0.0	3.44	0.0	6.5	1	1019840028.0	0	0219	996898	236826	6a	 	111S003	10707	 	0.0	 	1	16V2	0	454.690900241	12735.3855444
35764	<geoprocessing describe geometry object object at 0x0F02DF80>	MN	2002	101	109	 223.01	4000	06	7	10031	E080	30	900	1	09	2A	589 RIVERSIDE DRIVE	R8	 	 	 	 	 	 	 	 	 	N	D1	03	0	P	587 RIVERSIDE ASSOCIA	8493	55320	0	55320	0	0	0	0	0	0	2	1	6.0	41	41	102.42	132.0	100.0	116.0	 	2	Y	3	2	191250.0	1253250.0	0.0	0.0	1926	1987	0	 	 	6.51	6.02	0.0	6.5	1	1020020101.0	0	022301	996246	238538	5c	Y	111S020	10707	 	0.0	 	1	16V2	0	459.489937065	12939.7040887
35765	<geoprocessing describe geometry object object at 0x0F02DF80>	MN	1988	24	109	 223.01	1000	05	7	10031	E080	30	900	1	09	2B	509 WEST 134 STREET	R7A	 	 	 	 	 	 	 	 	 	N	C1	02	0	P	DELA REALTY CO INC	3922	13040	0	13040	0	0	0	0	0	0	2	1	5.0	19	19	39.25	99.92	39.0	85.0	 	3	N	5	2	31500.0	405000.0	0.0	0.0	1905	1987	0	 	 	3.32	4.0	0.0	4.0	1	1019880024.0	0	022301	997157	237574	6a	 	111S021	10707	 	0.0	 	1	16V2	0	289.628378964	4150.12093991
35766	<geoprocessing describe geometry object object at 0x0F02DF80>	MN	2002	40	109	 223.01	3006	06	7	10031	E080	30	900	1	09	2A	611 WEST 136 STREET	R8	 	 	 	 	 	 	 	 	 	N	C6	02	0	P	611 W 136 STREET HOUS	5396	19270	0	19270	0	0	0	0	0	0	2	1	5.0	20	20	54.0	99.92	54.0	88.0	 	3	N	5	2	41400.0	656550.0	41400.0	463170.0	1905	1988	0	 	 	3.57	6.02	0.0	6.5	1	1020020040.0	0	022301	996632	238502	6a	 	111S020	10707	 	0.0	 	1	16V2	0	312.94545826	5524.24234366
35767	<geoprocessing describe geometry object object at 0x0F02DA80>	MN	1988	165	109	 223.01	2001	06	7	10031	E080	30	900	1	09	2A	        BROADWAY	PARK	 	 	 	 	 	 	 	 	 	N	Q1	09	0	C	PARKS AND RECREATION	14750	0	0	0	0	0	0	0	0	0	7	0	0.0	0	0	259.83	113.5	0.0	0.0	 	0	Y	1	5	517950.0	517950.0	517950.0	517950.0	0	0	0	 	 	0.0	0.0	0.0	0.0	1	1019880165.0	0	022301	997112	238607	6a	 	111S021	10707	 	0.0	 	1	16V2	0	660.806491888	15305.0715903
35768	<geoprocessing describe geometry object object at 0x0F02DA80>	MN	1982	5	109	 219	1015	05	7	10027	E037	26	1100	1	09	2B	543 WEST 125 STREET	R7A	 	 	 	C2-4	 	125	 	 	 	N	D7	04	0	 	CHOSEN RLTY CORP	6800	29436	2000	27436	0	2000	0	0	0	0	2	1	6.0	43	47	72.0	100.0	72.0	82.0	 	3	Y	5	2	97200.0	1017000.0	0.0	0.0	1926	1989	0	 	 	4.33	4.0	0.0	4.0	1	1019820005.0	0	0219	996101	236171	5c	 	107N093	10707	 	0.0	 	1	16V2	0	342.382658795	6997.86994282
35770	<geoprocessing describe geometry object object at 0x0F02DA80>	MN	1969	68	109	 213.03	2000	05	7	10027	E037	26	1100	1	09	2B	        CONVENT AVENUE	R7A	 	 	 	 	 	 	 	 	 	N	V1	11	0	P	52 CONVENT LLC	3902	0	0	0	0	0	0	0	0	0	4	0	0.0	0	0	26.67	146.33	0.0	0.0	 	0	Y	3	5	372150.0	372150.0	0.0	0.0	0	0	0	 	 	0.0	4.0	0.0	4.0	1	1019690068.0	0	021303	997163	236244	6a	 	107N096	10707	E-239	0.0	 	1	16V2	0	460.68281679	5042.16407138
35771	<geoprocessing describe geometry object object at 0x0F02DA80>	MN	1988	42	109	 223.01	1000	05	7	10031	E080	30	900	1	09	2B	508 WEST 135 STREET	R7A	 	 	 	 	 	 	 	 	 	N	C6	02	0	P	RIVER VIEW HOUSING DE	4580	19056	0	19056	0	0	0	0	0	0	2	1	6.0	24	24	45.83	99.92	46.0	85.0	 	3	N	5	2	67050.0	791100.0	67050.0	791100.0	1910	0	0	 	 	4.16	4.0	0.0	4.0	1	1019880042.0	0	022301	997153	237694	6a	 	111S021	10707	 	0.0	 	1	16V2	0	291.261785464	4600.63141302
35773	<geoprocessing describe geometry object object at 0x0F02D5E0>	MN	1982	68	109	 219	1014	05	7	10027	E037	26	1100	1	09	2B	550 WEST 126 STREET	R7A	 	 	 	C2-4	 	125	 	 	 	N	S9	04	0	P	SUGAR BRICKS REALTY	2850	5270	2500	2770	0	2500	0	0	0	0	2	1	2.0	4	9	25.08	115.0	25.08	104.0	E	0	Y	3	2	15790.0	96577.0	0.0	0.0	1910	0	0	 	 	1.85	4.0	0.0	4.0	1	1019820068.0	0	0219	996084	236454	5c	 	107N094	10707	 	0.0	 	1	16V2	0	290.392336899	3226.76455019
35774	<geoprocessing describe geometry object object at 0x0F02D5E0>	MN	1988	86	109	 223.01	2002	06	7	10031	E080	30	900	1	09	2B	523 WEST 135 STREET	R7A	 	 	 	 	 	 	 	 	 	N	C1	02	0	P	523 WEST 135TH STREET	3997	13170	0	13170	0	0	0	0	0	0	2	1	5.0	20	20	40.0	99.92	40.0	86.0	 	3	N	5	2	32400.0	619200.0	0.0	0.0	1910	0	0	 	 	3.29	4.0	0.0	4.0	1	1019880086.0	0	022301	997055	237971	6a	 	111S021	10707	 	0.0	 	1	16V2	0	288.742845146	4215.63747206
35776	<geoprocessing describe geometry object object at 0x0F02D5E0>	MN	1967	16	109	 213.03	2003	05	7	10027	E037	26	1100	1	09	2B	411 WEST 126 STREET	M1-5/R7-2	 	 	 	 	 	MX-15	 	 	 	N	M1	08	0	P	DE LA FE, TABERNACULO	4150	4134	4134	0	0	0	0	0	0	4134	2	1	1.0	0	1	56.33	95.67	56.0	96.0	 	2	Y	5	2	75150.0	214650.0	75150.0	214650.0	1930	1988	0	 	 	1.0	4.0	5.0	6.5	1	1019670016.0	0	021303	996986	235299	6a	 	107N095	10707	 	0.0	 	1	16V2	0	284.680163159	4559.63059559
35777	<geoprocessing describe geometry object object at 0x0F02D460>	MN	1998	1	109	 219	1008	05	7	10027	E080	26	1100	1	09	2A	2301 JOE DIMAGGIO HIGHWAY	C6-1	 	 	 	 	 	MMU	 	 	 	N	V1	11	0	X	THE TRUSTEES OF COLUM	3000	0	0	0	0	0	0	0	0	0	4	0	0.0	0	0	30.0	100.0	0.0	0.0	 	0	N	3	5	53730.0	53730.0	53730.0	53730.0	0	0	0	 	 	0.0	3.44	6.0	6.5	1	1019980001.0	0	0219	995489	237567	5c	 	111S002	10707	R-145	0.0	 	1	16V2	0	276.232829273	3189.01246783
35778	<geoprocessing describe geometry object object at 0x0F02D460>	MN	1982	22	109	 219	1015	05	7	10027	E037	26	1100	1	09	2B	507 WEST 125 STREET	R7A	 	 	 	C2-4	 	125	 	 	 	N	K2	05	0	 	PARDAN REALTY COMPANY	4150	11598	11598	0	7448	4150	0	0	0	0	2	1	3.0	0	3	40.83	100.0	41.0	100.0	 	3	Y	5	2	67950.0	563400.0	0.0	0.0	1940	0	0	 	 	2.79	4.0	0.0	4.0	1	1019820022.0	0	0219	996340	235813	6a	 	107N093	10707	 	0.0	 	1	16V2	0	292.599909744	4358.8977517
35779	<geoprocessing describe geometry object object at 0x0F02D460>	MN	1970	67	109	 213.03	1001	05	9	10027	E080	26	1100	1	09	2B	1465 AMSTERDAM AVENUE	R7A	 	 	 	C1-4	 	 	 	 	 	N	C7	04	0	 	SASOUNESS NASIR	2500	9710	800	8910	0	800	0	0	0	0	2	1	5.0	14	15	25.0	100.0	25.0	86.0	 	2	N	5	2	25650.0	278100.0	0.0	0.0	1910	0	0	 	 	3.88	4.0	0.0	4.0	1	1019700067.0	0	021303	997201	236939	6a	 	111S004	10707	 	0.0	 	1	16V2	0	259.291410869	2500.4904859
35780	<geoprocessing describe geometry object object at 0x0F02DB40>	MN	1968	27	109	 213.03	2001	05	7	10027	E037	26	1100	1	09	2B	36 CONVENT AVENUE	R7A	 	 	 	 	 	 	 	 	 	N	C6	02	0	P	36 CONVENT AVE HDFC	4600	16160	0	16160	0	0	0	0	0	0	2	1	5.0	25	25	24.0	114.0	24.0	89.0	 	2	Y	3	2	55350.0	535050.0	55350.0	290399.0	1926	1994	0	 	 	3.51	4.0	0.0	4.0	1	1019680027.0	0	021303	997148	235944	6a	 	107N096	10707	 	0.0	 	1	16V2	0	299.316864615	4522.01216885
35781	<geoprocessing describe geometry object object at 0x0F02DB40>	MN	1953	2	109	 213.03	4002	05	9	10027	E037	26	1100	1	09	2B	163 MORNINGSIDE AVENUE	R7A	 	 	 	 	 	 	 	 	 	N	C1	02	0	P	161-171 MORNINGSIDE L	1875	7476	0	7476	0	0	0	0	0	0	2	1	5.0	10	10	25.0	75.0	25.0	60.0	 	0	N	5	5	117242.0	374239.0	0.0	256997.0	1901	1990	0	 	 	3.99	4.0	0.0	4.0	1	1019530002.0	0	021303	997200	235158	6a	 	107N097	10706	 	0.0	 	1	16V2	0	198.08901371	1795.01354548
35784	<geoprocessing describe geometry object object at 0x0F02DB40>	MN	1988	33	109	 223.01	1000	05	7	10031	E080	30	900	1	09	2B	1508 AMSTERDAM AVENUE	R7A	 	 	 	C1-4	 	 	 	 	 	N	C7	04	0	P	1508-10 AMSTERDAM AVE	3983	16200	1800	14400	0	1800	0	0	0	0	2	1	6.0	22	24	39.83	100.0	40.0	85.0	 	3	N	5	2	54450.0	639450.0	0.0	0.0	1905	1987	0	 	 	4.07	4.0	0.0	4.0	1	1019880033.0	0	022301	997311	237545	6a	 	111S021	10707	 	0.0	 	1	16V2	0	277.278030753	3936.69467343
35785	<geoprocessing describe geometry object object at 0x0F02D900>	MN	1982	38	109	 219	1015	05	7	10027	E037	26	1100	1	09	2B	518 WEST 126 STREET	R7A	 	 	 	C2-4	 	125	 	 	 	N	Y2	08	0	C	POLICE DEPARTMENT	22500	36856	36856	0	0	0	20000	0	0	16856	2	2	2.0	0	2	225.0	100.0	90.0	100.0	 	0	N	5	0	723600.0	3412350.0	723600.0	3412350.0	1969	1997	0	 	 	1.64	4.0	0.0	4.0	1	1019820038.0	0	0219	996241	236149	5c	Y	107N093	10707	 	0.0	 	1	16V2	0	656.957878425	23212.5306954
35786	<geoprocessing describe geometry object object at 0x0F02D900>	MN	1988	10	109	 223.01	1000	05	7	10031	E080	30	900	1	09	2B	525 WEST 134 STREET	R7A	 	 	 	 	 	 	 	 	 	N	C1	02	0	P	525 WEST 134TH STREET	4796	16960	0	16960	0	0	0	0	0	0	2	1	5.0	25	25	48.0	99.92	40.0	82.0	 	2	N	5	1	67050.0	716850.0	67050.0	472175.0	1910	1987	2005	 	 	3.54	4.0	0.0	4.0	1	1019880010.0	0	022301	996855	237741	6a	 	111S021	10707	 	0.0	 	1	16V2	0	305.852686249	5005.63930433
35787	<geoprocessing describe geometry object object at 0x0F02D900>	MN	1953	64	109	 213.03	4002	05	9	10027	E037	26	1100	1	09	2B	169 MORNINGSIDE AVENUE	R7A	 	 	 	 	 	 	 	 	 	N	C1	02	0	P	161-171 MORNINGSIDE L	2500	7900	0	7900	0	0	0	0	0	0	2	1	5.0	10	10	25.0	100.0	25.0	65.0	 	0	N	5	5	137962.0	395234.0	0.0	257272.0	1901	1990	0	 	 	3.16	4.0	0.0	4.0	1	1019530064.0	0	021303	997247	235217	6a	 	107N097	10706	 	0.0	 	1	16V2	0	252.092011317	2505.52057396
35789	<geoprocessing describe geometry object object at 0x0F02DAE0>	MN	1982	10	109	 219	1015	05	7	10027	E037	26	1100	1	09	2B	527 WEST 125 STREET	R7A	 	 	 	C2-4	 	125	 	 	 	N	W9	08	0	P	OUR CHILDRENS FNDTNIN	10250	33972	33972	0	0	0	0	0	0	33972	2	1	3.0	0	1	101.58	100.0	92.0	50.0	E	0	Y	5	2	253350.0	1010250.0	253350.0	1010250.0	1905	1985	1996	 	 	3.31	4.0	0.0	4.0	1	1019820010.0	0	0219	996191	236037	5c	 	107N093	10707	 	0.0	 	1	16V2	0	411.928886551	10604.1727494
35790	<geoprocessing describe geometry object object at 0x0F02DAE0>	MN	1996	1	109	 219	1011	05	7	10027	E047	26	1100	1	09	2A	656 WEST 125 STREET	C6-1	 	 	 	 	 	MMU	 	 	 	N	K1	05	0	P	RODSA REALTY CORP	6300	3283	3283	0	0	3283	0	0	0	0	2	1	1.0	0	1	160.0	78.92	80.0	48.92	 	1	Y	1	2	80550.0	551700.0	0.0	0.0	1920	0	0	 	 	0.52	3.44	6.0	6.5	1	1019960001.0	0	0219	995249	237115	5c	 	107N092	10707	E-188	0.0	 	1	16V2	0	425.793264756	6587.24330828
35794	<geoprocessing describe geometry object object at 0x0F02DAE0>	MN	1969	79	109	 213.03	2000	05	7	10027	E037	26	1100	1	09	2B	1417 AMSTERDAM AVENUE	R7A	 	 	 	C1-4	 	 	 	 	 	N	B1	01	0	 	MACKLIN, CARMEL	1863	3400	0	3400	0	0	0	0	0	0	2	1	3.0	2	2	24.83	75.0	25.0	45.0	 	2	N	3	1	23998.0	56664.0	0.0	18627.0	1910	2004	0	 	 	1.83	4.0	0.0	4.0	1	1019690079.0	0	021303	996885	236396	6a	 	107N096	10707	 	0.0	 	1	16V2	0	208.220173846	2051.54817571
35795	<geoprocessing describe geometry object object at 0x0F02DAE0>	MN	1987	51	109	 219	2000	05	7	10031	E080	30	1100	1	09	2B	522 WEST 134 STREET	R7A	 	 	 	 	 	 	 	 	 	N	C1	02	0	P	MIRON PLAZA LLC	4371	15150	0	15150	0	0	0	0	0	0	2	1	5.0	24	24	43.75	99.92	37.0	87.0	 	3	N	5	1	35100.0	540450.0	0.0	0.0	1905	1987	0	 	 	3.47	4.0	0.0	4.0	1	1019870051.0	0	0219	996814	237582	6a	 	111S012	10707	 	0.0	 	1	16V2	0	292.816955478	4485.7168419
35798	<geoprocessing describe geometry object object at 0x0F02D080>	MN	2004	171	109	 219	1007	05	7	10027	E080	26	1100	1	09	2A	        WEST 132 STREET	M1-2	 	 	 	 	 	MMU	 	 	 	N	G7	10	0	P	2290 12TH AVENUE    .	975	0	0	0	0	0	0	0	0	0	7	0	0.0	0	0	14.08	75.58	0.0	0.0	 	0	Y	6	5	37800.0	37800.0	0.0	0.0	0	0	0	 	 	0.0	0.0	2.0	4.8	1	1020040171.0	0	0219	995309	237736	5c	 	107N105	10707	 	0.0	 	1	16V2	0	178.159855635	994.564990182
35801	<geoprocessing describe geometry object object at 0x0F02D080>	MN	1988	50	109	 223.01	1000	05	7	10031	E080	30	900	1	09	2B	516 WEST 135 STREET	R7A	 	 	 	 	 	 	 	 	 	N	C1	02	0	 	COLUMBIA HEIGHTS NEIG	4246	16614	0	16614	0	0	0	0	0	0	2	1	6.0	24	24	42.5	99.92	43.0	85.0	 	3	N	5	2	66600.0	666000.0	0.0	0.0	1910	1988	0	 	 	3.91	4.0	0.0	4.0	1	1019880050.0	0	022301	996996	237780	6a	 	111S021	10707	 	0.0	 	1	16V2	0	284.124765629	4246.25679223
35802	<geoprocessing describe geometry object object at 0x0F02D7A0>	MN	1988	94	109	 223.01	2002	06	7	10031	E080	30	900	1	09	2B	513 WEST 135 STREET	R7A	 	 	 	 	 	 	 	 	 	N	C6	02	0	P	513-517 W 135TH ST HO	3997	13170	0	13170	0	0	0	0	0	0	2	1	5.0	20	20	40.0	99.92	40.0	86.0	 	3	N	5	2	35100.0	436950.0	1028.0	375878.0	1910	1987	0	 	 	3.29	4.0	0.0	4.0	1	1019880094.0	0	022301	997230	237874	6a	 	111S021	10707	 	0.0	 	1	16V2	0	290.995187456	4332.45430234
35803	<geoprocessing describe geometry object object at 0x0F02DAC0>	MN	1967	76	109	 213.03	2002	05	7	10027	E037	26	1100	1	09	2B	14 CONVENT AVENUE	R7A	 	 	 	 	 	 	 	 	 	N	C5	02	0	 	SHANGHAI HOLDINGS, LL	901	1850	0	1850	0	0	0	0	0	0	2	1	3.0	10	10	20.08	55.92	20.0	38.0	 	2	Y	3	1	5552.0	33930.0	0.0	0.0	1926	0	0	 	 	2.05	4.0	0.0	4.0	1	1019670076.0	0	021303	997169	235561	6a	 	107N095	10707	 	0.0	 	1	16V2	0	152.465735019	1048.64003745
35804	<geoprocessing describe geometry object object at 0x0F02DAC0>	MN	1967	75	109	 213.03	2002	05	7	10027	E037	26	1100	1	09	2B	12 CONVENT AVENUE	R7A	 	 	 	 	 	 	 	 	 	N	B1	01	0	 	DACOSTA, DANIELLE	940	2400	0	2400	0	0	0	0	0	0	2	1	3.0	2	2	20.08	50.0	20.08	40.0	 	3	Y	5	2	16749.0	46351.0	1550.0	1550.0	1900	2008	0	 	 	2.55	4.0	0.0	4.0	1	1019670075.0	0	021303	997170	235539	6a	 	107N095	10707	 	0.0	 	1	16V2	0	139.783445267	891.163962046
35805	<geoprocessing describe geometry object object at 0x0F02DA60>	MN	1969	104	109	 213.03	2000	05	7	10027	E037	26	1100	1	09	2B	        AMSTERDAM AVENUE	R7A	 	 	 	C1-4	 	 	 	 	 	N	V1	11	0	P	AMSTERDAM CONVENT REA	342	0	0	0	0	0	0	0	0	0	4	0	0.0	0	0	19.08	36.17	0.0	0.0	 	0	Y	6	5	459.0	459.0	0.0	0.0	0	0	0	 	 	0.0	4.0	0.0	4.0	1	1019690104.0	0	021303	996885	236287	6a	 	107N096	10707	 	0.0	 	1	16V2	0	101.612606308	373.312884983
35806	<geoprocessing describe geometry object object at 0x0F02DA80>	MN	2086	37	109	 223.01	3000	06	7	10031	E080	30	900	1	09	2A	602 WEST 138 STREET	R6A	 	 	 	 	 	 	 	 	 	N	C3	02	0	P	LEE, MIA	1665	2682	0	2682	0	0	0	0	0	0	2	1	3.0	4	4	16.67	99.92	17.0	56.0	 	2	N	5	5	39509.0	64261.0	0.0	0.0	1910	0	0	 	 	1.61	3.0	0.0	3.0	1	1020860037.0	0	022301	996872	238783	6a	 	111S020	10710	 	0.0	 	1	16V2	0	236.131304441	1597.76605169
35807	<geoprocessing describe geometry object object at 0x0F02DA80>	MN	1988	25	109	 223.01	1000	05	7	10031	E080	30	900	1	09	2B	507 WEST 134 STREET	R7A	 	 	 	 	 	 	 	 	 	N	C1	02	0	P	CRP 507 WEST 134TH LL	3922	13040	0	13040	0	0	0	0	0	0	2	1	5.0	20	20	39.25	99.92	39.0	87.0	 	3	N	5	2	31500.0	405000.0	0.0	0.0	1905	0	0	 	 	3.32	4.0	0.0	4.0	1	1019880025.0	0	022301	997191	237555	6a	 	111S021	10707	 	0.0	 	1	16V2	0	289.771936543	4157.70950428
35811	<geoprocessing describe geometry object object at 0x0F02D920>	MN	2001	60	109	 223.02	1000	05	7	10031	E080	30	900	1	09	2Q	575 RIVERSIDE DRIVE	C6-2	R8	 	 	 	 	MMU	 	 	 	Y	D4	03	0	 	575 RIVERHOUSE CORP.	11500	50388	0	50388	0	0	0	0	0	0	2	1	6.0	42	42	170.67	24.33	155.0	78.0	 	2	Y	3	2	193950.0	1137150.0	18880.0	18880.0	1926	1987	0	 	 	4.38	6.02	6.0	6.5	1	1020010060.0	0	022302	995943	238318	5c	 	111S011	10707	 	0.0	 	1	16V2	0	485.967307143	12187.8134736
35813	<geoprocessing describe geometry object object at 0x0F02D040>	MN	1988	14	109	 223.01	1000	05	7	10031	E080	30	900	1	09	2B	521 WEST 134 STREET	R7A	 	 	 	 	 	 	 	 	 	N	V1	11	0	P	WEST ONE TWELVE HOLDI	4796	0	0	0	0	0	0	0	0	0	4	0	0.0	0	0	48.0	99.92	0.0	0.0	 	0	N	5	5	457650.0	457650.0	457650.0	457650.0	0	0	0	 	 	0.0	4.0	0.0	4.0	1	1019880014.0	0	022301	996939	237695	6a	 	111S021	10707	E-284	0.0	 	1	16V2	0	305.571323653	4990.79172035
35816	<geoprocessing describe geometry object object at 0x0F02D040>	MN	1953	55	109	 213.03	4002	05	9	10027	E037	26	1100	1	09	2B	364 WEST 127 STREET	R7A	 	 	 	 	 	 	 	 	 	N	C4	02	0	P	ECDO HOUSES ASSOCIATE	2498	9865	0	9865	0	0	0	0	0	0	2	1	5.0	10	10	25.0	99.92	25.0	84.0	 	3	N	5	2	354748.0	493912.0	354748.0	493912.0	1910	2000	0	 	 	3.95	4.0	0.0	4.0	1	1019530055.0	0	021303	997411	235171	6a	 	107N097	10706	 	0.0	 	1	16V2	0	257.580502382	2653.8119117
35817	<geoprocessing describe geometry object object at 0x0F02D900>	MN	1982	14	109	 219	1015	05	7	10027	E037	26	1100	1	09	2B	525 WEST 125 STREET	R7A	 	 	 	C2-4	 	125	 	 	 	N	L9	06	0	 	GARRETT REALTY CORP.	2362	6469	6469	0	0	6469	0	0	0	0	2	1	3.0	0	1	23.17	100.0	23.0	100.0	 	3	Y	5	2	47250.0	112950.0	0.0	0.0	1930	0	0	 	 	2.74	4.0	0.0	4.0	1	1019820014.0	0	0219	996225	235985	5c	 	107N093	10707	 	0.0	 	1	16V2	0	251.824173944	2270.11702675
35818	<geoprocessing describe geometry object object at 0x0F02D900>	MN	2002	2	109	 223.01	4000	06	7	10031	E080	30	900	1	09	2A	583 RIVERSIDE DRIVE	R8	 	 	 	 	 	 	 	 	 	N	D1	03	0	P	583 RIVERSIDE DRIVE,L	11350	67350	0	67350	0	0	0	0	0	0	2	1	6.0	70	70	102.42	125.0	86.0	110.0	 	2	Y	3	2	231750.0	1575000.0	231750.0	1575000.0	1930	1987	2001	 	 	5.93	6.02	0.0	6.5	1	1020020002.0	0	022301	996171	238459	5c	 	111S020	10707	 	0.0	 	1	16V2	0	456.187841335	12842.6381307
35820	<geoprocessing describe geometry object object at 0x0F02D580>	MN	1986	30	109	 219	2002	05	7	10027	E080	26	1100	1	09	2A	3270 BROADWAY	C6-1	 	 	 	 	 	MMU	 	 	 	N	O1	05	0	 	THE TRUSTEES OF COLUM	33542	6400	6400	0	6400	0	0	0	0	0	2	2	1.0	0	2	159.83	234.0	55.0	99.83	 	0	Y	5	5	603900.0	783000.0	0.0	0.0	1965	2008	0	 	 	0.19	3.44	6.0	6.5	1	1019860030.0	0	0219	996428	237232	6a	 	111S003	10707	R-146	0.0	 	1	16V2	0	747.145993282	33493.8402054
35821	<geoprocessing describe geometry object object at 0x0F02D580>	MN	1968	56	109	 213.03	3001	05	9	10027	E037	26	1100	1	09	2B	33 CONVENT AVENUE	R7A	 	 	 	 	 	 	 	 	 	N	C6	02	0	P	29-33 CONVENT AVENUE	4640	19255	800	18455	0	800	0	0	0	0	2	1	5.0	24	25	58.67	113.67	50.0	101.0	 	3	Y	3	1	81000.0	796050.0	81000.0	521360.0	1910	1988	1994	 	 	4.15	4.0	0.0	4.0	1	1019680056.0	0	021303	997316	235850	6a	 	107N096	10707	 	0.0	 	1	16V2	0	321.292327478	5200.42545194
35822	<geoprocessing describe geometry object object at 0x0F02D580>	MN	1987	46	109	 219	2000	05	7	10031	E080	30	1100	1	09	2B	516 WEST 134 STREET	R7A	 	 	 	 	 	 	 	 	 	N	C1	02	0	P	M133D LLC	4296	15150	0	15150	0	0	0	0	0	0	2	1	5.0	23	23	43.0	99.92	43.0	85.0	 	2	N	5	2	50850.0	391950.0	0.0	0.0	1915	1989	0	 	 	3.53	4.0	0.0	4.0	1	1019870046.0	0	0219	996928	237519	6a	 	111S012	10707	 	0.0	 	1	16V2	0	291.095719074	4397.26750006
35823	<geoprocessing describe geometry object object at 0x0F02D3A0>	MN	1970	69	109	 213.03	1001	05	9	10027	E080	26	1100	1	09	2B	1461 AMSTERDAM AVENUE	R7A	 	 	 	C1-4	 	 	 	 	 	N	C7	04	0	P	1461 AMSTERDAM AVENUE	2500	9720	1000	8720	0	1000	0	0	0	0	2	1	5.0	18	19	25.0	100.0	25.0	86.0	 	3	N	5	2	25650.0	513900.0	0.0	0.0	1910	0	0	 	 	3.89	4.0	0.0	4.0	1	1019700069.0	0	021303	997177	236895	6a	 	111S004	10707	 	0.0	 	1	16V2	0	258.456178361	2456.19320325
35824	<geoprocessing describe geometry object object at 0x0F02D3A0>	MN	1969	1	109	 213.03	2000	05	7	10027	E037	26	1100	1	09	2B	1403 AMSTERDAM AVENUE	R7A	 	 	 	C1-4	 	 	 	 	 	N	C7	04	0	P	AMSTERDAM CONVENT REA	9644	39057	6850	32207	0	6850	0	0	0	0	2	4	5.0	46	54	96.08	100.0	25.0	95.0	 	2	Y	3	2	64800.0	534600.0	0.0	469800.0	1910	1985	1988	 	 	4.05	4.0	0.0	4.0	1	1019690001.0	0	021303	996826	236265	6a	 	107N096	10707	 	1019690001.0	03/03/2005	1	16V2	0	401.834104248	10625.0126683
35826	<geoprocessing describe geometry object object at 0x0F02D3A0>	MN	1954	55	109	 213.03	4001	05	9	10027	E037	26	1100	1	09	2B	410 WEST 128 STREET	R7A	 	 	 	 	 	 	 	 	 	N	C4	02	0	C	HOUSING PRESERVATION	12490	43955	0	43955	0	0	0	0	0	0	2	1	5.0	53	53	125.0	99.92	125.0	86.0	 	3	N	5	2	281250.0	1274400.0	281250.0	1274400.0	1910	0	0	 	 	3.52	4.0	0.0	4.0	1	1019540055.0	0	021303	997371	235493	6a	 	107N097	10706	 	0.0	 	1	16V2	0	448.76263952	12412.7392141
35827	<geoprocessing describe geometry object object at 0x0F02D400>	MN	2004	65	109	 219	1007	05	7	10027	E080	26	1100	1	09	2A	2298 12 AVENUE	M1-2	 	 	 	 	 	MMU	 	 	 	N	G7	10	1	P	2290 12TH AVENUE    ,	20775	0	0	0	0	0	0	0	0	0	7	0	0.0	0	0	200.58	112.4	0.0	0.0	 	0	Y	5	5	804600.0	804600.0	0.0	0.0	0	0	0	 	 	0.0	0.0	2.0	4.8	1	1020040065.0	0	0219	0	0	5c	 	111S001	10707	 	0.0	 	1	16V2	0	639.777703833	20239.6641738
35828	<geoprocessing describe geometry object object at 0x0F02D400>	MN	1953	8	109	 213.03	4002	05	9	10027	E037	26	1100	1	09	2B	365 WEST 126 STREET	R7A	 	 	 	 	 	 	 	 	 	N	C4	02	0	P	YORICK CORPORATION IN	2498	8875	0	8875	0	0	0	0	0	0	2	1	5.0	11	11	25.0	99.92	25.0	68.0	 	3	N	5	2	56250.0	346950.0	0.0	0.0	1901	1993	0	 	 	3.55	4.0	0.0	4.0	1	1019530008.0	0	021303	997339	235094	6a	 	107N097	10706	 	0.0	 	1	16V2	0	253.517186321	2552.04063998
35829	<geoprocessing describe geometry object object at 0x0F02D400>	MN	2002	17	109	 223.01	4000	06	7	10031	E080	30	900	1	09	2A	621 WEST 135 STREET	R8	 	 	 	 	 	 	 	 	 	N	C1	02	0	 	DEENA REALTY CORP	5254	18905	0	18905	0	0	0	0	0	0	2	1	5.0	20	20	52.58	99.92	53.0	83.0	 	3	N	5	2	40050.0	683550.0	0.0	0.0	1905	0	0	 	 	3.6	6.02	0.0	6.5	1	1020020017.0	0	022301	996357	238356	6a	 	111S020	10707	 	0.0	 	1	16V2	0	322.315103334	5685.02655592
35832	<geoprocessing describe geometry object object at 0x0F02DB40>	MN	1983	11	109	 219	4002	05	7	10027	E037	26	1100	1	09	2B	521 WEST 126 STREET	R7-2	 	 	 	 	 	 	 	 	 	N	M3	08	0	X	ST MARYS PROT EPIS CH	12391	15198	15198	0	0	0	0	0	0	15198	2	3	3.0	0	2	103.17	127.75	59.0	118.0	 	1	Y	5	2	260100.0	684000.0	260100.0	684000.0	1908	0	0	 	 ST. MARY'S PROTESTANT EPISCOPAL CH	1.23	3.44	0.0	6.5	1	1019830011.0	0	0219	996419	236196	6a	 	107N094	10707	 	0.0	 	1	16V2	0	450.72660665	12879.5864829
35833	<geoprocessing describe geometry object object at 0x0F02DB40>	MN	2004	40	109	 219	1006	05	7	10027	E080	26	1100	1	09	2A	2282 JOE DIMAGGIO HIGHWAY	M1-2	 	 	 	 	 	MMU	 	 	 	N	O2	05	0	 	CALANDRA LLC	2783	5694	5694	0	5694	0	0	0	0	0	2	1	2.0	0	2	51.42	92.5	49.0	48.0	 	2	Y	3	2	66150.0	628650.0	0.0	0.0	1920	2005	0	 	 	2.05	0.0	2.0	4.8	1	1020040040.0	0	0219	995189	237450	5c	 	107N105	10707	 	0.0	 	1	16V2	0	251.599076393	2936.62405929
35834	<geoprocessing describe geometry object object at 0x0F02DB40>	MN	1967	10	109	 213.03	2003	05	7	10027	E037	26	1100	1	09	2B	427 WEST 126 STREET	M1-5/R7-2	 	 	 	 	 	MX-15	 	 	 	N	G6	10	0	 	126 COLUMBIA TOWER 2	2222	0	0	0	0	0	0	0	0	0	7	1	0.0	0	0	28.17	104.58	0.0	0.0	 	0	Y	5	5	76050.0	76050.0	0.0	0.0	0	0	0	 	 	0.0	4.0	5.0	6.5	1	1019670010.0	0	021303	996884	235460	6a	 	107N095	10707	E-284	0.0	 	1	16V2	0	243.823747165	2295.44987776
35835	<geoprocessing describe geometry object object at 0x0F02DB20>	MN	1988	107	109	 223.01	2002	06	7	10031	E080	30	900	1	09	2B	1532 AMSTERDAM AVENUE	R7A	 	 	 	C1-4	 	 	 	 	 	N	C7	04	0	P	15325 AMSTERDAM ASSOC	4000	16059	1800	14259	0	1800	0	0	0	0	2	1	6.0	23	25	40.0	100.0	40.0	84.0	 	3	N	5	2	82350.0	146250.0	0.0	0.0	1905	0	0	 	 	4.01	4.0	0.0	4.0	1	1019880107.0	0	022301	997476	237844	6a	 	111S021	10707	 	0.0	 	1	16V2	0	280.704833003	4067.48605695
35836	<geoprocessing describe geometry object object at 0x0F02DB20>	MN	1967	78	109	 213.03	2002	05	7	10027	E037	26	1100	1	09	2B	16 CONVENT AVENUE	R7A	M1-5/R7-2	 	 	 	 	MX-15	 	 	 	Y	G7	10	0	P	1116 COVENENT AVENUE,	7632	0	0	0	0	0	0	0	0	0	7	0	0.0	0	0	84.33	90.5	0.0	0.0	 	0	N	3	5	303300.0	303300.0	0.0	0.0	0	0	0	 	 	0.0	4.0	0.0	4.0	1	1019670078.0	0	021303	997140	235618	6a	 	107N095	10707	 	0.0	 	1	16V2	0	449.020516032	10120.7800314
35838	<geoprocessing describe geometry object object at 0x0F02DB20>	MN	1953	62	109	 213.03	4002	05	9	10027	E037	26	1100	1	09	2B	173 MORNINGSIDE AVENUE	R7A	 	 	 	 	 	 	 	 	 	N	V1	11	0	P	M&K REAL ESTATE HOLDI	1875	0	0	0	0	0	0	0	0	0	4	0	0.0	0	0	25.0	75.0	0.0	0.0	 	0	N	5	5	181800.0	181800.0	0.0	0.0	0	0	0	 	 	0.0	4.0	0.0	4.0	1	1019530062.0	0	021303	997261	235268	6a	 	107N097	10706	 	0.0	 	1	16V2	0	201.443532375	1895.548707
35839	<geoprocessing describe geometry object object at 0x0F02D080>	MN	1988	37	109	 223.01	1000	05	7	10031	E080	30	900	1	09	2B	502 WEST 135 STREET	R7A	 	 	 	 	 	 	 	 	 	N	C1	02	0	P	AMERICAN DREAM REALTY	4580	19056	0	19056	0	0	0	0	0	0	2	1	6.0	24	24	45.83	99.92	46.0	85.0	 	2	N	5	2	58050.0	315000.0	0.0	0.0	1910	0	0	 	 	4.16	4.0	0.0	4.0	1	1019880037.0	0	022301	997273	237627	6a	 	111S021	10707	 	0.0	 	1	16V2	0	291.233888568	4599.23507734
35840	<geoprocessing describe geometry object object at 0x0F02D080>	MN	1968	31	109	 213.03	3001	05	9	10027	E037	26	1100	1	09	2B	25 CONVENT AVENUE	R7A	 	 	 	 	 	 	 	 	 	N	C1	02	0	P	21-25 CONVENT AVE. RE	5150	25620	0	25620	0	0	0	0	0	0	2	1	5.0	30	30	53.17	124.42	53.0	111.0	 	3	Y	5	2	74250.0	567900.0	0.0	424800.0	1905	1997	0	 	 	4.97	4.0	0.0	4.0	1	1019680031.0	0	021303	997317	235730	6a	 	107N096	10707	 	0.0	 	1	16V2	0	329.428467726	5604.77695191
35843	<geoprocessing describe geometry object object at 0x0F02D080>	MN	1970	55	109	 213.03	1001	05	9	10027	E080	26	1100	1	09	2B	102 CONVENT AVENUE	R7A	 	 	 	 	 	 	 	 	 	N	C1	02	0	P	102 CONVENT AVE PARTN	7150	24465	0	24465	0	0	0	0	0	0	2	1	5.0	34	34	71.5	100.0	71.0	85.0	 	3	N	5	1	117000.0	1049850.0	0.0	0.0	1901	1987	0	 	 	3.42	4.0	0.0	4.0	1	1019700055.0	0	021303	997296	236893	6a	 	111S004	10707	 	0.0	 	1	16V2	0	348.576706282	7331.32803549
35844	<geoprocessing describe geometry object object at 0x0F02DAC0>	MN	1988	106	109	 223.01	2002	06	7	10031	E080	30	900	1	09	2B	1528 AMSTERDAM AVENUE	R7A	 	 	 	C1-4	 	 	 	 	 	N	C7	04	0	P	WHGA GARVEY HOUSING D	4000	16059	1500	14559	0	1500	0	0	0	0	2	1	6.0	16	17	40.0	100.0	40.0	87.0	 	3	N	5	0	31050.0	679050.0	24840.0	543240.0	1905	1989	0	 	 	4.01	4.0	0.0	4.0	1	1019880106.0	0	022301	997456	237808	6a	 	111S021	10707	 	0.0	 	1	16V2	0	280.247201308	4044.7159385
35845	<geoprocessing describe geometry object object at 0x0F02DAC0>	MN	1969	12	109	 213.03	2001	05	7	10027	E037	26	1100	1	09	2B	38 CONVENT AVENUE	R7A	 	 	 	 	 	 	 	 	 	N	E7	06	0	 	NYC SELF STORAGE CONV	21814	43225	43225	0	0	0	43225	0	0	0	2	1	2.0	0	1	54.17	251.0	54.0	251.0	 	2	Y	3	2	392850.0	1233000.0	0.0	0.0	1905	1988	0	 	 	1.98	4.0	0.0	4.0	1	1019690012.0	0	021303	997038	236158	6a	 	107N096	10707	E-239	0.0	 	1	16V2	0	842.951478608	23616.0419456
35846	<geoprocessing describe geometry object object at 0x0F02DAC0>	MN	1988	91	109	 223.01	2002	06	7	10031	E080	30	900	1	09	2B	517 WEST 135 STREET	R7A	 	 	 	 	 	 	 	 	 	N	C6	02	0	P	513-517 W 135TH ST HO	3997	13170	0	13170	0	0	0	0	0	0	2	1	5.0	21	21	40.0	99.92	40.0	86.0	 	3	N	5	2	51300.0	456750.0	0.0	300168.0	1910	1987	0	 	 	3.29	4.0	0.0	4.0	1	1019880091.0	0	022301	997160	237912	6a	 	111S021	10707	 	0.0	 	1	16V2	0	287.716970513	4162.44392711
35848	<geoprocessing describe geometry object object at 0x0F02DA80>	MN	1987	31	109	 219	2000	05	7	10031	E080	30	1100	1	09	2B	1484 AMSTERDAM AVENUE	R7A	 	 	 	C1-4	 	 	 	 	 	N	C7	04	0	 	MANHATTANVILLE APARTM	4000	15929	2500	13429	0	2500	0	0	0	0	2	1	6.0	28	30	40.0	100.0	40.0	84.0	 	3	N	5	2	82350.0	834750.0	0.0	0.0	1905	1974	0	 	 	3.98	4.0	0.0	4.0	1	1019870031.0	0	0219	997166	237282	6a	 	111S012	10707	 	0.0	 	1	16V2	0	277.645061594	3957.80436051
35849	<geoprocessing describe geometry object object at 0x0F02DA80>	MN	1982	50	109	 219	1015	05	7	10027	E037	26	1100	1	09	2B	11 OLD BROADWAY	R7A	 	 	 	C2-4	 	125	 	 	 	N	C7	04	0	P	NEW BROADWAY LLC	2850	9586	800	8786	0	800	0	0	0	0	2	1	5.0	14	15	25.08	112.0	25.0	97.0	 	3	Y	5	2	25650.0	1024650.0	0.0	0.0	1905	0	0	 	 	3.36	4.0	0.0	4.0	1	1019820050.0	0	0219	996114	236269	5c	 	107N093	10707	 	0.0	 	1	16V2	0	281.199284788	2953.91581773
35850	<geoprocessing describe geometry object object at 0x0F02DA80>	MN	1953	1	109	 213.03	4002	05	9	10027	E037	26	1100	1	09	2B	161 MORNINGSIDE AVENUE	R7A	 	 	 	 	 	 	 	 	 	N	C1	02	0	P	161-171 MORNINGSIDE L	1875	8609	0	8609	0	0	0	0	0	0	2	1	5.0	10	10	25.0	75.0	25.0	71.0	 	0	N	3	5	121761.0	325679.0	0.0	203918.0	1901	1990	0	 	 	4.59	4.0	0.0	4.0	1	1019530001.0	0	021303	997187	235136	6a	 	107N097	10706	 	0.0	 	1	16V2	0	205.040112094	2061.24523557
35851	<geoprocessing describe geometry object object at 0x0F02D040>	MN	1968	24	109	 213.03	2001	05	7	10027	E037	26	1100	1	09	2B	24 CONVENT AVENUE	R7A	 	 	 	 	 	 	 	 	 	N	C1	02	0	C	HOUSING PRESERVATION	4000	19190	0	19190	0	0	0	0	0	0	2	1	5.0	20	20	53.0	79.17	53.0	65.0	 	3	Y	5	2	31050.0	1232550.0	31050.0	1232550.0	1926	1984	0	 	 	4.8	4.0	0.0	4.0	1	1019680024.0	0	021303	997162	235803	6a	 	107N096	10707	 	0.0	 	1	16V2	0	257.671682268	4077.00741778
35852	<geoprocessing describe geometry object object at 0x0F02D040>	MN	1988	166	109	 223.01	2000	06	7	10031	E080	30	900	1	09	2B	500 WEST 138 STREET	R7A	R8	 	 	C1-4	 	 	 	 	 	Y	W1	08	0	C	DCAS/DEPARTMENT OF ED	127350	103848	103848	0	0	0	0	0	0	103848	2	2	3.0	0	1	214.92	459.67	147.0	441.0	 	0	Y	3	5	3208500.0	13384800.0	3208500.0	13384800.0	1928	1958	0	 	 	0.82	4.0	0.0	4.0	1	1019880166.0	0	022301	997242	238362	6a	 	111S021	10707	 	0.0	 	1	16V2	0	1493.87649131	127737.696278
35854	<geoprocessing describe geometry object object at 0x0F02D040>	MN	1953	60	109	 213.03	4002	05	9	10027	E037	26	1100	1	09	2B	374 WEST 127 STREET	R7A	 	 	 	 	 	 	 	 	 	N	C6	02	0	P	374 WEST 127 STREET H	1873	5910	0	5910	0	0	0	0	0	0	2	1	5.0	10	10	25.0	74.92	25.0	57.0	 	3	N	5	2	23755.0	33302.0	0.0	0.0	1920	0	0	 	 	3.16	4.0	0.0	4.0	1	1019530060.0	0	021303	997306	235244	6a	 	107N097	10706	 	0.0	 	1	16V2	0	208.308797079	2024.21350245
35855	<geoprocessing describe geometry object object at 0x0F02D900>	MN	1988	40	109	 223.01	1000	05	7	10031	E080	30	900	1	09	2B	506 WEST 135 STREET	R7A	 	 	 	 	 	 	 	 	 	N	C1	02	0	C	HOUSING PRESERVATION	4580	19056	0	19056	0	0	0	0	0	0	2	1	6.0	24	24	45.83	99.92	46.0	85.0	 	2	N	5	2	58050.0	835200.0	58050.0	835200.0	1905	1988	0	 	 	4.16	4.0	0.0	4.0	1	1019880040.0	0	022301	997193	237672	6a	 	111S021	10707	 	0.0	 	1	16V2	0	287.957504013	4436.57665868
35856	<geoprocessing describe geometry object object at 0x0F02D900>	MN	1970	60	109	 213.03	1001	05	9	10027	E080	26	1100	1	09	2B	110 CONVENT AVENUE	R7A	 	 	 	 	 	 	 	 	 	N	C7	04	0	P	110 CONVENT BCR LLC	5000	20575	700	19875	0	700	0	0	0	0	2	1	5.0	30	31	50.0	100.0	50.0	89.0	 	2	N	3	2	68850.0	948600.0	0.0	0.0	1901	0	0	 	 	4.12	4.0	0.0	4.0	1	1019700060.0	0	021303	997361	237010	6a	 	111S004	10707	 	0.0	 	1	16V2	0	313.733106691	5526.41394665
35858	<geoprocessing describe geometry object object at 0x0F02D900>	MN	1969	19	109	 213.03	2000	05	7	10027	E037	26	1100	1	09	2B	44 CONVENT AVENUE	R7A	 	 	 	 	 	 	 	 	 	N	I7	08	0	P	CONVENT AVENUE RESIDE	6579	23164	23164	0	0	0	0	0	0	23164	2	1	7.0	0	1	54.25	125.83	0.0	0.0	 	1	Y	5	0	295200.0	2731500.0	295200.0	2731500.0	2008	0	0	 	 	3.52	4.0	0.0	4.0	1	1019690019.0	0	021303	997159	236115	6a	 	107N096	10707	 	0.0	 	1	16V2	0	368.940557791	6590.64842606
35859	<geoprocessing describe geometry object object at 0x0F02D580>	MN	2086	38	109	 223.01	3000	06	7	10031	E080	30	900	1	09	2A	604 WEST 138 STREET	R6A	 	 	 	 	 	 	 	 	 	N	C1	02	0	P	REDAY, BAI SHUE	3331	6400	0	6400	0	0	0	0	0	0	2	1	4.0	8	8	33.33	99.92	33.0	50.0	 	3	N	5	2	29423.0	112906.0	0.0	0.0	1906	1987	2007	 	 	1.92	3.0	0.0	3.0	1	1020860038.0	0	022301	996851	238795	6a	 	111S020	10710	 	0.0	 	1	16V2	0	272.224989078	3447.05161999
35860	<geoprocessing describe geometry object object at 0x0F02D580>	MN	1970	64	109	 213.03	1001	05	9	10027	E080	26	1100	1	09	2B	1471 AMSTERDAM AVENUE	R7A	 	 	 	C1-4	 	 	 	 	 	N	K1	05	0	P	1471 AMSTERDAM, INC.	1875	1350	1350	0	0	1350	0	0	0	0	2	1	1.0	0	1	25.0	75.0	25.0	54.0	 	0	N	5	5	38250.0	76050.0	0.0	0.0	1905	0	0	 	 	0.72	4.0	0.0	4.0	1	1019700064.0	0	021303	997226	237011	6a	 	111S004	10707	 	0.0	 	1	16V2	0	209.525379685	2049.49658854
35861	<geoprocessing describe geometry object object at 0x0F02D580>	MN	1982	31	109	 219	1015	05	7	10027	E037	26	1100	1	09	2B	504 WEST 126 STREET	R7A	 	 	 	C2-4	 	125	 	 	 	N	C4	02	0	O	DENDUR/GENESIS II HOU	2500	10980	0	10980	0	0	0	0	0	0	2	1	5.0	9	9	25.0	100.0	25.0	88.0	 	0	N	5	5	53577.0	201553.0	53577.0	201553.0	1901	1993	0	 	 	4.39	4.0	0.0	4.0	1	1019820031.0	0	0219	996393	235920	6a	 	107N093	10707	 	0.0	 	1	16V2	0	252.567218797	2462.63975484
35862	<geoprocessing describe geometry object object at 0x0F02D3A0>	MN	2004	71	109	 219	1007	05	7	10027	E080	26	1100	1	09	2A	2302 JOE DIMAGGIO HIGHWAY	M1-2	 	 	 	 	 	MMU	 	 	 	N	G7	10	0	 	2290 12TH AVENUE	6688	0	0	0	0	0	0	0	0	0	7	0	0.0	0	0	75.58	83.25	0.0	0.0	 	0	Y	5	5	258300.0	258300.0	0.0	0.0	0	0	0	 	 	0.0	0.0	2.0	4.8	1	1020040071.0	0	0219	995355	237710	5c	 	107N105	10707	 	0.0	 	1	16V2	0	335.141863509	6937.29310141
35865	<geoprocessing describe geometry object object at 0x0F02D3A0>	MN	2005	27	109	 223.02	1002	05	7	10027	E080	30	900	1	09	2A	698 WEST 135 STREET	PARK	 	 	 	 	 	 	 	 	 	N	Q1	09	0	C	PARKS AND RECREATION	201838	3667	3667	0	0	0	3667	0	0	0	2	2	1.0	0	0	130.5	201.0	105.0	42.0	 	0	Y	9	5	1413000.0	1698750.0	1413000.0	1698750.0	1939	0	0	 	 	0.02	0.0	0.0	0.0	1	1020050027.0	0	022302	995400	238651	5c	 	111S001	10707	 	0.0	 	1	16V2	0	1169.09492193	34232.4647617
35866	<geoprocessing describe geometry object object at 0x0F02D3A0>	MN	1988	12	109	 223.01	1000	05	7	10031	E080	30	900	1	09	2B	523 WEST 134 STREET	R7A	 	 	 	 	 	 	 	 	 	N	C1	02	0	C	HOUSING PRESERVATION	4796	16960	0	16960	0	0	0	0	0	0	2	1	5.0	25	25	48.0	99.92	40.0	87.0	 	2	N	5	1	67050.0	637650.0	67050.0	637650.0	1905	0	0	 	 	3.54	4.0	0.0	4.0	1	1019880012.0	0	022301	996897	237718	6a	 	111S021	10707	 	0.0	 	1	16V2	0	308.272590852	5133.24601977
35868	<geoprocessing describe geometry object object at 0x0F02D400>	MN	2002	97	109	 223.01	4000	06	7	10031	E080	30	900	1	09	2A	630 WEST 136 STREET	R8	 	 	 	 	 	 	 	 	 	N	C1	02	0	P	630-636 WEST 136TH ST	9992	36250	0	36250	0	0	0	0	0	0	2	1	5.0	45	45	100.0	99.92	86.0	89.0	 	2	N	5	1	109800.0	928800.0	0.0	0.0	1940	1986	0	 	 	3.63	6.02	0.0	6.5	1	1020020097.0	0	022301	996346	238485	6a	Y	111S020	10707	 	0.0	 	1	16V2	0	410.338714419	10519.3327377
35869	<geoprocessing describe geometry object object at 0x0F02D400>	MN	1968	26	109	 213.03	2001	05	7	10027	E037	26	1100	1	09	2B	34 CONVENT AVENUE	R7A	 	 	 	 	 	 	 	 	 	N	C1	02	0	C	HOUSING PRESERVATION	3808	12915	0	12915	0	0	0	0	0	0	2	1	5.0	20	20	42.0	90.67	42.0	77.0	 	3	N	5	2	29700.0	720000.0	29700.0	720000.0	1926	0	0	 	 	3.39	4.0	0.0	4.0	1	1019680026.0	0	021303	997158	235895	6a	 	107N096	10707	 	0.0	 	1	16V2	0	257.483694676	3705.17607301
35871	<geoprocessing describe geometry object object at 0x0F02D400>	MN	2086	147	109	 223.01	3000	06	7	10031	E080	30	900	1	09	2A	632 WEST 138 STREET	R6A	 	 	 	 	 	 	 	 	 	N	C3	02	0	P	MOUNTAINVIEW, LLC	1399	2460	0	2460	0	0	0	0	0	0	2	1	3.0	4	4	14.0	99.92	14.0	46.0	E	0	N	5	5	69054.0	141143.0	0.0	0.0	1900	0	0	 	 	1.76	3.0	0.0	3.0	1	1020860147.0	0	022301	996658	238902	6a	 	111S020	10710	 	0.0	 	1	16V2	0	233.71245113	1473.83876538
35872	<geoprocessing describe geometry object object at 0x0F02DB40>	MN	1987	1	109	 219	2001	05	7	10031	E080	30	1100	1	09	2A	3300 BROADWAY	C6-2	 	 	 	 	 	MMU	 	 	 	N	K4	04	0	P	TUCK-IT-AWAY ASSOCIAT	17984	54905	54905	0	0	36000	18905	0	0	0	2	1	5.0	0	2	199.83	90.0	199.0	90.0	 	2	N	3	2	468000.0	2633400.0	0.0	0.0	1918	1989	0	 	 	3.05	6.02	6.0	6.5	1	1019870001.0	0	0219	996588	237648	6a	 	111S012	10707	E-188	0.0	 	1	16V2	0	601.525099445	19519.8326866
35873	<geoprocessing describe geometry object object at 0x0F02DB40>	MN	1953	10	109	 213.03	4002	05	9	10027	E037	26	1100	1	09	2B	361 WEST 126 STREET	R7A	 	 	 	 	 	 	 	 	 	N	C4	02	0	P	ECDO HOUSES ASSOCIATE	2498	7990	0	7990	0	0	0	0	0	0	2	1	5.0	20	20	25.0	99.92	25.0	68.0	 	3	N	5	2	5400.0	270900.0	5400.0	270900.0	1901	1959	1991	 	 	3.2	4.0	0.0	4.0	1	1019530010.0	0	021303	997383	235070	6a	 	107N097	10706	 	0.0	 	1	16V2	0	249.712300895	2358.65275517
35876	<geoprocessing describe geometry object object at 0x0F02DB40>	MN	1982	47	109	 219	1015	05	7	10027	E037	26	1100	1	09	2B	540 WEST 126 STREET	R7A	 	 	 	C2-4	 	125	 	 	 	N	N2	08	0	 	OLD BROADWAY HOTEL IN	5675	18832	18832	0	0	0	0	0	0	18832	2	4	4.0	0	1	106.0	50.0	38.0	103.0	 	2	Y	3	2	158400.0	574650.0	0.0	0.0	1901	1989	0	 	 	3.32	4.0	0.0	4.0	1	1019820047.0	0	0219	996168	236300	5c	 	107N093	10707	 	0.0	 	1	16V2	0	376.397100263	6163.21127586
35877	<geoprocessing describe geometry object object at 0x0F02DB20>	MN	1982	17	109	 219	1015	05	7	10027	E037	26	1100	1	09	2B	515 WEST 125 STREET	R7A	 	 	 	C2-4	 	125	 	 	 	N	M1	08	0	P	ANTIOCH BAPTIST CHURC	7460	7460	7460	0	0	0	0	0	0	7460	2	1	1.0	0	1	74.58	100.0	75.0	100.0	 	3	N	5	2	210600.0	938700.0	210600.0	938700.0	1970	1977	0	 	 	1.0	4.0	0.0	4.0	1	1019820017.0	0	0219	996280	235903	5c	Y	107N093	10707	 	0.0	 	1	16V2	0	354.86684739	7622.69911424
35878	<geoprocessing describe geometry object object at 0x0F02DB20>	MN	2001	2	109	 223.02	1000	05	7	10031	E080	30	900	1	09	2Q	        RIVERSIDE DRIVE	C6-2	 	 	 	 	 	MMU	 	 	 	N	V1	11	0	C	DCAS	666	0	0	0	0	0	0	0	0	0	4	0	0.0	0	0	9.25	75.0	0.0	0.0	 	0	Y	5	5	64800.0	64800.0	64800.0	64800.0	0	0	0	 	 	0.0	6.02	6.0	6.5	1	1020010002.0	0	022302	995880	238283	5c	 	111S011	10707	 	0.0	 	1	16V2	0	161.628841792	689.885160151
35879	<geoprocessing describe geometry object object at 0x0F02DB20>	MN	2101	130	109	 	 	06	7	10031	 	30	0	 	 	 	        WEST 155 STREET	M1-1	 	 	 	 	 	 	 	 	 	N	V9	11	0	C	DEPT OF ENVIRONMENTAL	1870	0	0	0	0	0	0	0	0	0	4	0	0.0	0	0	60.5	137.0	0.0	0.0	 	0	Y	5	5	33840.0	33840.0	33840.0	33840.0	0	0	0	 	 	0.0	0.0	1.0	2.4	1	1021010130.0	0	0000	0	0	5c	 	111S019	10710	 	0.0	 	1	16V2	0	177.98128102	1719.77615518
35881	<geoprocessing describe geometry object object at 0x0F02D080>	MN	1967	66	109	 213.03	2002	05	7	10027	E037	26	1100	1	09	2B	415 WEST 127 STREET	M1-5/R7-2	 	 	 	 	 	MX-15	 	 	 	N	G1	10	0	 	WEST 127 REALTY LLC	10500	20000	20000	0	0	0	20000	0	0	0	2	1	2.0	0	1	105.42	99.92	100.92	99.92	 	0	Y	5	2	283500.0	1002150.0	0.0	0.0	1907	2006	0	 	 	1.9	4.0	5.0	6.5	1	1019670066.0	0	021303	997013	235572	6a	 	107N095	10707	E-284	0.0	 	1	16V2	0	413.342358494	10675.958605
35882	<geoprocessing describe geometry object object at 0x0F02D080>	MN	1988	22	109	 223.01	1000	05	7	10031	E080	30	900	1	09	2B	511 WEST 134 STREET	R7A	 	 	 	 	 	 	 	 	 	N	C1	02	0	O	NYC HOUSING AUTHORITY	3921	13040	0	13040	0	0	0	0	0	0	2	1	5.0	15	15	39.25	99.92	39.0	85.0	 	3	N	5	2	56250.0	563850.0	56250.0	563850.0	1905	1985	0	 	 	3.33	4.0	0.0	4.0	1	1019880022.0	0	022301	997122	237593	6a	 	111S021	10707	 	0.0	 	1	16V2	0	290.342935502	4187.79859949
35884	<geoprocessing describe geometry object object at 0x0F02D080>	MN	1968	25	109	 213.03	2001	05	7	10027	E037	26	1100	1	09	2B	30 CONVENT AVENUE	R7A	 	 	 	 	 	 	 	 	 	N	C1	02	0	C	HOUSING PRESERVATION	3450	11085	0	11085	0	0	0	0	0	0	2	1	5.0	20	20	42.0	84.92	42.0	71.0	 	3	Y	5	2	27000.0	541800.0	27000.0	541800.0	1926	1984	0	 	 	3.21	4.0	0.0	4.0	1	1019680025.0	0	021303	997160	235852	6a	 	107N096	10707	 	0.0	 	1	16V2	0	241.144575995	3277.34390709
35885	<geoprocessing describe geometry object object at 0x0F02DAC0>	MN	1967	20	109	 213.03	2003	05	7	10027	E037	26	1100	1	09	2B	160 MORNINGSIDE AVENUE	R7A	 	 	 	 	 	 	 	 	 	N	C7	04	0	 	160-166 MORNINGSIDEAV	7538	22125	1500	20625	0	1500	0	0	0	0	2	4	4.0	30	32	100.5	75.0	25.0	75.0	 	0	N	3	2	90000.0	672300.0	0.0	0.0	1900	1999	0	 	 	2.94	4.0	0.0	4.0	1	1019670020.0	0	021303	997081	235238	6a	 	107N095	10707	 	0.0	 	1	16V2	0	362.228366559	7976.71856722
35888	<geoprocessing describe geometry object object at 0x0F02DAC0>	MN	1988	81	109	 223.01	2002	06	7	10031	E080	30	900	1	09	2B	529 WEST 135 STREET	R7A	 	 	 	 	 	 	 	 	 	N	C1	02	0	P	AW HOLDING, LP.	3747	13175	0	13175	0	0	0	0	0	0	2	1	5.0	15	15	37.5	99.92	38.0	86.0	 	3	N	5	2	31950.0	187200.0	0.0	155250.0	1910	1984	2000	 	 	3.52	4.0	0.0	4.0	1	1019880081.0	0	022301	996951	238028	6a	 	111S021	10707	 	0.0	 	1	16V2	0	283.881390323	3963.48038808
35890	<geoprocessing describe geometry object object at 0x0F02DAC0>	MN	2086	141	109	 223.01	3000	06	7	10031	E080	30	900	1	09	2A	614 WEST 138 STREET	R6A	 	 	 	 	 	 	 	 	 	N	C1	02	0	 	THE REISHA FOUNDATION	1599	3906	0	3906	0	0	0	0	0	0	2	1	4.0	7	7	16.0	99.92	16.0	55.0	E	0	N	5	5	9833.0	121876.0	0.0	0.0	1920	0	0	 	 	2.44	3.0	0.0	3.0	1	1020860141.0	0	022301	996783	238833	6a	 	111S020	10710	 	0.0	 	1	16V2	0	236.808909612	1632.4735302
35892	<geoprocessing describe geometry object object at 0x0F02DA80>	MN	1998	13	109	 219	1008	05	7	10027	E080	26	1100	1	09	2A	635 WEST 131 STREET	C6-1	 	 	 	 	 	MMU	 	 	 	N	G1	10	0	P	THE TRUSTEES OF COLUM	7494	16000	16000	0	0	0	16000	0	0	0	2	1	2.0	0	2	75.0	99.92	75.0	95.0	 	3	N	5	0	135000.0	1381050.0	0.0	0.0	1940	2002	0	 	 	2.14	3.44	6.0	6.5	1	1019980013.0	0	0219	995761	237456	5c	 	111S002	10707	R-145	0.0	 	1	16V2	0	348.339690581	7434.33132062
35893	<geoprocessing describe geometry object object at 0x0F02DA80>	MN	1982	20	109	 219	1015	05	7	10027	E037	26	1100	1	09	2B	511 WEST 125 STREET	R7A	 	 	 	C2-4	 	125	 	 	 	N	C7	04	0	P	156 E. 105 EQUITIESCP	5000	22298	2200	20098	0	2200	0	0	0	0	2	1	6.0	27	29	50.0	100.0	50.0	87.0	 	3	N	5	2	58950.0	391950.0	0.0	0.0	1904	1988	0	 	 	4.46	4.0	0.0	4.0	1	1019820020.0	0	0219	996314	235852	6a	Y	107N093	10707	 	0.0	 	1	16V2	0	308.974565998	5221.96030804
35894	<geoprocessing describe geometry object object at 0x0F02DA80>	MN	1970	34	109	 213.03	1001	05	9	10027	E080	26	1100	1	09	2B	1437 AMSTERDAM AVENUE	R7A	 	 	 	C1-4	 	 	 	 	 	N	C7	04	0	 	MORNINGSIDE REALTY AS	2783	12795	2500	10295	0	2500	0	0	0	0	2	1	5.0	13	14	27.83	100.0	26.0	90.0	 	2	N	3	2	24300.0	432450.0	0.0	0.0	1920	1989	0	 	 	4.6	4.0	0.0	4.0	1	1019700034.0	0	021303	997063	236692	6a	 	111S004	10707	 	0.0	 	1	16V2	0	271.934228301	3171.03521649
35895	<geoprocessing describe geometry object object at 0x0F02D040>	MN	1988	8	109	 223.01	1000	05	7	10031	E080	30	900	1	09	2B	527 WEST 134 STREET	R7A	R8A	 	 	 	 	MMU	 	 	 	Y	C1	02	0	C	HOUSING PRESERVATION	4796	16960	0	16960	0	0	0	0	0	0	2	1	5.0	25	25	48.0	99.92	42.0	86.0	 	2	N	5	2	57150.0	636750.0	57150.0	636750.0	1905	1987	0	 	 	3.54	4.0	0.0	4.0	1	1019880008.0	0	022301	996813	237764	6a	 	111S021	10707	 	0.0	 	1	16V2	0	307.66172814	5101.02702523
35896	<geoprocessing describe geometry object object at 0x0F02D040>	MN	1998	16	109	 219	1008	05	7	10027	E080	26	1100	1	09	2A	633 WEST 131 STREET	C6-1	 	 	 	 	 	MMU	 	 	 	N	F2	06	0	 	THE TRUSTEES OF COLUM	2498	1000	1000	0	0	0	0	0	1000	0	2	1	1.0	0	1	25.0	99.92	25.0	50.0	 	3	N	5	0	31050.0	54450.0	0.0	0.0	1930	0	0	 	 	0.4	3.44	6.0	6.5	1	1019980016.0	0	0219	995804	237432	5c	 	111S002	10707	R-145	0.0	 	1	16V2	0	247.728490747	2438.46768753
35897	<geoprocessing describe geometry object object at 0x0F02D040>	MN	1999	1	109	 219	1000	05	7	10027	E080	26	1100	1	09	2A	2321 JOE DIMAGGIO HIGHWAY	C6-1	 	 	 	 	 	MMU	 	 	 	N	T9	07	0	C	NEW YORK CITY TRANSIT	134844	318000	318000	0	0	0	318000	0	0	0	2	1	2.0	0	1	199.83	250.0	199.83	471.0	 	0	N	3	5	3944250.0	45166500.0	3944250.0	45166500.0	1989	0	0	 	 	2.36	3.44	6.0	6.5	1	1019990001.0	0	0219	995901	237730	5c	 	111S002	10707	 	1019990001.0	01/04/1990	1	16V2	0	1789.8085332	140555.574687
35898	<geoprocessing describe geometry object object at 0x0F02D900>	MN	1954	9	109	 213.03	4001	05	9	10027	E037	26	1100	1	09	2B	5 ST NICHOLAS TERRACE	R7A	 	 	 	 	 	 	 	 	 	N	C1	02	0	P	TERRACE APARTMENTS,IN	4655	16885	0	16885	0	0	0	0	0	0	2	1	5.0	21	21	43.92	106.0	44.0	93.0	 	2	N	5	1	52200.0	310950.0	0.0	0.0	1901	1988	0	 	 	3.63	4.0	0.0	4.0	1	1019540009.0	0	021303	997454	235364	6a	 	107N097	10706	 	0.0	 	1	16V2	0	307.711253187	5072.67510919
35900	<geoprocessing describe geometry object object at 0x0F02D900>	MN	1968	29	109	 213.03	3001	05	9	10027	E037	26	1100	1	09	2B	21 CONVENT AVENUE	R7A	 	 	 	 	 	 	 	 	 	N	C7	04	0	P	21-25 CONVENT AVE. RE	4383	16175	300	15875	0	300	0	0	0	0	2	1	5.0	24	25	50.58	75.08	50.0	88.0	 	2	Y	3	2	65250.0	515700.0	0.0	404276.0	1920	1997	0	 	 	3.69	4.0	0.0	4.0	1	1019680029.0	0	021303	997304	235680	6a	 	107N096	10707	 	0.0	 	1	16V2	0	284.778744632	4717.8881888
35901	<geoprocessing describe geometry object object at 0x0F02D900>	MN	1982	71	109	 219	1014	05	7	10027	E037	26	1100	1	09	2B	560 WEST 126 STREET	R7A	 	 	 	C2-4	 	125	 	 	 	N	C1	02	0	P	THOR 560 WEST 126TH S	3980	16266	0	16266	0	0	0	0	0	0	2	1	6.0	18	18	40.0	99.5	40.0	86.0	 	3	N	5	2	40950.0	693900.0	0.0	0.0	1910	1984	0	 	 	4.09	4.0	0.0	4.0	1	1019820071.0	0	0219	995986	236532	5c	 	107N094	10707	 	0.0	 	1	16V2	0	291.928776869	4357.71115874
35902	<geoprocessing describe geometry object object at 0x0F02D580>	MN	2001	58	109	 223.02	1000	05	7	10031	E080	30	900	1	09	2A	634 WEST 135 STREET	R8	 	 	 	 	 	 	 	 	 	N	D1	03	0	P	WEST 135TH STREET 634	8746	37506	0	37506	0	0	0	0	0	0	2	1	6.0	39	39	50.0	149.92	50.0	136.0	 	3	Y	5	2	117000.0	1020600.0	0.0	0.0	1926	0	0	 	 	4.29	6.02	0.0	6.5	1	1020010058.0	0	022302	996012	238286	5c	 	111S011	10707	 	0.0	 	1	16V2	0	471.882708794	9437.6053621
35906	<geoprocessing describe geometry object object at 0x0F02D580>	MN	1988	60	109	 223.01	1000	05	7	10031	E080	30	900	1	09	2B	534 WEST 135 STREET	R8A	 	 	 	C1-4	 	MMU	 	 	 	N	I5	08	0	P	OFECK-NIR LLC	9492	18829	18829	0	18329	500	0	0	0	0	2	1	2.0	0	3	25.0	199.83	25.0	199.83	 	0	Y	5	2	225000.0	904050.0	0.0	0.0	1925	1998	0	 	 	1.98	6.0	0.0	6.0	1	1019880060.0	0	022301	996766	237803	6a	 	111S021	10707	E-188	0.0	 	1	16V2	0	551.052877371	10173.7702308
35907	<geoprocessing describe geometry object object at 0x0F02D580>	MN	1970	160	109	 213.03	1001	05	9	10027	E080	26	1100	1	09	2B	496 WEST 133 STREET	R7A	 	 	 	C1-4	 	 	 	 	 	N	C4	02	0	P	496 MANHATTAN LLC	2500	9185	0	9185	0	0	0	0	0	0	2	1	5.0	15	15	25.0	100.0	25.0	84.0	 	1	N	5	2	23400.0	315450.0	0.0	0.0	1901	0	0	 	 	3.67	4.0	0.0	4.0	1	1019700160.0	0	021303	997292	237020	6a	 	111S004	10707	 	0.0	 	1	16V2	0	262.370941464	2839.21503229
35908	<geoprocessing describe geometry object object at 0x0F02D3A0>	MN	1996	56	109	 219	1010	05	7	10027	E037	26	1100	1	09	2A	651 WEST 125 STREET	C6-1	 	 	 	 	 	MMU	 	 	 	N	V1	11	0	P	THE TRUSTEES OF COLUM	13492	0	0	0	0	0	0	0	0	0	4	0	0.0	0	0	111.58	120.92	0.0	0.0	 	0	N	5	5	3074220.0	3074220.0	3074220.0	3074220.0	0	0	0	 	 	0.0	3.44	6.0	6.5	1	1019960056.0	0	0219	995419	237167	5c	 	107N092	10707	E-188	0.0	 	1	16V2	0	403.310746505	9598.71550182
35909	<geoprocessing describe geometry object object at 0x0F02D3A0>	MN	2005	32	109	 223.02	1002	05	7	10027	E080	30	900	1	09	2A	2368 BROADWAY	M1-2	 	 	 	 	 	MMU	 	 	 	N	W9	08	0	P	AMTRAK	15670	3000	3000	0	0	0	0	0	0	3000	2	1	1.0	0	1	200.0	90.0	0.0	0.0	 	0	N	3	5	171900.0	549900.0	171900.0	549900.0	2002	0	0	 	 	0.19	0.0	2.0	4.8	1	1020050032.0	0	022302	995745	238407	5c	 	111S001	10707	 	0.0	 	1	16V2	0	561.685508521	15910.8502052
35910	<geoprocessing describe geometry object object at 0x0F02D3A0>	MN	1953	9	109	 213.03	4002	05	9	10027	E037	26	1100	1	09	2B	363 WEST 126 STREET	R7A	 	 	 	 	 	 	 	 	 	N	C4	02	0	P	ECDO HOUSES ASSOCIATE	2498	7990	0	7990	0	0	0	0	0	0	2	1	5.0	20	20	25.0	99.92	25.0	68.0	 	3	N	5	2	56250.0	270900.0	56250.0	270900.0	1901	1959	1991	 	 	3.2	4.0	0.0	4.0	1	1019530009.0	0	021303	997361	235082	6a	 	107N097	10706	 	0.0	 	1	16V2	0	254.820381368	2618.27293347
35911	<geoprocessing describe geometry object object at 0x0F02D400>	MN	1967	73	109	 213.03	2002	05	7	10027	E037	26	1100	1	09	2B	6 CONVENT AVENUE	R7A	 	 	 	 	 	 	 	 	 	N	C5	02	0	 	FIA 6 CONVENT HOLDING	846	1850	0	1850	0	0	0	0	0	0	2	1	3.0	10	10	20.08	47.75	20.0	38.0	 	3	Y	5	1	9024.0	33930.0	0.0	0.0	1926	1988	0	 	 	2.19	4.0	0.0	4.0	1	1019670073.0	0	021303	997169	235480	6a	 	107N095	10707	 	0.0	 	1	16V2	0	137.542423538	892.317864081
35913	<geoprocessing describe geometry object object at 0x0F02D400>	MN	2086	24	109	 223.01	3000	06	7	10031	E080	30	900	1	09	2A	605 WEST 137 STREET	R8	 	 	 	 	 	 	 	 	 	N	D1	03	0	 	WEST 137TH 605 LLC	9160	38750	0	38750	0	0	0	0	0	0	2	1	6.0	36	36	91.67	99.92	92.0	83.0	 	2	N	5	2	45450.0	1821600.0	0.0	0.0	1906	1986	0	 	 	4.23	6.02	0.0	6.5	1	1020860024.0	0	022301	996768	238722	6a	 	111S020	10710	 	0.0	 	1	16V2	0	393.464159995	9634.14998825
35914	<geoprocessing describe geometry object object at 0x0F02D400>	MN	1998	10	109	 219	1008	05	7	10027	E080	26	1100	1	09	2A	641 WEST 131 STREET	C6-1	 	 	 	 	 	MMU	 	 	 	N	G1	10	0	 	THE TRUSTEES OF COLUM	14988	17800	17800	0	5000	0	12800	0	0	0	2	1	2.0	0	1	150.0	99.92	150.0	99.92	 	0	N	5	5	270000.0	1148850.0	0.0	0.0	1926	0	0	 	 	1.19	3.44	6.0	6.5	1	1019980010.0	0	0219	995663	237510	5c	 	111S002	10707	R-145	0.0	 	1	16V2	0	496.939565615	14813.0429325
35916	<geoprocessing describe geometry object object at 0x0F02DB40>	MN	1968	35	109	 213.03	3001	05	9	10027	E037	26	1100	1	09	2B	415 WEST 128 STREET	R7A	 	 	 	 	 	 	 	 	 	N	C1	02	0	C	HOUSING PRESERVATION	5995	20425	0	20425	0	0	0	0	0	0	2	1	5.0	30	30	60.0	99.92	60.0	86.0	 	3	N	5	2	81900.0	1104750.0	81900.0	1104750.0	1920	1988	0	 	 	3.41	4.0	0.0	4.0	1	1019680035.0	0	021303	997435	235635	6a	 	107N096	10707	 	0.0	 	1	16V2	0	330.18591154	6413.78191407
35917	<geoprocessing describe geometry object object at 0x0F02DB40>	MN	2002	41	109	 223.01	3006	06	7	10031	E080	30	900	1	09	2A	607 WEST 136 STREET	R8	 	 	 	 	 	 	 	 	 	N	C6	02	0	P	607-09 WEST 136 ST HD	5445	19480	0	19480	0	0	0	0	0	0	2	1	5.0	20	20	54.5	99.92	54.0	85.0	 	2	N	5	2	41400.0	636300.0	41400.0	440560.0	1905	1988	0	 	 	3.58	6.02	0.0	6.5	1	1020020041.0	0	022301	996680	238475	6a	 	111S020	10707	 	0.0	 	1	16V2	0	319.835925531	5877.70499289
35920	<geoprocessing describe geometry object object at 0x0F02DB40>	MN	1954	5	109	 213.03	4001	05	9	10027	E037	26	1100	1	09	2B	375 WEST 127 STREET	R7A	 	 	 	 	 	 	 	 	 	N	C1	02	0	P	TERRACE APARTMENTS,IN	4396	15520	0	15520	0	0	0	0	0	0	2	1	5.0	28	28	44.0	99.92	44.0	84.0	 	3	N	5	1	49500.0	279450.0	0.0	0.0	1901	1988	0	 	 	3.53	4.0	0.0	4.0	1	1019540005.0	0	021303	997374	235375	6a	 	107N097	10706	 	0.0	 	1	16V2	0	302.177470084	4801.6338587
35921	<geoprocessing describe geometry object object at 0x0F02DB20>	MN	1969	55	109	 213.03	3000	05	9	10027	E037	26	1100	1	09	2B	418 WEST 130 STREET	R7A	 	 	 	 	 	 	 	 	 	N	D1	03	0	P	418 WEST 130 STREET	15538	63264	0	63264	0	0	0	0	0	0	2	1	6.0	50	50	144.5	99.92	135.0	82.0	 	1	N	5	2	265050.0	1181700.0	0.0	0.0	1920	1989	0	 	 	4.07	4.0	0.0	4.0	1	1019690055.0	0	021303	997472	236031	6a	 	107N096	10707	 	0.0	 	1	16V2	0	505.822145942	15609.0639523
35922	<geoprocessing describe geometry object object at 0x0F02DB20>	MN	2001	55	109	 223.02	1000	05	7	10031	E080	30	900	1	09	2A	626 WEST 135 STREET	R8	 	 	 	 	 	 	 	 	 	N	D1	03	0	 	630 W 135 ST. LLC	7494	29860	0	29860	0	0	0	0	0	0	2	1	6.0	31	31	75.0	99.92	75.0	86.0	 	3	N	5	2	83700.0	670500.0	0.0	0.0	1926	1987	0	 	 	3.98	6.02	0.0	6.5	1	1020010055.0	0	022302	996079	238288	5c	 	111S011	10707	 	0.0	 	1	16V2	0	363.454612557	8044.80419526
35923	<geoprocessing describe geometry object object at 0x0F02DB20>	MN	1970	70	109	 213.03	1001	05	9	10027	E080	26	1100	1	09	2B	1459 AMSTERDAM AVENUE	R7A	 	 	 	C1-4	 	 	 	 	 	N	C7	04	0	P	WHGA GARVEY HOUSING D	2500	9720	1000	8720	0	1000	0	0	0	0	2	1	5.0	9	10	25.0	100.0	25.0	88.0	 	0	N	5	5	37926.0	214326.0	30341.0	171461.0	1901	1989	0	 	 	3.89	4.0	0.0	4.0	1	1019700070.0	0	021303	997165	236874	6a	 	111S004	10707	 	0.0	 	1	16V2	0	262.943618064	2694.20030498
35924	<geoprocessing describe geometry object object at 0x0F02D080>	MN	1969	5	109	 213.03	2000	05	7	10027	E037	26	1100	1	09	2B	497 WEST 129 STREET	R7A	 	 	 	 	 	 	 	 	 	N	E1	06	0	X	WEST 129TH STREET REA	11643	11579	11579	0	0	0	0	11579	0	0	2	1	1.0	0	1	58.48	199.1	58.48	198.0	 	3	Y	4	0	209700.0	688050.0	209700.0	688050.0	1900	1989	2006	 	 	0.99	4.0	0.0	4.0	1	1019690005.0	0	021303	996920	236273	6a	 	107N096	10707	 	1019690005.0	11/29/2005	1	16V2	0	522.412205594	10308.0964373
35925	<geoprocessing describe geometry object object at 0x0F02D080>	MN	1988	147	109	 223.01	2000	06	7	10031	E080	30	900	1	09	2B	1 HAMILTON PLACE	R8	 	 	 	C1-4	 	 	 	 	 	N	K1	05	0	 	1 HAMILTON LLC	2376	1144	1144	0	0	1144	0	0	0	0	2	1	1.0	0	1	27.0	103.0	14.0	26.0	 	1	Y	3	0	36000.0	219150.0	0.0	0.0	1970	0	0	 	 	0.48	6.02	0.0	6.5	1	1019880147.0	0	022301	996953	238283	6a	 	111S021	10707	 	0.0	 	1	16V2	0	254.567983803	2432.60895777
35926	<geoprocessing describe geometry object object at 0x0F02D080>	MN	2086	41	109	 223.01	3000	06	7	10031	E080	30	900	1	09	2A	612 WEST 138 STREET	R6A	 	 	 	 	 	 	 	 	 	N	C5	02	0	 	31 & 71 LLC	1599	3906	0	3906	0	0	0	0	0	0	2	1	4.0	7	7	16.0	99.92	16.0	67.0	E	3	N	5	2	14391.0	55134.0	0.0	0.0	1906	1985	0	 	 	2.44	3.0	0.0	3.0	1	1020860041.0	0	022301	996797	238825	6a	 	111S020	10710	 	0.0	 	1	16V2	0	236.096531264	1595.95723382
35928	<geoprocessing describe geometry object object at 0x0F02DAC0>	MN	1970	9	109	 213.03	1002	05	9	10027	E037	26	1100	1	09	2B	489 WEST 130 STREET	R7A	 	 	 	 	 	 	 	 	 	N	G7	10	0	P	LOGAN PLAZA LLC	2498	0	0	0	0	0	0	0	0	0	7	0	0.0	0	0	25.0	99.92	0.0	0.0	 	0	N	5	5	95400.0	95400.0	95400.0	95400.0	0	0	0	 	 	0.0	4.0	0.0	4.0	1	1019700009.0	0	021303	997100	236415	6a	 	111S004	10707	E-284	0.0	 	1	16V2	0	250.00217653	2500.04353354
35929	<geoprocessing describe geometry object object at 0x0F02DAC0>	MN	2004	42	109	 219	1006	05	7	10027	E080	26	1100	1	09	2A	2286 12 AVENUE	M1-2	 	 	 	 	 	MMU	 	 	 	N	O2	05	0	 	CALANDRA LLC	4749	9312	9312	0	9312	0	0	0	0	0	2	1	2.0	0	1	58.08	103.67	58.08	103.67	 	0	Y	5	5	112050.0	1205100.0	0.0	0.0	1920	2005	0	 	 	1.96	0.0	2.0	4.8	1	1020040042.0	0	0219	995203	237490	5c	 	107N105	10707	 	0.0	 	1	16V2	0	323.606294209	5120.70262047
35930	<geoprocessing describe geometry object object at 0x0F02DAC0>	MN	1984	33	109	 219	4000	05	7	10027	E037	26	1100	1	09	2B	1400 AMSTERDAM AVENUE	R7-2	 	 	 	 	 	 	 	 	 	N	W1	08	0	C	DCAS/DEPARTMENT OF ED	52975	76174	76174	0	0	0	0	0	0	76174	2	1	4.0	0	1	124.92	335.5	63.0	336.0	 	1	Y	3	2	1309500.0	5941800.0	1309500.0	5941800.0	1936	1989	0	 	 	1.44	3.44	0.0	6.5	1	1019840033.0	0	0219	996552	236465	6a	 	111S003	10707	 	0.0	 	1	16V2	0	1080.2744859	51792.0674583
35931	<geoprocessing describe geometry object object at 0x0F02DA80>	MN	2001	38	109	 223.02	1000	05	7	10031	E080	30	900	1	09	2A	614 WEST 135 STREET	R8	 	 	 	 	 	 	 	 	 	N	C1	02	0	P	TPE RIVERVIEW I LLC	30883	106456	0	106456	0	0	0	0	0	0	2	8	5.0	187	187	309.08	99.92	76.0	90.0	 	0	N	5	2	765000.0	3874500.0	0.0	0.0	1926	1980	0	 	 	3.45	6.02	0.0	6.5	1	1020010038.0	0	022302	996349	238139	6a	Y	111S011	10707	 	0.0	 	1	16V2	0	833.502235132	33050.0885996
35932	<geoprocessing describe geometry object object at 0x0F02DA80>	MN	1953	11	109	 213.03	4002	05	9	10027	E037	26	1100	1	09	2B	359 WEST 126 STREET	R7A	 	 	 	 	 	 	 	 	 	N	C4	02	0	 	359 W 126	2498	7990	0	7990	0	0	0	0	0	0	2	1	5.0	20	20	25.0	99.92	25.0	68.0	 	2	N	5	2	56250.0	553500.0	0.0	0.0	1901	0	0	 	 	3.2	4.0	0.0	4.0	1	1019530011.0	0	021303	997404	235058	6a	 	107N097	10706	 	0.0	 	1	16V2	0	255.886931604	2672.48945921
35933	<geoprocessing describe geometry object object at 0x0F02DA80>	MN	2002	61	109	 223.01	3006	06	7	10031	E080	30	900	1	09	2A	622 WEST 137 STREET	R8	 	 	 	 	 	 	 	 	 	N	D1	03	0	P	620 LLC	8493	37038	0	37038	0	0	0	0	0	0	2	1	6.0	25	25	85.0	99.92	85.0	89.0	 	2	N	5	2	165600.0	426600.0	0.0	0.0	1915	1988	0	 	 	4.36	6.02	0.0	6.5	1	1020020061.0	0	022301	996507	238690	6a	 	111S020	10707	 	0.0	 	1	16V2	0	380.263140114	8946.71372385
35934	<geoprocessing describe geometry object object at 0x0F02D040>	MN	1982	29	109	 219	1015	05	7	10027	E037	26	1100	1	09	2B	1350 AMSTERDAM AVENUE	R7A	 	 	 	C2-4	 	125	 	 	 	N	C7	04	0	 	SAFA REALTY ASSOCIATE	3775	16745	3350	13395	0	3350	0	0	0	0	2	1	5.0	16	19	112.67	64.0	58.0	113.0	 	3	Y	3	2	38700.0	459450.0	0.0	0.0	1901	0	0	 	 	4.44	4.0	0.0	4.0	1	1019820029.0	0	0219	996417	235863	6a	 	107N093	10707	 	0.0	 	1	16V2	0	295.258401862	3975.87546315
35935	<geoprocessing describe geometry object object at 0x0F02D040>	MN	1988	148	109	 223.01	2000	06	7	10031	E080	30	900	1	09	2B	3 HAMILTON PLACE	R8	 	 	 	C1-4	 	 	 	 	 	N	K2	05	0	P	3 5 HAMILTON REALTY C	4417	7845	7845	0	0	7845	0	0	0	0	2	1	2.0	0	4	54.25	95.67	54.0	95.0	 	3	N	5	0	80550.0	805950.0	0.0	0.0	1946	1988	0	 	 	1.78	6.02	0.0	6.5	1	1019880148.0	0	022301	996980	238311	6a	 	111S021	10707	 	0.0	 	1	16V2	0	291.943724691	4767.36323475
35936	<geoprocessing describe geometry object object at 0x0F02D040>	MN	1968	54	109	 213.03	3001	05	9	10027	E037	26	1100	1	09	2B	418-420 WEST 129 STREET	R7A	 	 	 	 	 	 	 	 	 	N	C1	02	0	P	418 W 129TH ST HSG DE	5731	20375	0	20375	0	0	0	0	0	0	2	1	5.0	20	20	56.83	100.83	50.0	81.5	 	2	N	5	2	78300.0	672300.0	78300.0	478920.0	1910	1982	1987	 	 	3.56	4.0	0.0	4.0	1	1019680054.0	0	021303	997373	235786	6a	 	107N096	10707	 	0.0	 	1	16V2	0	320.014278077	5802.84351171
35938	<geoprocessing describe geometry object object at 0x0F02D900>	MN	2002	95	109	 223.01	4000	06	7	10031	E080	30	900	1	09	2A	626 WEST 136 STREET	R8	 	 	 	 	 	 	 	 	 	N	C1	02	0	P	626 W 136TH ST HSG DE	4371	15630	0	15630	0	0	0	0	0	0	2	1	5.0	15	15	43.75	99.92	44.0	90.0	 	3	N	5	2	34650.0	544950.0	34650.0	398145.0	1905	0	0	 	 	3.58	6.02	0.0	6.5	1	1020020095.0	0	022301	996408	238450	6a	 	111S020	10707	 	0.0	 	1	16V2	0	295.0668897	4447.48252124
35939	<geoprocessing describe geometry object object at 0x0F02D900>	MN	2001	5	109	 223.02	1000	05	7	10031	E080	30	900	1	09	2A	625 WEST 133 STREET	R8	 	 	 	 	 	 	 	 	 	N	W1	08	0	O	EDUCATIONAL CONSTRUCT	238056	177232	177232	0	0	0	0	0	0	177232	2	1	35.0	0	1	650.0	459.67	380.0	275.0	 	0	Y	5	2	5356350.0	17532450.0	5356350.0	17532450.0	1975	0	0	 	 	0.74	6.02	0.0	6.5	1	1020010005.0	0	022302	996197	237965	5c	Y	111S011	10707	 	0.0	 	1	16V2	0	2251.35983267	244437.874216
35940	<geoprocessing describe geometry object object at 0x0F02D900>	MN	1987	37	109	 219	2000	05	7	10031	E080	30	1100	1	09	2B	502 WEST 134 STREET	R7A	 	 	 	 	 	 	 	 	 	N	D2	03	0	P	HRP-133/134 HOUSINGDE	4996	31974	0	31974	0	0	0	0	0	0	2	2	6.0	45	45	90.0	99.92	90.0	99.92	 	0	N	5	5	45000.0	455850.0	45000.0	455850.0	1994	0	0	 	 	6.4	4.0	0.0	4.0	1	1019870037.0	0	0219	997127	237408	6a	 	111S012	10707	 	1019870037.0	04/10/2000	1	16V2	0	387.200514684	9334.78736621
35941	<geoprocessing describe geometry object object at 0x0F02D580>	MN	1954	7	109	 213.03	4001	05	9	10027	E037	26	1100	1	09	2B	1 ST NICHOLAS TERRACE	R7A	 	 	 	 	 	 	 	 	 	N	C1	02	0	P	TERRACE APARTMENTS,IN	5936	24780	0	24780	0	0	0	0	0	0	2	1	5.0	28	28	56.0	106.0	56.0	75.0	 	2	N	3	1	133650.0	366750.0	0.0	0.0	1901	1988	0	 	 	4.17	4.0	0.0	4.0	1	1019540007.0	0	021303	997429	235318	6a	 	107N097	10706	 	0.0	 	1	16V2	0	327.554748161	6124.38543996
35943	<geoprocessing describe geometry object object at 0x0F02D580>	MN	2086	45	109	 223.01	3000	06	7	10031	E080	30	900	1	09	2A	622 WEST 138 STREET	R6A	 	 	 	 	 	 	 	 	 	N	A9	01	0	P	BAUTISTA, MARY PAULA	1499	2646	0	2646	0	0	0	0	0	0	2	1	3.0	1	1	15.0	99.92	15.0	63.0	E	1	N	5	2	8516.0	33843.0	1550.0	1550.0	1900	1987	0	 	 	1.77	3.0	0.0	3.0	1	1020860045.0	0	022301	996715	238870	6a	 	111S020	10710	 	1020860045.0	01/09/1996	1	16V2	0	261.267210578	2885.59221258
35945	<geoprocessing describe geometry object object at 0x0F02D580>	MN	1987	7501	109	 219	2001	05	7	10027	E080	30	1100	2	09	 	525 WEST 133 STREET	R7A	 	 	 	 	 	 	 	 	 	N	R4	03	1	 	 	7494	32201	4304	27897	0	0	0	1980	0	0	2	1	8.0	32	31	75.0	99.92	75.0	56.0	 	3	N	5	2	675006.0	1451706.0	640111.0	1325745.0	2008	0	0	 	 	4.3	4.0	0.0	4.0	1	1019877501.0	2232	0219	996974	237375	6a	 	111S012	10707	 	1019870021.0	08/30/2011	1	16V2	7	354.832679503	7657.45698254
35946	<geoprocessing describe geometry object object at 0x0F02D3A0>	MN	1982	36	109	 219	1015	05	7	10027	E037	26	1100	1	09	2B	514 WEST 126 STREET	R7A	 	 	 	C2-4	 	125	 	 	 	N	I5	08	0	P	ST MARY'S CENTER INC	4912	17674	17674	0	0	0	0	0	0	17674	2	1	6.0	0	1	49.5	100.0	49.5	70.0	 	0	Y	5	2	101700.0	1230750.0	101700.0	1230750.0	1901	1991	0	 	 	3.6	4.0	0.0	4.0	1	1019820036.0	0	0219	996317	236034	6a	Y	107N093	10707	 	0.0	 	1	16V2	0	304.454607134	5094.62807657
35947	<geoprocessing describe geometry object object at 0x0F02D3A0>	MN	1967	40	109	 213.03	2002	05	7	10027	E037	26	1100	1	09	2B	1361 AMSTERDAM AVENUE	M1-5/R7-2	 	 	 	 	 	MX-15	 	 	 	N	E9	06	0	P	JANUS VII LLC	17950	124000	124000	0	30000	0	0	69000	0	25000	2	2	6.0	0	3	104.58	192.42	100.0	200.0	 	0	Y	3	2	324000.0	6824700.0	0.0	6500700.0	1911	2006	0	 	 	6.91	4.0	5.0	6.5	1	1019670040.0	0	021303	996670	235898	6a	 	107N095	10707	 	0.0	 	1	16V2	0	629.445645297	18542.0463067
35950	<geoprocessing describe geometry object object at 0x0F02D3A0>	MN	1970	16	109	 213.03	1002	05	9	10027	E037	26	1100	1	09	2B	70 CONVENT AVENUE	R7A	 	 	 	 	 	 	 	 	 	N	D1	03	0	P	LOGAN GARDENS HDFC IN	30282	53835	0	53835	0	0	0	0	0	0	2	2	8.0	104	104	216.75	168.58	125.0	116.0	 	0	Y	3	2	418950.0	4213350.0	418950.0	4213350.0	1926	1986	0	 	 	1.78	4.0	0.0	4.0	1	1019700016.0	0	021303	997181	236428	6a	 	111S004	10707	 	0.0	 	1	16V2	0	777.889279946	31136.2775181
35953	<geoprocessing describe geometry object object at 0x0F02D400>	MN	1957	17	109	 	 	 	9	0	 	26	0	 	 	 	        ST NICHOLAS AVENUE	R7-2	 	 	 	 	 	 	 	 	 	N	V5	11	0	O	DASNY	4424	0	0	0	0	0	0	0	0	0	4	0	0.0	0	0	46.0	96.17	0.0	0.0	 	0	N	5	5	423450.0	423450.0	423450.0	423450.0	0	0	0	 	 	0.0	3.44	0.0	6.5	1	1019570017.0	0	0000	0	0	6a	 	111S023	10706	 	0.0	 	1	16V2	0	280.367375333	4336.30454421
35954	<geoprocessing describe geometry object object at 0x0F02D400>	MN	1967	69	109	 213.03	2002	05	7	10027	E037	26	1100	1	09	2B	405 WEST 127 STREET	R7A	M1-5/R7-2	 	 	 	 	MX-15	 	 	 	Y	C1	02	0	P	VICTOR SANCHEZ HOUSIN	4526	20484	0	20484	0	0	0	0	0	0	2	1	6.0	36	36	70.0	99.92	70.0	86.92	 	0	Y	5	2	53100.0	568350.0	53100.0	568350.0	1926	1990	0	 	 	4.53	4.0	0.0	4.0	1	1019670069.0	0	021303	997123	235501	6a	 	107N095	10707	 	0.0	 	1	16V2	0	314.470343602	5145.06062233
35956	<geoprocessing describe geometry object object at 0x0F02D400>	MN	1988	52	109	 223.01	1000	05	7	10031	E080	30	900	1	09	2B	518 WEST 135 STREET	R7A	 	 	 	 	 	 	 	 	 	N	C1	02	0	P	518 WEST 135TH STREET	3997	15360	0	15360	0	0	0	0	0	0	2	1	6.0	18	18	40.0	99.92	40.0	85.0	 	2	N	5	2	53100.0	643500.0	53100.0	467334.0	1905	2004	0	 	 	3.84	4.0	0.0	4.0	1	1019880052.0	0	022301	996960	237800	6a	 	111S021	10707	 	0.0	 	1	16V2	0	280.539043858	4068.24228009
35957	<geoprocessing describe geometry object object at 0x0F02DB40>	MN	1995	35	109	 219	1013	05	7	10027	E037	26	1100	1	09	2A	619 WEST 125 STREET	C6-1	 	 	 	 	 	MMU	 	 	 	N	V1	11	0	P	THE TRUSTEES OF COLUM	5175	0	0	0	0	0	0	0	0	0	4	0	0.0	0	0	161.08	39.42	0.0	0.0	 	0	Y	3	5	497340.0	497340.0	497340.0	497340.0	0	0	0	 	 	0.0	3.44	6.0	6.5	1	1019950035.0	0	0219	995677	236753	5c	 	107N092	10707	E-188	0.0	 	1	16V2	0	381.936411551	5342.50246091
35960	<geoprocessing describe geometry object object at 0x0F02DB40>	MN	1982	32	109	 219	1015	05	7	10027	E037	26	1100	1	09	2B	506 WEST 126 STREET	R7A	 	 	 	C2-4	 	125	 	 	 	N	C4	02	0	O	DENDUR/GENESIS II HOU	2400	9095	0	9095	0	0	0	0	0	0	2	1	5.0	9	9	25.0	100.0	25.0	76.0	 	0	N	5	5	72000.0	254250.0	72000.0	254250.0	1901	1993	0	 	 	3.79	4.0	0.0	4.0	1	1019820032.0	0	0219	996380	235940	6a	 	107N093	10707	 	0.0	 	1	16V2	0	252.169242463	2436.09533649
35961	<geoprocessing describe geometry object object at 0x0F02DB40>	MN	2001	100	109	 223.02	1000	05	7	10027	E080	30	900	1	09	2A	2331 JOE DIMAGGIO HIGHWAY	C6-2	 	 	 	 	 	MMU	 	 	 	N	E1	06	0	P	J & C MISSARA	2875	14625	14625	0	0	0	0	14625	0	0	2	1	3.0	0	3	39.08	125.92	39.0	125.0	 	2	N	3	0	90450.0	1284750.0	0.0	0.0	1920	0	0	 	 	5.09	6.02	6.0	6.5	1	1020010100.0	0	022302	995756	238017	5c	 	111S011	10707	 	0.0	 	1	16V2	0	334.894776847	5115.0098908
35962	<geoprocessing describe geometry object object at 0x0F02DB20>	MN	1986	10	109	 219	2002	05	7	10027	E080	26	1100	1	09	2B	555 WEST 131 STREET	C6-1	 	 	 	 	 	MMU	 	 	 	N	G1	10	0	 	TRUSTEES OF COLUMBIA	7524	7800	7800	0	0	0	7800	0	0	0	2	1	1.0	0	1	75.0	100.33	75.0	100.0	 	2	N	3	0	101250.0	438750.0	0.0	0.0	1925	0	0	 	 	1.04	3.44	6.0	6.5	1	1019860010.0	0	0219	996453	237072	6a	 	111S003	10707	R-146	0.0	 	1	16V2	0	340.778302461	7006.31847258
35963	<geoprocessing describe geometry object object at 0x0F02DB20>	MN	1987	41	109	 219	2000	05	7	10031	E080	30	1100	1	09	2B	508 WEST 134 STREET	R7A	 	 	 	 	 	 	 	 	 	N	C1	02	0	P	RESTORING COMMUNITIES	3997	13765	0	13765	0	0	0	0	0	0	2	1	5.0	16	16	40.0	99.92	40.0	87.0	 	2	N	5	2	31050.0	513900.0	31050.0	513900.0	1905	1986	0	 	 	3.44	4.0	0.0	4.0	1	1019870041.0	0	0219	997069	237440	6a	 	111S012	10707	 	0.0	 	1	16V2	0	286.002839078	4135.59868543
35964	<geoprocessing describe geometry object object at 0x0F02DB20>	MN	1987	13	109	 219	2001	05	7	10027	E080	30	1100	1	09	2B	541 WEST 133 STREET	R7A	 	 	 	 	 	 	 	 	 	N	C6	02	0	P	541-43 WEST 133RD ST	4996	19872	0	19872	0	0	0	0	0	0	2	1	6.0	36	36	50.0	99.92	50.0	85.0	 	3	N	5	2	66600.0	525150.0	66600.0	172818.0	1905	0	0	 	 	3.98	4.0	0.0	4.0	1	1019870013.0	0	0219	996787	237479	6a	 	111S012	10707	 	0.0	 	1	16V2	0	307.337143082	5205.31906328
35965	<geoprocessing describe geometry object object at 0x0F02D080>	MN	1967	45	109	 213.03	2002	05	7	10027	E037	26	1100	1	09	2B	461 WEST 126 STREET	M1-5/R7-2	 	 	 	 	 	MX-15	 	 	 	N	F9	06	0	P	HARLEM GREEN LLC	26897	76672	76672	0	0	0	0	0	47528	0	2	4	5.0	0	6	280.39	99.92	50.0	106.0	 	3	Y	5	2	1537200.0	2284650.0	0.0	0.0	1980	2007	0	 	 	2.85	4.0	5.0	6.5	1	1019670045.0	0	021303	996725	235733	6a	 	107N095	10707	E-284	1019670045.0	09/27/2013	1	16V2	0	749.163258011	24914.8261244
35967	<geoprocessing describe geometry object object at 0x0F02D080>	MN	2086	43	109	 223.01	3000	06	7	10031	E080	30	900	1	09	2A	618 WEST 138 STREET	R6A	 	 	 	 	 	 	 	 	 	N	C3	02	0	P	SCHRAMM, RONALD M.	1599	4178	0	4178	0	0	0	0	0	0	2	1	4.0	4	4	16.0	99.92	16.0	55.0	E	0	N	5	5	83422.0	151262.0	0.0	0.0	1900	1992	0	 	 	2.61	3.0	0.0	3.0	1	1020860043.0	0	022301	996756	238848	6a	 	111S020	10710	 	0.0	 	1	16V2	0	234.113127481	1494.36349915
35968	<geoprocessing describe geometry object object at 0x0F02D080>	MN	1998	6	109	 219	1008	05	7	10027	E080	26	1100	1	09	2A	653 WEST 131 STREET	C6-1	 	 	 	 	 	MMU	 	 	 	N	G1	10	0	P	THE TRUSTEES OF COLUM	4996	4996	4996	0	0	0	4996	0	0	0	2	1	1.0	0	1	50.0	99.92	50.0	100.0	 	2	N	5	0	69750.0	214200.0	0.0	0.0	1930	0	0	 	 	1.0	3.44	6.0	6.5	1	1019980006.0	0	0219	995575	237559	5c	 	111S002	10707	R-145	0.0	 	1	16V2	0	299.768710264	5022.55304749
35969	<geoprocessing describe geometry object object at 0x0F02DAC0>	MN	2002	55	109	 223.01	3006	06	7	10031	E080	30	900	1	09	2A	612 WEST 137 STREET	R8	 	 	 	 	 	 	 	 	 	N	D1	03	0	 	M.E.I.T. ASSOC., L.L.	6495	27810	0	27810	0	0	0	0	0	0	2	1	6.0	48	48	65.0	99.92	65.0	86.0	 	3	N	5	2	126900.0	1357650.0	0.0	0.0	1905	1986	0	 	 	4.28	6.02	0.0	6.5	1	1020020055.0	0	022301	996647	238612	6a	 	111S020	10707	 	0.0	 	1	16V2	0	340.450518667	6845.23316031
35970	<geoprocessing describe geometry object object at 0x0F02DAC0>	MN	1982	63	109	 219	1014	05	7	10027	E037	26	1100	1	09	2B	565 WEST 125 STREET	R7A	 	 	 	C2-4	 	125	 	 	 	N	C7	04	0	P	565 WEST 125 STREET H	5325	26430	4405	22025	4405	0	0	0	0	0	2	1	6.0	20	22	50.0	100.08	50.0	99.0	E	3	Y	3	2	131400.0	2261250.0	131400.0	1748935.0	1902	1989	0	 	 	4.96	4.0	0.0	4.0	1	1019820063.0	0	0219	995978	236359	5c	 	107N094	10707	 	0.0	 	1	16V2	0	319.936960468	5856.85037479
35972	<geoprocessing describe geometry object object at 0x0F02DAC0>	MN	1953	54	109	 213.03	4002	05	9	10027	E037	26	1100	1	09	2B	362 WEST 127 STREET	R7A	 	 	 	 	 	 	 	 	 	N	C1	02	0	P	127 HOLDINGS, LLC	2498	9018	0	9018	0	0	0	0	0	0	2	1	6.0	14	14	25.0	99.92	25.0	60.0	 	3	N	5	2	191250.0	360710.0	0.0	0.0	2015	0	0	 	 	3.61	4.0	0.0	4.0	1	1019530054.0	0	021303	997433	235159	6a	 	107N097	10706	E-284	0.0	 	1	16V2	0	252.473243932	2390.69492421
35973	<geoprocessing describe geometry object object at 0x0F02DA80>	MN	1999	32	109	 219	1000	05	7	10027	E080	26	1100	1	09	2A	3287 BROADWAY	C6-1	 	 	 	 	 	MMU	 	 	 	N	C4	02	0	P	WHGA RENNAISSANCE APA	2500	7650	0	7650	0	0	0	0	0	0	2	1	4.0	8	8	25.0	100.0	25.0	85.0	 	3	N	5	2	12390.0	140667.0	12390.0	140667.0	1901	1988	0	 	 	3.06	3.44	6.0	6.5	1	1019990032.0	0	0219	996247	237527	5c	Y	111S002	10707	E-188	0.0	 	1	16V2	0	251.145523522	2557.28504398
35974	<geoprocessing describe geometry object object at 0x0F02DA80>	MN	1982	65	109	 219	1014	05	7	10027	E037	26	1100	1	09	2B	12 OLD BROADWAY	R7A	 	 	 	C2-4	 	125	 	 	 	N	C7	04	0	C	HOUSING PRESERVATION	4075	16598	1500	15098	0	1500	0	0	0	0	2	1	6.0	24	26	37.5	110.25	38.0	92.0	 	3	Y	5	2	90000.0	1215000.0	90000.0	1215000.0	1905	0	0	 	 	4.07	4.0	0.0	4.0	1	1019820065.0	0	0219	996023	236416	5c	 	107N094	10707	 	0.0	 	1	16V2	0	298.063126557	4106.26184929
35975	<geoprocessing describe geometry object object at 0x0F02DA80>	MN	1953	7	109	 213.03	4002	05	9	10027	E037	26	1100	1	09	2B	367 WEST 126 STREET	R7A	 	 	 	 	 	 	 	 	 	N	C1	02	0	P	ECDO HOUSES ASSOCIATE	2498	8425	0	8425	0	0	0	0	0	0	2	1	5.0	9	9	25.0	99.92	25.0	68.0	 	3	N	5	2	302032.0	421478.0	302032.0	421478.0	1901	2000	2000	 	 	3.37	4.0	0.0	4.0	1	1019530007.0	0	021303	997317	235106	6a	 	107N097	10706	 	0.0	 	1	16V2	0	252.392979849	2494.90201395
35977	<geoprocessing describe geometry object object at 0x0F02D040>	MN	2086	146	109	 223.01	3000	06	7	10031	E080	30	900	1	09	2A	628 WEST 138 STREET	R6A	 	 	 	 	 	 	 	 	 	N	C5	02	0	P	628 WEST 138TH REALT	1399	2460	0	2460	0	0	0	0	0	0	2	1	3.0	11	11	14.0	99.92	14.0	46.0	E	0	N	5	2	9450.0	103500.0	0.0	0.0	1920	2007	0	 	 	1.76	3.0	0.0	3.0	1	1020860146.0	0	022301	996683	238888	6a	 	111S020	10710	 	0.0	 	1	16V2	0	233.884606129	1482.66626932
35978	<geoprocessing describe geometry object object at 0x0F02D040>	MN	1954	1	109	 213.03	4001	05	9	10027	E037	26	1100	1	09	2B	1 CONVENT AVENUE	R7A	 	 	 	 	 	 	 	 	 	N	C7	04	0	P	1 CONVENT REALTY, LLC	6336	22069	6000	16069	5000	1000	0	0	0	0	2	1	5.0	24	25	112.5	89.0	97.0	87.0	 	2	Y	3	2	28350.0	813600.0	0.0	0.0	1901	0	0	 	 	3.48	4.0	0.0	4.0	1	1019540001.0	0	021303	997289	235431	6a	 	107N097	10706	 	0.0	 	1	16V2	0	351.268781828	6705.19406153
35979	<geoprocessing describe geometry object object at 0x0F02D040>	MN	1999	29	109	 219	1000	05	7	10027	E080	26	1100	1	09	2A	3281 BROADWAY	C6-1	 	 	 	 	 	MMU	 	 	 	N	C7	04	0	P	CHARLES INNISS HOUSIN	2492	13324	815	12509	0	815	0	0	0	0	2	1	4.0	22	23	24.92	100.0	24.92	95.0	 	0	N	3	5	99000.0	265950.0	93060.0	249993.0	1901	0	0	 	 	5.35	3.44	6.0	6.5	1	1019990029.0	0	0219	996209	237460	5c	 	111S002	10707	E-188	0.0	 	1	16V2	0	253.493040451	2674.15174529
35981	<geoprocessing describe geometry object object at 0x0F02D040>	MN	2086	36	109	 223.01	3000	06	7	10031	E080	30	900	1	09	2A	3393 BROADWAY	R8	 	 	 	C1-4	 	 	 	 	 	N	D7	04	0	P	138 BROADWAY ASSOCIAT	10000	46716	4000	42716	0	4000	0	0	0	0	2	1	6.0	33	38	99.92	100.0	100.0	87.0	 	2	N	3	2	203850.0	1548450.0	0.0	0.0	1908	0	0	 	 	4.67	6.02	0.0	6.5	1	1020860036.0	0	022301	996925	238753	6a	 	111S020	10710	 	0.0	 	1	16V2	0	416.553531415	10841.7992412
35983	<geoprocessing describe geometry object object at 0x0F02D580>	MN	1982	73	109	 219	1014	05	7	10027	E037	26	1100	1	09	2A	564 WEST 126 STREET	R7A	 	 	 	C2-4	 	125	 	 	 	N	C7	04	0	 	THOR 560 WEST 126TH S	4121	19255	3200	16055	0	3200	0	0	0	0	2	1	6.0	20	25	63.0	100.0	51.0	98.0	 	3	Y	3	2	112500.0	1400400.0	0.0	0.0	1901	1984	0	 	 	4.67	4.0	0.0	4.0	1	1019820073.0	0	0219	995968	236575	5c	 	107N094	10707	 	0.0	 	1	16V2	0	294.238867114	4627.6728659
35984	<geoprocessing describe geometry object object at 0x0F02D3A0>	MN	1988	134	109	 223.01	2002	06	7	10031	E080	30	900	1	09	2A	3350 BROADWAY	R8	R7A	 	 	C1-4	 	 	 	 	 	Y	D7	04	0	 	3350 BW 136 INC	10491	50742	4500	46242	0	4500	0	0	0	0	2	1	6.0	32	40	99.92	105.0	92.0	96.0	 	2	N	3	2	303300.0	2497500.0	0.0	0.0	1926	0	0	 	 	4.84	6.02	0.0	6.5	1	1019880134.0	0	022301	996892	238179	6a	 	111S021	10707	 	0.0	 	1	16V2	0	422.717452523	11163.0039882
35986	<geoprocessing describe geometry object object at 0x0F02D3A0>	MN	2086	20	109	 223.01	3000	06	7	10031	E080	30	900	1	09	2A	607 WEST 137 STREET	R8	 	 	 	 	 	 	 	 	 	N	D1	03	0	 	WEST 137TH 607 LLC	9160	38750	0	38750	0	0	0	0	0	0	2	1	6.0	36	36	91.67	99.92	92.0	83.0	 	3	N	5	2	93600.0	1354500.0	0.0	0.0	1906	1986	0	 	 	4.23	6.02	0.0	6.5	1	1020860020.0	0	022301	996688	238767	6a	 	111S020	10710	 	0.0	 	1	16V2	0	392.567121793	9587.13117245
35987	<geoprocessing describe geometry object object at 0x0F02DA80>	MN	1988	44	109	 223.01	1000	05	7	10031	E080	30	900	1	09	2B	510 WEST 135 STREET	R7A	 	 	 	 	 	 	 	 	 	N	C1	02	0	P	EASTHATTAN REALTY CO	4580	19056	0	19056	0	0	0	0	0	0	2	1	6.0	24	24	45.83	99.92	46.0	85.0	 	3	N	5	2	72000.0	575550.0	0.0	0.0	1910	0	0	 	 	4.16	4.0	0.0	4.0	1	1019880044.0	0	022301	997112	237716	6a	 	111S021	10707	 	0.0	 	1	16V2	0	290.310932457	4553.43799881
35989	<geoprocessing describe geometry object object at 0x0F02D040>	MN	1999	30	109	 219	1000	05	7	10027	E080	26	1100	1	09	2A	3283 BROADWAY	C6-1	 	 	 	 	 	MMU	 	 	 	N	C4	02	0	P	CHARLES INNISS HOUSIN	2500	7650	0	7650	0	0	0	0	0	0	2	1	4.0	11	11	25.0	100.0	25.0	86.0	 	0	N	5	5	14400.0	262350.0	14400.0	262350.0	1901	0	0	 	 	3.06	3.44	6.0	6.5	1	1019990030.0	0	0219	996222	237483	5c	 	111S002	10707	E-188	0.0	 	1	16V2	0	250.822978788	2541.12305206
35990	<geoprocessing describe geometry object object at 0x0F02DAC0>	MN	2086	11	109	 223.01	3000	06	7	10031	E080	30	900	1	09	2A	600 RIVERSIDE DRIVE	R8	 	 	 	 	 	 	 	 	 	N	D1	03	0	 	WEST 137TH 611 LLC	11492	51876	0	51876	0	0	0	0	0	0	2	1	6.0	39	39	100.08	114.83	96.0	104.0	 	2	Y	3	1	158400.0	1482300.0	0.0	0.0	1920	1986	0	 	 	4.51	6.02	0.0	6.5	1	1020860011.0	0	022301	996516	238863	6a	 	111S020	10710	 	0.0	 	1	16V2	0	438.95884465	11881.1919643
35991	<geoprocessing describe geometry object object at 0x0F02D3A0>	MN	1988	155	109	 223.01	2000	06	7	10031	E080	30	900	1	09	2B	17 HAMILTON PLACE	R8	 	 	 	C1-4	 	 	 	 	 	N	O7	05	0	 	MIABEL REALTY CO. LLC	1080	3126	3126	0	3126	0	0	0	0	0	2	1	3.0	0	2	32.58	44.5	30.0	34.0	 	2	Y	5	0	20250.0	308700.0	0.0	0.0	1900	2004	0	 	 	2.89	6.02	0.0	6.5	1	1019880155.0	0	022301	997097	238433	6a	 	111S021	10707	 	0.0	 	1	16V2	0	146.133533147	1269.34055546
35992	<geoprocessing describe geometry object object at 0x026B7220>	MN	1988	39	109	 223.01	1000	05	7	10031	E080	30	900	1	09	2B	504 WEST 135 STREET	R7A	 	 	 	 	 	 	 	 	 	N	C6	02	0	P	504 WEST 135TH STREET	4580	19056	0	19056	0	0	0	0	0	0	2	1	6.0	24	24	45.83	99.92	46.0	85.0	 	3	N	5	2	58050.0	394650.0	58050.0	159762.0	1910	1986	2005	 	 	4.16	4.0	0.0	4.0	1	1019880039.0	0	022301	997232	237649	6a	 	111S021	10707	 	0.0	 	1	16V2	0	291.422009434	4608.58828123
35995	<geoprocessing describe geometry object object at 0x0F02D040>	MN	1998	57	109	 219	1008	05	7	10027	E080	26	1100	1	09	2A	640 WEST 132 STREET	C6-1	 	 	 	 	 	MMU	 	 	 	N	G9	07	0	 	THE TRUSTEES OF COLUM	9992	7500	7500	0	0	0	7500	0	0	0	2	1	1.0	0	1	100.0	99.92	75.0	100.0	 	3	N	5	0	189000.0	988200.0	0.0	0.0	1910	0	0	 	 	0.75	3.44	6.0	6.5	1	1019980057.0	0	0219	995645	237634	5c	 	111S002	10707	R-145	0.0	 	1	16V2	0	401.474316228	10073.7059159
35996	<geoprocessing describe geometry object object at 0x0F02DAC0>	MN	1953	61	109	 213.03	4002	05	9	10027	E037	26	1100	1	09	2B	175 MORNINGSIDE AVENUE	R7A	 	 	 	 	 	 	 	 	 	N	C1	02	0	P	376 WEST 127 LLC	1875	8735	0	8735	0	0	0	0	0	0	2	1	5.0	10	10	25.0	75.0	25.0	71.0	 	0	N	3	5	138107.0	398387.0	0.0	260280.0	1901	1990	0	 	 	4.66	4.0	0.0	4.0	1	1019530061.0	0	021303	997274	235291	6a	 	107N097	10706	 	0.0	 	1	16V2	0	205.217805744	2033.2267982
35998	<geoprocessing describe geometry object object at 0x026B7220>	MN	1967	24	109	 213.03	2003	05	7	10027	E037	26	1100	1	09	2B	168 MORNINGSIDE AVENUE	R7A	M1-5/R7-2	 	 	 	 	MX-15	 	 	 	Y	W2	08	0	P	CHURCH OF ST JOSEPH	19905	36078	36078	0	0	0	0	0	0	36078	2	2	4.0	0	2	99.33	150.0	49.0	133.0	 	2	Y	3	2	471150.0	2082600.0	0.0	0.0	1860	1982	0	 	 	1.81	4.0	0.0	4.0	1	1019670024.0	0	021303	997084	235353	6a	 	107N095	10707	 	0.0	 	1	16V2	0	714.502569439	20597.1881124
35999	<geoprocessing describe geometry object object at 0x0F02D3A0>	MN	1987	24	109	 219	2001	05	7	10027	E080	30	1100	1	09	2B	519 WEST 133 STREET	R7A	 	 	 	 	 	 	 	 	 	N	D2	03	0	P	HRP-133/134 HOUSINGDE	4996	44568	0	44568	0	0	0	0	0	0	2	2	6.0	108	108	125.0	99.92	125.0	99.92	 	0	N	5	5	78750.0	520650.0	78750.0	520650.0	1994	0	0	 	 	8.92	4.0	0.0	4.0	1	1019870024.0	0	0219	997061	237326	6a	 	111S012	10707	 	1019870024.0	04/10/2000	1	16V2	0	459.249431453	13048.2844232
36002	<geoprocessing describe geometry object object at 0x0F02D040>	MN	1988	101	109	 223.01	2002	06	7	10031	E080	30	900	1	09	2B	505 WEST 135 STREET	R7A	 	 	 	 	 	 	 	 	 	N	C1	02	0	P	505 W 135 ST RLTY CP	3997	13170	0	13170	0	0	0	0	0	0	2	1	5.0	21	21	40.0	99.92	40.0	86.0	 	2	N	5	2	54900.0	414000.0	0.0	0.0	1910	1988	0	 	 	3.29	4.0	0.0	4.0	1	1019880101.0	0	022301	997370	237796	6a	 	111S021	10707	 	0.0	 	1	16V2	0	286.479821215	4098.27160612
36004	<geoprocessing describe geometry object object at 0x026B7220>	MN	1988	131	109	 223.01	2002	06	7	10031	E080	30	900	1	09	2B	536 WEST 136 STREET	R7A	 	 	 	 	 	 	 	 	 	N	D1	03	0	C	HOUSING PRESERVATION	6994	30444	0	30444	0	0	0	0	0	0	2	1	6.0	36	36	70.0	99.92	70.0	86.0	 	3	N	5	2	92250.0	683100.0	92250.0	683100.0	1926	1982	0	 	 	4.35	4.0	0.0	4.0	1	1019880131.0	0	022301	996970	238136	6a	 	111S021	10707	 	0.0	 	1	16V2	0	346.58212375	7226.12314173
36005	<geoprocessing describe geometry object object at 0x0F02DAC0>	MN	1953	7502	109	 213.03	4002	05	9	10027	E037	26	1100	2	09	 	369 WEST 126 STREET	R7A	 	 	 	 	 	 	 	 	 	N	R1	02	1	 	 	2498	6675	0	6675	0	0	0	0	0	0	2	1	6.0	10	10	25.0	99.92	0.0	0.0	 	0	N	5	5	16821.0	188308.0	0.0	73400.0	2007	0	0	 	 	2.67	4.0	0.0	4.0	1	1019537502.0	1784	021303	997295	235119	6a	 	107N097	10706	 	1019530006.0	03/14/2008	1	16V2	7	257.586060787	2758.84818539
36009	<geoprocessing describe geometry object object at 0x0F02D3A0>	MN	1953	3	109	 213.03	4002	05	9	10027	E037	26	1100	1	09	2B	165 MORNINGSIDE AVENUE	R7A	 	 	 	 	 	 	 	 	 	N	C1	02	0	P	161-171 MORNINGSIDE L	1869	7275	0	7275	0	0	0	0	0	0	2	1	5.0	10	10	24.92	75.0	24.92	60.0	 	0	N	5	5	115455.0	364266.0	0.0	248811.0	1901	1990	0	 	 	3.89	4.0	0.0	4.0	1	1019530003.0	0	021303	997212	235180	6a	 	107N097	10706	 	0.0	 	1	16V2	0	200.913095432	1896.18163922
36010	<geoprocessing describe geometry object object at 0x026B7220>	MN	2002	24	109	 223.01	4000	06	7	10031	E080	30	900	1	09	2A	611 WEST 135 STREET	R8	 	 	 	 	 	 	 	 	 	N	C1	02	0	P	609-619 WEST 135 STRE	3997	14260	0	14260	0	0	0	0	0	0	2	1	5.0	21	21	40.0	99.92	40.0	84.0	 	3	N	5	2	36000.0	425250.0	0.0	0.0	1905	1986	0	 	 	3.57	6.02	0.0	6.5	1	1020020024.0	0	022301	996501	238275	6a	 	111S020	10707	 	0.0	 	1	16V2	0	295.617404871	4230.15255493
36011	<geoprocessing describe geometry object object at 0x0F02D040>	MN	2086	54	109	 223.01	3000	06	7	10031	E080	30	900	1	09	2A	604 RIVERSIDE DRIVE	R8	 	 	 	 	 	 	 	 	 	N	D4	03	0	P	604 RIVERSIDE DR OWNE	7049	29750	0	29750	0	0	0	0	0	0	2	1	6.0	32	32	100.58	70.0	98.0	60.0	 	2	Y	3	2	91800.0	1507050.0	53418.0	53418.0	1904	1987	0	 	 	4.22	6.02	0.0	6.5	1	1020860054.0	0	022301	996539	238970	6a	 	111S020	10710	 	0.0	 	1	16V2	0	332.607902414	6467.72020385
36012	<geoprocessing describe geometry object object at 0x0F02DAC0>	MN	1997	1	109	 219	1009	05	7	10027	E037	26	1100	1	09	2A	2283 JOE DIMAGGIO HIGHWAY	C6-1	 	 	 	 	 	MMU	 	 	 	N	V1	11	0	X	THE TRUSTEES OF COLUM	154876	0	0	0	0	0	0	0	0	0	4	0	0.0	0	0	199.83	775.0	0.0	0.0	 	0	N	3	5	13536180.0	13536180.0	13536180.0	13536180.0	0	0	0	 	 	0.0	3.44	6.0	6.5	1	1019970001.0	0	0219	995705	237248	5c	 	111S002	10707	R-143	1019970001.0	09/18/2014	1	16V2	0	1959.64347132	158115.488651
36013	<geoprocessing describe geometry object object at 0x026B7220>	MN	1967	6	109	 213.03	2003	05	7	10027	E037	26	1100	1	09	2B	433 WEST 126 STREET	M1-5/R7-2	 	 	 	 	 	MX-15	 	 	 	N	C1	02	0	P	ZORA NEALE HURSTON HO	3252	5500	0	5500	0	0	0	0	0	0	2	2	5.0	11	11	40.0	87.71	40.0	87.71	 	2	Y	4	2	39150.0	216000.0	0.0	0.0	1901	1987	0	 	 	1.69	4.0	5.0	6.5	1	1019670006.0	0	021303	996854	235499	6a	 	107N095	10707	 	1019670006.0	10/24/2014	1	16V2	0	248.754969872	3379.00266042
36014	<geoprocessing describe geometry object object at 0x0F02D3A0>	MN	1967	5	109	 213.03	 	05	7	10027	E037	26	1100	1	09	2B	        WEST 126 STREET	M1-5/R7-2	 	 	 	 	 	MX-15	 	 	 	N	V9	11	0	 	 	1608	0	0	0	0	0	0	0	0	0	4	0	0.0	0	0	29.75	61.92	0.0	0.0	 	0	Y	4	5	101700.0	101700.0	0.0	0.0	0	0	0	 	 	0.0	4.0	5.0	6.5	1	1019670005.0	0	021303	0	0	6a	 	107N095	10707	 	1019670006.0	10/24/2014	1	16V2	0	175.223220653	1664.53201019
36019	<geoprocessing describe geometry object object at 0x0F02D040>	MN	1988	120	109	 223.01	2002	06	7	10031	E080	30	900	1	09	2B	516 WEST 136 STREET	R7A	 	 	 	 	 	 	 	 	 	N	C1	02	0	P	516 W 136 LLC	3747	15048	0	15048	0	0	0	0	0	0	2	1	6.0	24	24	37.5	99.92	38.0	84.0	 	3	N	5	2	58500.0	628200.0	0.0	0.0	1910	1985	0	 	 	4.02	4.0	0.0	4.0	1	1019880120.0	0	022301	997224	237995	6a	 	111S021	10707	 	0.0	 	1	16V2	0	283.543615882	3966.48404061
36039	<geoprocessing describe geometry object object at 0x026B7220>	MN	1969	48	109	 213.03	3000	05	9	10027	E037	26	1100	1	09	2B	49 ST NICHOLAS TERRACE	R7A	 	 	 	 	 	 	 	 	 	N	D1	03	0	 	49 TERRACE CORP	14288	67440	0	67440	0	0	0	0	0	0	2	1	6.0	61	61	99.92	143.0	97.0	127.0	 	2	N	3	2	235350.0	1417500.0	0.0	0.0	1926	1986	1989	 	 	4.72	4.0	0.0	4.0	1	1019690048.0	0	021303	997727	235891	6a	 	107N096	10707	 	0.0	 	1	16V2	0	503.854536745	15570.5615452
36094	<geoprocessing describe geometry object object at 0x0F02DAC0>	MN	1969	34	109	 213.03	3000	05	9	10027	E037	26	1100	1	09	2B	409 WEST 129 STREET	R7A	 	 	 	 	 	 	 	 	 	N	D1	03	0	P	409 REALTY CORP	14438	61602	0	61602	0	0	0	0	0	0	2	1	6.0	48	48	144.5	99.92	135.0	82.0	 	1	N	5	2	157050.0	963450.0	0.0	0.0	1920	0	0	 	 	4.27	4.0	0.0	4.0	1	1019690034.0	0	021303	997548	235867	6a	 	107N096	10707	 	0.0	 	1	16V2	0	504.68180667	15492.5207124
36096	<geoprocessing describe geometry object object at 0x0F02D3A0>	MN	1954	12	109	 213.03	4000	05	9	10027	E037	26	1100	1	09	2B	2 ST NICHOLAS TERRACE	R8	 	 	 	 	 	 	 	 	 	N	C7	04	0	P	3750 BROADWAY REALTY	3133	12795	1200	11595	0	1200	0	0	0	0	2	1	5.0	16	18	40.17	78.0	40.0	70.0	 	2	N	3	1	70650.0	561150.0	0.0	0.0	1901	0	0	 	 	4.08	6.02	0.0	6.5	1	1019540012.0	0	021303	997555	235238	6a	 	107N097	10706	 	0.0	 	1	16V2	0	239.759792065	3271.21708848
36119	<geoprocessing describe geometry object object at 0x026B7220>	MN	1968	39	109	 213.03	3001	05	9	10027	E037	26	1100	1	09	2B	25 ST NICHOLAS TERRACE	R7A	 	 	 	 	 	 	 	 	 	N	D7	04	0	P	ARYEH FAMILY HOLDINGS	10991	50832	2000	48832	0	2000	0	0	0	0	2	1	6.0	55	56	99.92	110.0	98.0	100.0	 	2	N	3	1	193050.0	1280700.0	0.0	0.0	1920	1989	0	 	 	4.62	4.0	0.0	4.0	1	1019680039.0	0	021303	997565	235564	6a	 	107N096	10707	 	0.0	 	1	16V2	0	425.909536665	11324.9617866
36158	<geoprocessing describe geometry object object at 0x0F02D040>	MN	1957	10	109	 217.03	1002	05	9	10027	E080	26	900	1	09	2B	401 WEST 130 STREET	R7-2	 	 	 	 	 	 	 	 	 	N	W1	08	0	C	DCAS/DEPARTMENT OF ED	49220	99300	99300	0	99300	0	0	0	0	0	2	1	3.0	0	2	460.0	107.0	392.0	86.0	 	3	Y	3	2	1057500.0	7788150.0	1057500.0	7788150.0	1957	0	0	 	 	2.02	3.44	0.0	6.5	1	1019570010.0	0	021703	997521	236181	6a	 	111S023	10706	 	0.0	 	1	16V2	0	1185.22159607	50429.644315
36171	<geoprocessing describe geometry object object at 0x0F02DAC0>	MN	1968	37	109	 213.03	3001	05	9	10027	E037	26	1100	1	09	2B	411 WEST 128 STREET	R7A	 	 	 	 	 	 	 	 	 	N	C1	02	0	C	HOUSING PRESERVATION	6045	21060	0	21060	0	0	0	0	0	0	2	1	5.0	30	30	60.5	99.92	61.0	86.0	 	2	N	5	2	82800.0	883350.0	82800.0	883350.0	1920	1986	0	 	 	3.48	4.0	0.0	4.0	1	1019680037.0	0	021303	997490	235605	6a	 	107N096	10707	 	0.0	 	1	16V2	0	328.186359287	6304.2480402
36173	<geoprocessing describe geometry object object at 0x026B7220>	MN	1957	27	109	 	 	 	9	0	 	26	0	 	 	 	        ST NICHOLAS AVENUE	R7-2	 	 	 	 	 	 	 	 	 	N	V5	11	0	O	NY STATE DORM AUTH	6919	0	0	0	0	0	0	0	0	0	4	0	0.0	0	0	58.0	122.0	0.0	0.0	 	0	Y	6	5	630900.0	630900.0	630900.0	630900.0	0	0	0	 	 	0.0	3.44	0.0	6.5	1	1019570027.0	0	0000	0	0	6a	 	111S023	10706	 	0.0	 	1	16V2	0	399.751584262	7964.9377549
36177	<geoprocessing describe geometry object object at 0x0F02D3A0>	MN	1954	18	109	 213.03	4000	05	9	10027	E037	26	1100	1	09	2B	        ST NICHOLAS TERRACE	R8	 	 	 	 	 	 	 	 	 	N	V1	11	0	C	DCAS	726	0	0	0	0	0	0	0	0	0	4	0	0.0	0	0	0.4	181.58	0.0	0.0	 	0	N	5	5	63270.0	63270.0	63270.0	63270.0	0	0	0	 	 	0.0	6.02	0.0	6.5	1	1019540018.0	0	021303	997687	235366	6a	 	107N097	10706	 	0.0	 	1	16V2	0	373.447541314	61.4879980396
36191	<geoprocessing describe geometry object object at 0x0F02D040>	MN	1968	46	109	 213.03	3001	05	9	10027	E037	26	1100	1	09	2B	408 WEST 129 STREET	R7A	 	 	 	 	 	 	 	 	 	N	C1	02	0	P	408-412 PINEAPPLE, LL	6394	22540	0	22540	0	0	0	0	0	0	2	1	5.0	30	30	64.0	99.92	64.0	82.0	 	2	N	5	2	86400.0	1166400.0	0.0	0.0	1920	0	0	 	 	3.53	4.0	0.0	4.0	1	1019680046.0	0	021303	997537	235696	6a	 	107N096	10707	 	0.0	 	1	16V2	0	338.297303875	6812.19970971
36212	<geoprocessing describe geometry object object at 0x026B7220>	MN	1957	15	109	 	 	 	9	0	 	26	0	 	 	 	        ST NICHOLAS AVENUE	R7-2	 	 	 	 	 	 	 	 	 	N	V5	11	0	O	DASNY	4424	0	0	0	0	0	0	0	0	0	4	0	0.0	0	0	46.0	96.17	0.0	0.0	 	0	N	5	5	423450.0	423450.0	423450.0	423450.0	0	0	0	 	 	0.0	3.44	0.0	6.5	1	1019570015.0	0	0000	0	0	6a	 	111S023	10706	 	0.0	 	1	16V2	0	275.058387672	4103.9974992
36229	<geoprocessing describe geometry object object at 0x0F02DAC0>	MN	1957	18	109	 	 	 	9	0	 	26	0	 	 	 	        ST NICHOLAS AVENUE	R7-2	 	 	 	 	 	 	 	 	 	N	V5	11	0	O	DASNY	9943	0	0	0	0	0	0	0	0	0	4	0	0.0	0	0	216.17	46.0	0.0	0.0	 	0	N	5	5	1015650.0	1015650.0	1015650.0	1015650.0	0	0	0	 	 	0.0	3.44	0.0	6.5	1	1019570018.0	0	0000	0	0	6a	 	111S023	10706	 	0.0	 	1	16V2	0	518.877037107	9590.62397389
36250	<geoprocessing describe geometry object object at 0x0F02D3A0>	MN	1954	16	109	 213.03	4000	05	9	10027	E037	26	1100	1	09	2B	10 ST NICHOLAS TERRACE	R8	 	 	 	 	 	 	 	 	 	N	C6	02	0	P	10 ST. NICHOLAS TERRA	3087	10420	0	10420	0	0	0	0	0	0	2	1	5.0	10	10	38.58	80.0	39.0	68.0	 	2	N	5	2	62277.0	86880.0	2360.0	2360.0	1901	1987	0	 	 	3.38	6.02	0.0	6.5	1	1019540016.0	0	021303	997631	235373	6a	 	107N097	10706	 	0.0	 	1	16V2	0	239.528892951	3182.03203652
36289	<geoprocessing describe geometry object object at 0x026B7220>	MN	1957	1	109	 217.03	1002	05	9	10027	E080	26	900	1	09	2B	85 CONVENT AVENUE	R7-2	 	 	 	 	 	 	 	 	 	N	W5	08	0	O	PEOPLE OF STATE OF N.	477375	400160	400160	0	400160	0	0	0	0	0	2	9	5.0	0	1	1218.33	245.67	460.0	1300.0	 	0	Y	5	5	10741050.0	330451200.0	10741050.0	330451200.0	1930	0	0	 	 	0.84	3.44	0.0	6.5	1	1019570001.0	0	021703	997770	236723	6a	 	111S023	10706	 	0.0	 	1	16V2	0	6445.02189957	487704.850209
36340	<geoprocessing describe geometry object object at 0x0F02D040>	MN	1957	2	109	 	 	 	9	0	 	26	0	 	 	 	        ST NICHOLAS AVENUE	R7-2	 	 	 	 	 	 	 	 	 	N	V5	11	0	O	DASNY	3208	0	0	0	0	0	0	0	0	0	4	0	0.0	0	0	50.0	64.17	0.0	0.0	 	0	N	5	5	313650.0	313650.0	313650.0	313650.0	0	0	0	 	 	0.0	3.44	0.0	6.5	1	1019570002.0	0	0000	0	0	6a	 	111S004	10706	 	0.0	 	1	16V2	0	220.123298504	2976.74324155
36354	<geoprocessing describe geometry object object at 0x0F02DAC0>	MN	1957	20	109	 217.03	1002	05	9	10027	E080	26	900	1	09	2B	        ST NICHOLAS AVENUE	R7-2	 	 	 	 	 	 	 	 	 	N	V5	11	0	X	NYS DORM AUTH	127584	0	0	0	0	0	0	0	0	0	4	0	0.0	0	0	294.58	427.0	0.0	0.0	 	0	Y	5	5	10953833.0	10953833.0	10953833.0	10953833.0	0	0	0	 	 	0.0	3.44	0.0	6.5	1	1019570020.0	0	021703	997711	236374	6a	 	111S023	10706	 	0.0	 	1	16V2	0	1795.62056226	119843.910758
36370	<geoprocessing describe geometry object object at 0x026B7220>	MN	1954	50	109	 213.03	4000	05	9	10027	E037	26	1100	1	09	2B	343 ST NICHOLAS AVENUE	R8	 	 	 	 	 	 	 	 	 	N	D7	04	0	P	SUGAREE REALTY, LLC	8278	39486	2643	36843	0	2643	0	0	0	0	2	1	6.0	50	56	111.0	89.0	106.0	84.0	 	2	Y	3	2	186300.0	1274400.0	0.0	0.0	1926	1988	0	 	 	4.77	6.02	0.0	6.5	1	1019540050.0	0	021303	997645	235229	6a	 	107N097	10706	 	0.0	 	1	16V2	0	398.322553975	9582.82792091
36374	<geoprocessing describe geometry object object at 0x0F02D3A0>	MN	1969	50	109	 213.03	3000	05	9	10027	E037	26	1100	1	09	2B	408 WEST 130 STREET	R7A	 	 	 	 	 	 	 	 	 	N	D1	03	0	 	BTG LLC	14438	63264	0	63264	0	0	0	0	0	0	2	1	6.0	83	83	144.5	99.92	135.0	82.0	 	1	N	5	2	292500.0	2914200.0	0.0	1345038.0	1926	1985	0	 	 	4.38	4.0	0.0	4.0	1	1019690050.0	0	021303	997600	235961	6a	 	107N096	10707	 	0.0	 	1	16V2	0	509.319601346	15832.8817509
36391	<geoprocessing describe geometry object object at 0x0F02D040>	MN	1954	46	109	 213.03	4000	05	9	10027	E037	26	1100	1	09	2B	351 ST NICHOLAS AVENUE	R8	 	 	 	 	 	 	 	 	 	N	D1	03	0	P	351 ST. NICHOLAS AVEN	8693	35212	0	35212	0	0	0	0	0	0	2	1	6.0	36	36	85.58	101.58	84.0	87.0	 	2	Y	5	2	195750.0	915300.0	0.0	0.0	1926	1988	0	 	 	4.05	6.02	0.0	6.5	1	1019540046.0	0	021303	997699	235311	6a	 	107N097	10706	 	0.0	 	1	16V2	0	372.30599973	8561.90422893
36419	<geoprocessing describe geometry object object at 0x026B7220>	MN	1954	13	109	 213.03	4000	05	9	10027	E037	26	1100	1	09	2B	4 ST NICHOLAS TERRACE	R8	 	 	 	 	 	 	 	 	 	N	C4	02	0	P	3750 BROADWAY REALTY	3087	10420	0	10420	0	0	0	0	0	0	2	1	5.0	10	10	38.58	80.0	39.0	68.0	 	3	N	5	2	55358.0	77227.0	0.0	0.0	1901	0	0	 	 	3.38	6.02	0.0	6.5	1	1019540013.0	0	021303	997575	235273	6a	 	107N097	10706	 	0.0	 	1	16V2	0	236.260372681	3054.49594808
36423	<geoprocessing describe geometry object object at 0x0F02DAC0>	MN	1969	40	109	 213.03	3000	05	9	10027	E037	26	1100	1	09	2B	41 ST NICHOLAS TERRACE	R7A	 	 	 	 	 	 	 	 	 	N	D7	04	0	P	41-47 NICK LLC	14288	66300	3000	63300	0	3000	0	0	0	0	2	1	6.0	71	74	99.92	143.0	96.0	127.0	 	1	N	3	1	234450.0	2338200.0	0.0	0.0	1926	0	0	 	 	4.64	4.0	0.0	4.0	1	1019690040.0	0	021303	997676	235797	6a	 	107N096	10707	 	0.0	 	1	16V2	0	497.290978211	15089.5103245
36425	<geoprocessing describe geometry object object at 0x0F02D3A0>	MN	1968	49	109	 213.03	3001	05	9	10027	E037	26	1100	1	09	2B	412 WEST 129 STREET	R7A	 	 	 	 	 	 	 	 	 	N	C1	02	0	P	408-412 PINEAPPLE, LL	6395	22540	0	22540	0	0	0	0	0	0	2	1	5.0	30	30	64.0	99.92	64.0	82.0	 	3	N	5	2	86400.0	1166400.0	0.0	0.0	1910	0	0	 	 	3.52	4.0	0.0	4.0	1	1019680049.0	0	021303	997480	235728	6a	 	107N096	10707	 	0.0	 	1	16V2	0	336.063451172	6690.25581991
36453	<geoprocessing describe geometry object object at 0x026B7220>	MN	1957	16	109	 	 	 	9	0	 	26	0	 	 	 	        ST NICHOLAS AVENUE	R7-2	 	 	 	 	 	 	 	 	 	N	V5	11	0	O	DASNY	3320	0	0	0	0	0	0	0	0	0	4	0	0.0	0	0	46.0	72.17	0.0	0.0	 	0	N	5	5	321750.0	321750.0	321750.0	321750.0	0	0	0	 	 	0.0	3.44	0.0	6.5	1	1019570016.0	0	0000	0	0	6a	 	111S023	10706	 	0.0	 	1	16V2	0	229.031386982	3107.19816442
36486	<geoprocessing describe geometry object object at 0x0F02D040>	MN	1957	5	109	 217.03	1002	05	9	10031	E080	26	900	1	09	2B	401 WEST 130 STREET	R7-2	 	 	 	 	 	 	 	 	 	N	H8	08	0	P	DORMITORY AUTHORITY	30749	178000	0	0	0	0	0	0	0	0	2	1	11.0	0	1	150.0	205.0	205.0	149.0	 	0	Y	3	1	1995300.0	11899350.0	1995300.0	11899350.0	2005	0	0	 	 	5.79	3.44	0.0	6.5	1	1019570005.0	0	021703	997822	236072	6a	 	111S023	10706	 	0.0	 	1	16V2	0	709.711090297	30648.8471581
36531	<geoprocessing describe geometry object object at 0x0F02DAC0>	MN	1954	14	109	 213.03	4000	05	9	10027	E037	26	1100	1	09	2B	6 ST NICHOLAS TERRACE	R8	 	 	 	 	 	 	 	 	 	N	D1	03	0	P	6 SNT PARTNERS LLC	3087	10420	0	10420	0	0	0	0	0	0	2	1	5.0	15	15	38.58	80.0	39.0	68.0	 	3	N	5	1	42750.0	1076850.0	0.0	0.0	1901	2008	0	 	 	3.38	6.02	0.0	6.5	1	1019540014.0	0	021303	997594	235307	6a	 	107N097	10706	 	0.0	 	1	16V2	0	236.055264341	3045.2520717
36574	<geoprocessing describe geometry object object at 0x026B7220>	MN	1954	15	109	 213.03	4000	05	9	10027	E037	26	1100	1	09	2B	8 ST NICHOLAS TERRACE	R8	 	 	 	 	 	 	 	 	 	N	C4	02	0	P	WGHA SCHOMBURG PLACE	3087	10420	0	10420	0	0	0	0	0	0	2	1	5.0	10	10	38.58	80.0	39.0	68.0	 	3	N	5	2	41518.0	57920.0	41518.0	57920.0	1901	0	0	 	 	3.38	6.02	0.0	6.5	1	1019540015.0	0	021303	997612	235340	6a	 	107N097	10706	 	0.0	 	1	16V2	0	235.02935176	3003.20212377
36605	<geoprocessing describe geometry object object at 0x0F02D3A0>	MN	1968	44	109	 213.03	3001	05	9	10027	E037	26	1100	1	09	2B	35 ST NICHOLAS TERRACE	R7A	 	 	 	 	 	 	 	 	 	N	D1	03	0	P	ARYEH FAMILY HOLDINGS	10991	50832	0	50832	0	0	0	0	0	0	2	1	6.0	53	53	99.92	110.0	98.0	110.0	 	2	N	3	1	222750.0	1250100.0	0.0	0.0	1920	1989	0	 	 	4.62	4.0	0.0	4.0	1	1019680044.0	0	021303	997615	235654	6a	 	107N096	10707	 	0.0	 	1	16V2	0	425.575608124	11306.5961319
36607	<geoprocessing describe geometry object object at 0x0F02D040>	MN	1957	3	109	 	 	 	9	0	 	26	0	 	 	 	        ST NICHOLAS AVENUE	R7-2	 	 	 	 	 	 	 	 	 	N	V5	11	0	O	DASNY	3808	0	0	0	0	0	0	0	0	0	4	0	0.0	0	0	50.0	76.17	0.0	0.0	 	0	N	6	5	351900.0	351900.0	351900.0	351900.0	0	0	0	 	 	0.0	3.44	0.0	6.5	1	1019570003.0	0	0000	0	0	6a	 	111S023	10706	 	0.0	 	1	16V2	0	248.308621433	3606.45365915
36609	<geoprocessing describe geometry object object at 0x026B7220>	MN	1954	11	109	 213.03	4001	05	9	10027	E037	26	1100	1	09	2B	400 WEST 128 STREET	R7A	 	 	 	 	 	 	 	 	 	N	C4	02	0	P	ARYEH FAMILY HOLDINGS	12490	46965	0	46965	0	0	0	0	0	0	2	2	5.0	56	56	125.0	99.92	125.0	90.0	 	2	N	3	2	140400.0	1174500.0	0.0	0.0	1926	1988	0	 	 	3.76	4.0	0.0	4.0	1	1019540011.0	0	021303	997481	235433	6a	 	107N097	10706	 	0.0	 	1	16V2	0	448.722581542	12410.7581516
36648	<geoprocessing describe geometry object object at 0x0F02DAC0>	MN	1953	12	109	 213.03	4002	05	9	10027	E037	26	1100	1	09	2B	327 ST NICHOLAS AVENUE	R8	R7A	 	 	 	 	 	 	 	 	Y	D9	03	0	P	327 ST NICHOLAS LLC	22245	80237	0	80237	0	0	0	0	0	0	2	1	5.0	73	73	202.0	108.92	193.0	165.0	 	1	Y	3	2	499500.0	2818800.0	0.0	2209300.0	1900	1992	0	 	 	3.61	6.02	0.0	6.5	1	1019530012.0	0	021303	997500	235063	6a	 	107N097	10706	 	0.0	 	1	16V2	0	661.422128769	23041.8540561
36723	<geoprocessing describe geometry object object at 0x0F02D3A0>	MN	1957	60	109	 213.03	3000	05	9	10027	E037	26	1100	1	09	2B	57 ST NICHOLAS TERRACE	R7-2	 	 	 	 	 	 	 	 	 	N	W5	08	0	P	DORMITORY AUTHORITY	3344	3900	3900	0	0	0	0	0	0	3900	2	1	1.0	1	1	22.0	43.5	22.0	43.5	 	0	Y	5	5	87300.0	347850.0	87300.0	347850.0	1900	0	0	 	 	1.17	3.44	0.0	6.5	1	1019570060.0	0	021303	998712	238154	6a	 	111S023	10706	 	0.0	 	1	16V2	0	233.662956571	3298.9303513
36763	<geoprocessing describe geometry object object at 0x026B7220>	MN	1957	129	109	 217.03	1000	06	9	10031	E080	26	900	1	09	2B	275 CONVENT AVENUE	R7-2	 	 	 	 	 	 	 	 	 	N	W5	08	0	O	DASNY	41000	272500	272500	0	272500	0	0	0	0	0	2	1	9.0	0	1	199.83	222.0	199.0	199.0	 	0	Y	3	5	821250.0	22269600.0	821250.0	22269600.0	1960	0	0	 	 	6.65	3.44	0.0	6.5	1	1019570129.0	0	021703	998676	238616	6a	 	111S023	10706	 	0.0	 	1	16V2	0	833.645888415	41082.7484364
36845	<geoprocessing describe geometry object object at 0x0F02D040>	MN	1957	200	109	 217.03	1004	06	9	10031	E080	26	900	1	09	2B	160 CONVENT AVENUE	R7-2	 	 	 	 	 	 	 	 	 	N	W5	08	0	P	DORMITORY AUTH/STATE	433411	873000	873000	0	873000	0	0	0	0	0	2	5	5.0	0	1	1239.08	350.0	200.83	125.83	 	0	N	5	5	9751950.0	114079500.0	9751950.0	114079500.0	1979	2002	0	 	CITY COLLEGE, CITY UNIVERSITY OF NE	2.01	3.44	0.0	6.5	1	1019570200.0	0	021703	997991	238106	6a	 	111S023	10706	 	0.0	 	1	16V2	0	3226.32912284	459765.993337
36859	<geoprocessing describe geometry object object at 0x0F02DAC0>	MN	1957	100	109	 217.03	1003	06	9	10031	E080	26	900	1	09	2B	181 CONVENT AVENUE	R7-2	 	 	 	 	 	 	 	 	 	N	W5	08	0	O	DORMITORY AUTHORITY O	144342	620000	620000	0	0	0	0	0	0	620000	2	2	13.0	0	1	396.67	408.08	397.67	408.08	 	0	Y	5	2	3247650.0	58598100.0	3247650.0	58598100.0	1971	0	0	 	 	4.3	3.44	0.0	6.5	1	1019570100.0	0	021703	998307	237759	6a	 	111S023	10706	 	0.0	 	1	16V2	0	1552.84644568	155616.520042
36864	<geoprocessing describe geometry object object at 0x026B7220>	MN	1957	78	109	 217.03	1003	06	9	10031	E080	26	900	1	09	2B	161 CONVENT AVENUE	R7-2	 	 	 	 	 	 	 	 	 	N	W1	08	0	C	DCAS/DEPARTMENT OF ED	76550	178452	178452	0	178452	0	0	0	0	0	2	1	7.0	0	1	263.42	321.25	225.0	278.0	 	0	Y	3	2	1764000.0	7730550.0	1764000.0	7730550.0	1925	0	0	 	NEW YORK TRAINING SCHOOL FOR TEACHE	2.33	3.44	0.0	6.5	1	1019570078.0	0	021703	998101	237490	6a	 	111S023	10706	 	0.0	 	1	16V2	0	1147.56601321	77305.2605291
36877	<geoprocessing describe geometry object object at 0x0F02D3A0>	MN	1988	109	109	 223.01	2002	06	7	10031	E080	30	900	1	09	2B	1536 AMSTERDAM AVENUE	R7A	 	 	 	C1-4	 	 	 	 	 	N	C7	04	0	P	502 WEST 136TH REALTY	3992	19428	1800	17628	0	1800	0	0	0	0	2	1	6.0	23	27	39.92	100.0	40.0	87.0	 	2	N	3	2	161550.0	831150.0	0.0	0.0	1910	1985	0	 	 	4.87	4.0	0.0	4.0	1	1019880109.0	0	022301	997496	237880	6a	 	111S021	10707	 	0.0	 	1	16V2	0	283.285658866	4195.83371897
36948	<geoprocessing describe geometry object object at 0x0F02D040>	MN	1957	110	109	 217.03	1003	06	9	10031	E080	26	900	1	09	2B	183 CONVENT AVENUE	R7-2	 	 	 	 	 	 	 	 	 	N	W5	08	0	P	CUNY	30026	8100	8100	0	8100	0	0	0	0	0	2	1	1.0	0	1	144.0	94.0	144.0	144.0	 	2	Y	5	0	634500.0	1718550.0	634500.0	1718550.0	1985	0	0	 	 	0.27	3.44	0.0	6.5	1	1019570110.0	0	021703	998342	238115	6a	 	111S023	10706	 	0.0	 	1	16V2	0	895.664338897	28553.5623331
37011	<geoprocessing describe geometry object object at 0x026B7220>	MN	1957	140	109	 217.03	1000	05	9	10030	E080	26	900	1	10	3A	48 ST NICHOLAS AVENUE	PARK	 	 	 	 	 	 	 	 	 	N	Q1	09	0	C	PARKS AND RECREATION	981200	1410	1410	0	0	0	0	0	0	1410	2	4	1.0	0	1	3459.5	349.83	40.0	35.0	 	0	Y	5	5	20743650.0	25423650.0	20743650.0	25423650.0	1940	0	0	 	HAMILTON GRANGE	0.0	0.0	0.0	0.0	1	1019570140.0	0	021703	998416	237035	6a	 	111S023	10706	 	0.0	 	1	16V2	0	7646.50289777	988927.381386
37048	<geoprocessing describe geometry object object at 0x0F02DAC0>	MN	1957	28	109	 217.03	1002	05	9	10027	E080	26	900	1	09	2B	115 CONVENT AVENUE	R7-2	 	 	 	 	 	 	 	 	 	N	W2	08	0	O	NY STATE DORM AUTH	79704	54000	54000	0	0	0	0	0	0	54000	2	1	4.0	0	1	464.0	75.0	151.0	224.83	 	0	Y	5	5	2106000.0	8537850.0	2106000.0	8537850.0	1978	0	0	 	 	0.68	3.44	0.0	6.5	1	1019570028.0	0	021703	997728	237153	6a	 	111S023	10706	 	0.0	 	1	16V2	0	1808.70605832	83716.1277345
37087	<geoprocessing describe geometry object object at 0x0F02D3A0>	MN	1957	50	109	 	 	 	9	0	 	26	0	 	 	 	        ST NICHOLAS AVENUE	R7-2	 	 	 	 	 	 	 	 	 	N	V5	11	0	P	DORMITORY AUTHORITY	9067	0	0	0	0	0	0	0	0	0	4	0	0.0	0	0	220.0	43.42	0.0	0.0	 	0	Y	5	5	934200.0	934200.0	934200.0	934200.0	0	0	0	 	 	0.0	3.44	0.0	6.5	1	1019570050.0	0	0000	0	0	6a	 	111S023	10706	 	0.0	 	1	16V2	0	504.755816686	10428.280063
37233	<geoprocessing describe geometry object object at 0x026B7220>	MN	1988	200	109	 223.01	2000	06	7	10031	E080	30	900	1	09	2B	1540 AMSTERDAM AVENUE	PARK	 	 	 	 	 	 	 	 	 	N	Q1	09	0	C	PARKS AND RECREATION	168375	600	600	0	600	0	0	0	0	0	2	2	1.0	0	1	459.67	365.0	30.0	20.0	 	0	N	5	5	4481550.0	5334750.0	4481550.0	5334750.0	1987	1987	0	 	 	0.0	0.0	0.0	0.0	1	1019880200.0	0	022301	997528	238215	6a	 	111S021	10707	 	0.0	 	1	16V2	0	1651.74960547	168219.271407
37324	<geoprocessing describe geometry object object at 0x0F02D040>	MN	1971	18	109	 213.03	1000	05	9	10031	E080	26	1100	1	09	2B	1501 AMSTERDAM AVENUE	PARK	 	 	 	 	 	 	 	 	 	N	Q0	09	0	C	CITY OF NEW YORK	94297	9007	9007	0	0	0	0	0	0	9007	2	2	1.0	0	1	299.67	314.67	24.0	135.0	 	1	Y	3	0	2322000.0	2837250.0	2322000.0	2837250.0	1940	0	0	 	CROTON AQUEDUCT GATE HOUSE	0.1	0.0	0.0	0.0	1	1019710018.0	0	021303	997551	237415	6a	 	111S013	10707	 	0.0	 	1	16V2	0	1153.91151802	75053.0864225
37355	<geoprocessing describe geometry object object at 0x0F02DAC0>	MN	1957	25	109	 	 	 	9	0	 	26	0	 	 	 	        CONVENT AVENUE	R7-2	 	 	 	 	 	 	 	 	 	N	V5	11	0	X	DORMITORY AUTH	9382	0	0	0	0	0	0	0	0	0	4	0	0.0	0	0	72.17	130.0	0.0	0.0	 	0	N	5	5	888300.0	888300.0	888300.0	888300.0	0	0	0	 	 	0.0	3.44	0.0	6.5	1	1019570025.0	0	0000	0	0	6a	 	111S023	10706	 	0.0	 	1	16V2	0	401.463709866	9182.6118898
37384	<geoprocessing describe geometry object object at 0x026B7220>	MN	1957	105	109	 217.03	1003	06	9	10031	E080	26	900	1	09	2B	259 CONVENT AVENUE	R7-2	 	 	 	 	 	 	 	 	 	N	W5	08	0	O	DASNY	166166	342626	342626	0	342626	0	0	0	0	0	2	4	7.0	0	1	338.67	800.33	578.67	40.67	 	0	Y	5	5	3438000.0	33230700.0	3438000.0	33230700.0	1962	1989	0	 	CITY COLLEGE, CITY UNIVERSITY OF NE	2.06	3.44	0.0	6.5	1	1019570105.0	0	021703	998537	238149	6a	 	111S023	10706	 	0.0	 	1	16V2	0	2183.59785884	166394.121592
