FID	Shape	Borough	Block	Lot	CD	CT2010	CB2010	SchoolDist	Council	ZipCode	FireComp	PolicePrct	HealthArea	SanitBoro	SanitDistr	SanitSub	Address	ZoneDist1	ZoneDist2	ZoneDist3	ZoneDist4	Overlay1	Overlay2	SPDist1	SPDist2	SPDist3	LtdHeight	SplitZone	BldgClass	LandUse	Easements	OwnerType	OwnerName	LotArea	BldgArea	ComArea	ResArea	OfficeArea	RetailArea	GarageArea	StrgeArea	FactryArea	OtherArea	AreaSource	NumBldgs	NumFloors	UnitsRes	UnitsTotal	LotFront	LotDepth	BldgFront	BldgDepth	Ext	ProxCode	IrrLotCode	LotType	BsmtCode	AssessLand	AssessTot	ExemptLand	ExemptTot	YearBuilt	YearAlter1	YearAlter2	HistDist	Landmark	BuiltFAR	ResidFAR	CommFAR	FacilFAR	BoroCode	BBL	CondoNo	Tract2010	XCoord	YCoord	ZoneMap	ZMCode	Sanborn	TaxMap	EDesigNum	APPBBL	APPDate	PLUTOMapID	Version	MAPPLUTO_F	SHAPE_Leng	SHAPE_Area
4	<geoprocessing describe geometry object object at 0x0F02D5E0>	MN	1	10	101	   5	1018	02	1	10004	E007	1	8100	1	01	 	1 GOVERNORS ISLAND	R3-2	 	 	 	 	 	GI	 	 	 	N	Y4	08	0	P	GOVERNORS ISLAND CORP	7736692	2725731	2725731	0	0	0	0	0	0	2725731	2	158	0.0	0	0	0.0	0.0	0.0	0.0	 	0	N	5	5	104445450.0	156510900.0	104445450.0	156510900.0	1900	0	0	Governors Island Historic District	CASTLE WILLIAMS	0.35	0.6	0.0	1.0	1	1000010010.0	0	0005	979071	190225	16a	Y	199 999	10101	 	0.0	 	1	16V2	0	12277.8305691	7550344.41382
5	<geoprocessing describe geometry object object at 0x0F02D360>	MN	1	101	101	   1	1001	02	1	10004	E007	1	8200	1	01	 	1 LIBERTY ISLAND	R3-2	 	 	 	 	 	 	 	 	 	N	P7	08	0	X	U S GOVT LAND & BLDGS	541886	541886	541886	0	0	0	0	0	0	541886	2	10	0.0	0	0	500.0	1046.0	0.0	0.0	 	0	Y	5	5	4225950.0	12197250.0	4225950.0	12197250.0	1900	0	0	 	STATUE OF LIBERTY NATIONAL MONUMENT	1.0	0.6	0.0	1.0	1	1000010101.0	0	0001	971677	190636	16a	Y	199 999	10101	 	0.0	 	1	16V2	0	3940.83839114	501897.161044
10	<geoprocessing describe geometry object object at 0x0F02DE20>	MN	3	1	101	 319	1000	02	1	10004	L015	1	9000	1	01	 	10 BATTERY PARK	PARK	 	 	 	 	 	 	 	 	 	N	Q1	09	0	C	PARKS AND RECREATION	945425	945425	945425	0	0	0	0	0	0	945425	2	6	1.0	0	4	323.0	1260.0	89.0	57.0	 	1	Y	1	0	127100700.0	129665250.0	127100700.0	129665250.0	1951	0	0	 	BATTERY PARK CONTROL HOUSE (IRT SUB	1.0	0.0	0.0	0.0	1	1000030001.0	0	0319	979916	195328	12b	 	101S087	10101	 	0.0	 	1	16V2	0	5915.52645609	921410.127585
13	<geoprocessing describe geometry object object at 0x0F02D4E0>	MN	3	4	101	 	 	 	0	0	 	0	0	 	 	 	 	PARK	 	 	 	 	 	 	 	 	 	 	Q0	09	0	 	 	0	0	0	0	0	0	0	0	0	0	0	0	0.0	0	0	0.0	0.0	0.0	0.0	 	 	 	 	 	0.0	0.0	0.0	0.0	0	0	0	 	 	0.0	0.0	0.0	0.0	1	1000030004.0	0	0000	0	0	12b	 	11S 087	1	 	0.0	 	3	16V2	0	215.258336362	2776.90477158
16	<geoprocessing describe geometry object object at 0x0F02DE00>	MN	3	10	101	 319	1003	02	1	10004	L015	1	9000	1	01	 	1 SOUTH STREET	M1-4	 	 	 	 	 	LM	 	 	 	N	Z9	 	0	X	UNITED STATES AMERICA	123800	123800	123800	0	0	0	0	0	0	123800	2	2	3.0	0	1	362.0	177.33	37.0	227.0	 	1	Y	2	0	11070000.0	15070950.0	11070000.0	15070950.0	1960	0	0	 	 	1.0	0.0	2.0	6.5	1	1000030010.0	0	0319	980245	194640	12b	 	101S087	10101	 	0.0	 	1	16V2	0	1260.97361633	42164.6414409
23181	<geoprocessing describe geometry object object at 0x0F02D040>	MN	1111	1	164	 143	1039	03	6	10023	E039	22	9100	1	07	1A	1000 5 AVENUE	PARK	 	 	 	 	 	 	 	 	 	N	Q1	09	0	C	CULTURAL AFFAIRS	36590000	0	0	0	0	0	0	0	0	0	7	60	0.0	0	0	0.0	0.0	0.0	0.0	E	0	N	5	5	2855117700.0	3302640000.0	2855117700.0	3302640000.0	0	0	0	 	METROPOLITAN MUSEUM OF ART	0.0	0.0	0.0	0.0	1	1011110001.0	0	0143	993791	224362	8c	Y	106W070	10406	 	0.0	 	1	16V2	0	32106.0091746	36538762.2441
33731	<geoprocessing describe geometry object object at 0x0F02D460>	MN	1819	10	111	 240	1002	04	8	10035	E035	25	8400	1	11	 	        WARDS ISLAND	PARK	 	 	 	 	 	 	 	 	 	N	Q1	09	1	C	PARKS AND RECREATION	12300030	948	948	0	0	0	0	0	0	948	2	48	1.0	0	1	3000.0	4000.0	31.0	21.0	 	1	Y	5	0	14596200.0	75253950.0	14596200.0	75253950.0	1961	0	0	 	 	0.0	0.0	0.0	0.0	1	1018190010.0	0	0240	1003776	225496	6b	Y	199 999	10611	 	0.0	 	1	16V2	0	14775.8026332	9006935.77784
35442	<geoprocessing describe geometry object object at 0x0F02DF80>	MN	1819	50	111	 	 	 	0	10035	E035	25	0	 	 	 	        RANDALLS ISLAND	R6	 	 	 	 	 	 	 	 	 	N	U9	07	0	C	DEPT OF ENVIRONMENTAL	0	0	0	0	0	0	0	0	0	0	7	0	0.0	0	0	140.0	120.0	0.0	0.0	 	0	Y	5	5	0.0	0.0	0.0	0.0	0	0	0	 	 	0.0	2.43	0.0	4.8	1	1018190050.0	0	0000	0	0	6b	 	199 999	10611	 	0.0	 	1	16V2	0	4601.6132434	1217392.47224
35444	<geoprocessing describe geometry object object at 0x0F02D400>	MN	1819	15	111	 240	1004	04	8	10035	E035	25	8400	1	11	 	        WARDS ISLAND	M3-1	 	 	 	 	 	 	 	 	 	N	U9	07	1	C	DEPT OF GENERAL SERVI	3302500	0	0	0	0	0	0	0	0	0	7	53	0.0	0	0	375.0	160.0	0.0	0.0	 	0	Y	5	5	0.0	0.0	0.0	0.0	0	0	0	 	 	0.0	0.0	2.0	0.0	1	1018190015.0	0	0240	1005872	226177	6b	 	199 999	10611	 	0.0	 	1	16V2	0	8153.94798575	2960810.76046
35445	<geoprocessing describe geometry object object at 0x0F02D540>	MN	1819	40	111	 240	1004	04	8	10035	E035	25	8400	1	11	 	8 RANDALLS ISLAND	M3-1	 	 	 	 	 	 	 	 	 	N	Y1	08	1	C	FIRE DEPARTMENT	1000000	94875	94875	0	0	0	0	0	0	94875	2	18	5.0	0	1	132.5	306.5	0.0	0.0	 	0	Y	5	5	12059100.0	24129000.0	12059100.0	24129000.0	1965	0	0	 	 	0.09	0.0	2.0	0.0	1	1018190040.0	0	0240	1006471	227640	6b	 	199 999	10611	 	0.0	 	1	16V2	0	5203.05370901	912324.799053
35446	<geoprocessing describe geometry object object at 0x0F02D940>	MN	1819	203	111	 240	1002	04	8	10035	E035	25	8400	1	11	 	203 RANDALLS ISLAND	PARK	 	 	 	 	 	 	 	 	 	N	Q1	09	1	C	PARKS AND RECREATION	9000000	0	0	0	0	0	0	0	0	0	7	44	0.0	0	0	4000.0	4500.0	0.0	0.0	 	0	Y	5	5	68994000.0	89642700.0	68994000.0	89642700.0	0	0	0	 	 	0.0	0.0	0.0	0.0	1	1018190203.0	0	0240	1005581	229264	6b	 	199 999	10611	 	0.0	 	1	16V2	0	15574.4396392	8264525.95864
35447	<geoprocessing describe geometry object object at 0x0F02DDA0>	MN	1819	30	111	 240	1004	04	8	10035	E035	25	8400	1	11	 	        WARDS ISLAND	M3-1	 	 	 	 	 	 	 	 	 	N	V1	11	0	C	NYC DEP	62060	0	0	0	0	0	0	0	0	0	4	0	0.0	0	0	150.0	535.98	0.0	0.0	 	0	Y	5	5	6248700.0	6248700.0	6248700.0	6248700.0	0	0	0	 	 	0.0	0.0	2.0	0.0	1	1018190030.0	0	0240	1005845	227432	6b	 	199 999	10611	 	0.0	 	1	16V2	0	1230.81318187	62771.0945839
35448	<geoprocessing describe geometry object object at 0x0F02D480>	MN	1819	20	111	 240	1002	04	8	10035	E035	25	8400	1	11	 	        WARDS ISLAND	M3-1	 	 	 	 	 	 	 	 	 	N	U2	07	0	 	CONSOLIDATED GAS CO	0	0	0	0	0	0	0	0	0	0	7	0	0.0	0	0	3.0	30.0	0.0	0.0	 	0	Y	5	5	0.0	0.0	0.0	0.0	0	0	0	 	 	0.0	0.0	2.0	0.0	1	1018190020.0	0	0240	0	0	6b	 	199 999	10611	 	0.0	 	1	16V2	0	634.405097906	13482.3075167
40749	<geoprocessing describe geometry object object at 0x0F02D9E0>	MN	2106	1	112	 311	1004	06	10	10033	L045	34	8600	1	12	2A	506 EDGECOMBE AVENUE	PARK	 	 	 	 	 	 	 	 	 	N	Q3	09	0	C	PARKS AND RECREATION	3293950	20054	20054	0	0	0	0	0	0	20054	2	10	1.0	0	1	558.08	718.92	45.83	245.83	 	0	Y	3	5	23627700.0	29668950.0	23627700.0	29668950.0	1949	0	0	 	WATER TOWER, HIGH BRIDGE PARK	0.01	0.0	0.0	0.0	1	1021060001.0	0	0311	1002597	245726	3b	 	111 N74	10801	 	0.0	 	1	16V2	0	14471.7123743	3270429.08776
40778	<geoprocessing describe geometry object object at 0x0F2D0C80>	MN	2106	400	112	 	 	 	0	0	 	0	0	 	 	 	        AMSTERDAM AVENUE	R7-2	 	 	 	 	 	 	 	 	 	N	V7	11	0	X	PORT OF NY AUTH	450	0	0	0	0	0	0	0	0	0	4	0	0.0	0	0	86.42	33.83	0.0	0.0	 	0	Y	5	5	49140.0	49140.0	49140.0	49140.0	0	0	0	 	 	0.0	3.44	0.0	6.5	1	1021060400.0	0	0000	0	0	3b	 	112 083	10801	 	0.0	 	1	16V2	0	200.283486168	361.881192519
40826	<geoprocessing describe geometry object object at 0x0F2D0C80>	MN	2149	2	112	 311	1005	 	10	10033	L045	34	8600	1	12	 	        AMSTERDAM AVENUE	PARK	 	 	 	 	 	 	 	 	 	N	Q1	09	0	P	NYC PARKS	28000	0	0	0	0	0	0	0	0	0	7	0	0.0	0	0	150.0	189.92	0.0	0.0	 	0	N	3	5	388800.0	388800.0	388800.0	388800.0	0	0	0	 	 	0.0	0.0	0.0	0.0	1	1021490002.0	0	0311	1003556	248315	3b	 	112 083	10803	 	0.0	 	1	16V2	0	708.618529373	30900.6139375
41271	<geoprocessing describe geometry object object at 0x0F2D0820>	MN	2149	525	112	 311	1000	06	10	10033	L045	34	8600	1	12	3A	        LAUREL HILL TERRACE	PARK	 	 	 	 	 	 	 	 	 	N	Q1	09	0	C	PARKS AND RECREATION	2237500	0	0	0	0	0	0	0	0	0	7	1	1.0	0	0	2020.0	1030.0	0.0	45.0	 	0	Y	2	5	22544100.0	26021250.0	22544100.0	26021250.0	1954	0	0	 	HISTORIC STREET LAMPPOSTS	0.0	0.0	0.0	0.0	1	1021490525.0	0	0311	1005077	250717	3a	Y	112 048	10803	 	0.0	 	1	16V2	0	12396.0786572	2266822.12
41870	<geoprocessing describe geometry object object at 0x0F2D0820>	MN	2255	1031	112	 297	 	06	10	10034	E095	34	120	1	12	4B	        DYCKMAN STREET	R7-2	 	 	 	 	 	 	 	 	 	N	U1	07	1	P	NATIONAL RAILROAD ETA	30525	0	0	0	0	0	0	0	0	0	7	0	0.0	0	0	73.58	947.5	0.0	0.0	 	0	N	5	5	0.0	0.0	0.0	0.0	0	0	0	 	 	0.0	3.44	0.0	6.5	1	1022551031.0	0	0297	0	0	3a	Y	112 074	10804	 	0.0	 	1	16V2	0	1936.57210234	35061.5044918
41973	<geoprocessing describe geometry object object at 0x0F2D0820>	MN	2255	2000	112	 297	1000	06	10	10034	E095	34	120	1	12	4B	269 DYCKMAN STREET	PARK	 	 	 	 	 	 	 	 	 	N	Q1	09	1	M	TRUSTEE OF COLUMBIA U	11320000	0	0	0	0	0	0	0	0	0	7	6	1.0	0	0	1080.17	5000.0	0.0	0.0	 	0	Y	2	5	51286500.0	57588300.0	51286500.0	57588300.0	1940	0	0	 	 	0.0	0.0	0.0	0.0	1	1022552000.0	0	0297	1004800	257521	1b	Y	112 074	10804	 	0.0	 	1	16V2	0	21737.3203591	7989918.40529
41990	<geoprocessing describe geometry object object at 0x0F2D0CE0>	MN	2255	1	112	 297	1000	06	10	10034	E095	34	120	1	12	4B	570 WEST 214 STREET	PARK	 	 	 	 	 	 	 	 	 	N	Q1	09	0	C	PARKS AND RECREATION	448200	0	0	0	0	0	0	0	0	0	7	2	1.0	0	0	338.0	604.0	0.0	15.0	 	0	Y	3	5	6930000.0	8297550.0	6930000.0	8297550.0	1931	0	0	 	 	0.0	0.0	0.0	0.0	1	1022550001.0	0	0297	1006283	256853	1b	Y	112 074	10804	 	0.0	 	1	16V2	0	3394.09279235	448252.767534
42012	<geoprocessing describe geometry object object at 0x0F2D0CE0>	MN	2244	1	112	 297	1000	06	10	10034	E095	34	120	1	12	4B	501 WEST 218 STREET	R7-2	 	 	 	 	 	 	 	 	 	N	Q6	09	0	P	COLUMBIA UNIV TR CITY	1004668	151794	151794	0	0	0	3490	0	0	100604	2	8	2.0	0	2	1438.75	786.75	80.0	105.0	 	0	Y	3	1	18441000.0	32532750.0	18441000.0	32532750.0	1985	1997	0	 	 	0.15	3.44	0.0	6.5	1	1022440001.0	0	0297	1007622	257386	1b	 	112 072	10804	 	0.0	 	1	16V2	0	4684.57383644	1020528.93154
42205	<geoprocessing describe geometry object object at 0x0F2D0CE0>	MN	2244	100	112	 297	1000	06	10	10034	E095	34	120	1	12	4B	5141 BROADWAY	R7-2	 	 	 	 	 	 	 	 	 	N	I1	08	1	P	THE PRESPYTERIAN HOSP	195907	249390	249390	0	0	0	0	0	0	249390	2	2	3.0	0	1	502.0	415.75	220.0	500.0	 	0	Y	5	2	3739824.0	45359874.0	3739824.0	45359874.0	1988	1997	2012	 	 	1.27	3.44	0.0	6.5	1	1022440100.0	0	0297	1008325	257430	1b	Y	112 077	10804	 	0.0	 	1	16V2	0	1966.69634006	193478.456774
42210	<geoprocessing describe geometry object object at 0x0F02D600>	MN	2244	200	112	 297	1000	06	10	10034	E095	34	120	1	12	4B	        BROADWAY	R7-2	 	 	 	 	 	 	 	 	 	N	U1	07	0	C	NYC DEPT OF HIGHWAYS	0	0	0	0	0	0	0	0	0	0	7	0	0.0	0	0	210.75	39.75	0.0	0.0	 	0	Y	5	5	0.0	0.0	0.0	0.0	0	0	0	 	 	0.0	3.44	0.0	6.5	1	1022440200.0	0	0297	1008623	257420	1d	Y	112 077	10804	 	0.0	 	1	16V2	0	472.609230984	4322.97130883
